<?xml version='1.0' encoding='UTF-8'?>
<!--
 SPDX-FileCopyrightText: OpenStreetMap contributors
 SPDX-License-Identifier: ODbL-1.0
-->
<osm version="0.6" generator="osmfilter 1.4.4">
	<bounds minlat="52.5212348" minlon="13.3621216" maxlat="52.52959" maxlon="13.3758545"/>
	<node id="26162555" lat="52.5245643" lon="13.3666593">
		<tag k="ref" v="320"/>
	</node>
	<node id="27257038" lat="52.5235353" lon="13.3705271">
		<tag k="ref" v="51 N5"/>
	</node>
	<node id="27412648" lat="52.5251819" lon="13.37003">
		<tag k="public_transport" v="stop_position"/>
		<tag k="train" v="yes"/>
		<tag k="railway" v="stop"/>
		<tag k="light_rail" v="yes"/>
		<tag k="level" v="2"/>
		<tag k="local_ref" v="15"/>
		<tag k="name" v="S Hauptbahnhof"/>
	</node>
	<node id="27412649" lat="52.5250491" lon="13.3686639"/>
	<node id="27528168" lat="52.5247178" lon="13.3671452"/>
	<node id="29070742" lat="52.5251377" lon="13.369419"/>
	<node id="29805010" lat="52.5248701" lon="13.371088"/>
	<node id="29805015" lat="52.5242683" lon="13.3669616"/>
	<node id="253845585" lat="52.5266968" lon="13.3691374"/>
	<node id="276689591" lat="52.5246361" lon="13.3686743"/>
	<node id="276689596" lat="52.5244073" lon="13.3667872"/>
	<node id="276689598" lat="52.524779" lon="13.3682872"/>
	<node id="276689599" lat="52.5248379" lon="13.3686604"/>
	<node id="276689603" lat="52.5250461" lon="13.3710433"/>
	<node id="276689609" lat="52.5246706" lon="13.3665698"/>
	<node id="276689610" lat="52.5248402" lon="13.3670951"/>
	<node id="276689612" lat="52.5253047" lon="13.3695336"/>
	<node id="276689614" lat="52.5253309" lon="13.3701144"/>
	<node id="276689615" lat="52.5253415" lon="13.3709259">
		<tag k="ref" v="317"/>
	</node>
	<node id="285864875" lat="52.525191" lon="13.3710005"/>
	<node id="285864878" lat="52.5251032" lon="13.369404"/>
	<node id="285864880" lat="52.525" lon="13.3686001"/>
	<node id="285864881" lat="52.5249302" lon="13.3682106"/>
	<node id="285864883" lat="52.5246712" lon="13.3671909"/>
	<node id="285864885" lat="52.5245387" lon="13.3667553"/>
	<node id="285864907" lat="52.5250079" lon="13.3710733"/>
	<node id="285864910" lat="52.5249389" lon="13.3697476"/>
	<node id="285864911" lat="52.5248774" lon="13.3691497"/>
	<node id="285864913" lat="52.5248134" lon="13.3686671"/>
	<node id="285864914" lat="52.5247499" lon="13.3683035"/>
	<node id="285864918" lat="52.524382" lon="13.3668577"/>
	<node id="285864931" lat="52.5243048" lon="13.3664726">
		<tag k="railway" v="milestone"/>
	</node>
	<node id="285864932" lat="52.5242633" lon="13.3664907"/>
	<node id="285864933" lat="52.5241725" lon="13.3666457"/>
	<node id="285864947" lat="52.5244726" lon="13.3677683"/>
	<node id="285864953" lat="52.5248294" lon="13.3675503"/>
	<node id="390962614" lat="52.5267751" lon="13.3693687">
		<tag k="railway" v="subway_entrance"/>
		<tag k="level" v="0"/>
		<tag k="name" v="U Hauptbahnhof"/>
	</node>
	<node id="446289301" lat="52.5252589" lon="13.3702857">
		<tag k="public_transport" v="stop_position"/>
		<tag k="railway" v="stop"/>
		<tag k="name" v="U Hauptbahnhof"/>
		<tag k="subway" v="yes"/>
		<tag k="ref:BVG" v="254601"/>
		<tag k="start_date" v="2009-08-09"/>
	</node>
	<node id="446301550" lat="52.5271709" lon="13.3683171"/>
	<node id="446301552" lat="52.5236052" lon="13.3707975">
		<tag k="ref" v="51 N7"/>
	</node>
	<node id="446301554" lat="52.5234079" lon="13.3709216">
		<tag k="ref" v="51W130"/>
		<tag k="railway:turnout_side" v="right"/>
	</node>
	<node id="446301567" lat="52.5234624" lon="13.3702452">
		<tag k="ref" v="51 N3"/>
	</node>
	<node id="446301572" lat="52.526932" lon="13.3674952">
		<tag k="ref" v="51 ZU1"/>
	</node>
	<node id="446301575" lat="52.5238216" lon="13.3696637"/>
	<node id="539318419" lat="52.5249589" lon="13.3696275"/>
	<node id="647690845" lat="52.5259914" lon="13.3699138"/>
	<node id="690308173" lat="52.525089" lon="13.3681426"/>
	<node id="690308175" lat="52.5249839" lon="13.3686102"/>
	<node id="690308176" lat="52.5247957" lon="13.3686738"/>
	<node id="690308177" lat="52.5246532" lon="13.3686646"/>
	<node id="721945115" lat="52.5248473" lon="13.3686552"/>
	<node id="721945125" lat="52.5249699" lon="13.3696249"/>
	<node id="721945126" lat="52.5250861" lon="13.3694114"/>
	<node id="721945127" lat="52.5249144" lon="13.3682224"/>
	<node id="724152360" lat="52.5246084" lon="13.3677917"/>
	<node id="724152363" lat="52.5248584" lon="13.3691567"/>
	<node id="724152364" lat="52.5246742" lon="13.367786"/>
	<node id="724152365" lat="52.524473" lon="13.3676939"/>
	<node id="724161084" lat="52.5248406" lon="13.3704581"/>
	<node id="724161085" lat="52.5249635" lon="13.3703632"/>
	<node id="724161086" lat="52.5250576" lon="13.3710424"/>
	<node id="724161087" lat="52.5251774" lon="13.3710018"/>
	<node id="738234511" lat="52.525183" lon="13.3698848"/>
	<node id="738234530" lat="52.5249791" lon="13.3681947"/>
	<node id="738234535" lat="52.5253382" lon="13.3706244"/>
	<node id="738234538" lat="52.5252939" lon="13.36954"/>
	<node id="738234540" lat="52.5249469" lon="13.3689107">
		<tag k="level" v="2"/>
	</node>
	<node id="738234548" lat="52.5252275" lon="13.3706357"/>
	<node id="742238059" lat="52.5252485" lon="13.369915">
		<tag k="level" v="2"/>
	</node>
	<node id="748364697" lat="52.524691" lon="13.3689383"/>
	<node id="748364699" lat="52.5244308" lon="13.3668128"/>
	<node id="748364701" lat="52.5241885" lon="13.3666342"/>
	<node id="748364702" lat="52.5247248" lon="13.3683103"/>
	<node id="748364703" lat="52.5249215" lon="13.3697474"/>
	<node id="748364704" lat="52.5245542" lon="13.3672536"/>
	<node id="748364705" lat="52.5246048" lon="13.3683699"/>
	<node id="748364706" lat="52.524994" lon="13.3710739"/>
	<node id="748364709" lat="52.5247876" lon="13.3682804"/>
	<node id="748364711" lat="52.5244785" lon="13.3672862"/>
	<node id="748364712" lat="52.5251337" lon="13.3700544"/>
	<node id="748364714" lat="52.5248826" lon="13.3710864"/>
	<node id="748364716" lat="52.5244169" lon="13.3674627"/>
	<node id="748364718" lat="52.5244529" lon="13.3665425"/>
	<node id="748364719" lat="52.5244311" lon="13.3670992"/>
	<node id="748364721" lat="52.524527" lon="13.3667682"/>
	<node id="748364723" lat="52.5250403" lon="13.368996"/>
	<node id="748364728" lat="52.5243384" lon="13.3671696"/>
	<node id="817754406" lat="52.5262167" lon="13.3690407">
		<tag k="public_transport" v="stop_position"/>
		<tag k="local_ref" v="1"/>
		<tag k="name" v="S+U Hauptbahnhof"/>
		<tag k="bus" v="yes"/>
		<tag k="ref:BVG" v="103893"/>
	</node>
	<node id="817763144" lat="52.5266615" lon="13.3689034">
		<tag k="public_transport" v="stop_position"/>
		<tag k="local_ref" v="3"/>
		<tag k="name" v="S+U Hauptbahnhof"/>
		<tag k="bus" v="yes"/>
		<tag k="ref:BVG" v="100100"/>
	</node>
	<node id="892675614" lat="52.5266088" lon="13.3688069">
		<tag k="name" v="S+U Hauptbahnhof"/>
		<tag k="highway" v="bus_stop"/>
	</node>
	<node id="892675617" lat="52.5265638" lon="13.3692967">
		<tag k="public_transport" v="stop_position"/>
		<tag k="local_ref" v="2"/>
		<tag k="name" v="S+U Hauptbahnhof"/>
		<tag k="bus" v="yes"/>
		<tag k="ref:BVG" v="103892"/>
	</node>
	<node id="983272582" lat="52.5242078" lon="13.3697527">
		<tag k="name" v="Hauptbahnhof Washingtonplatz"/>
		<tag k="amenity" v="taxi"/>
		<tag k="capacity" v="8"/>
	</node>
	<node id="983272586" lat="52.525812" lon="13.3687674">
		<tag k="name" v="Hauptbahnhof-Europaplatz"/>
		<tag k="amenity" v="taxi"/>
		<tag k="capacity" v="5"/>
	</node>
	<node id="988669010" lat="52.5251787" lon="13.3685527"/>
	<node id="988669016" lat="52.5249621" lon="13.3681747">
		<tag k="ref" v="319"/>
	</node>
	<node id="988669017" lat="52.5253447" lon="13.3705514"/>
	<node id="988669021" lat="52.5251021" lon="13.3681471">
		<tag k="ref" v="321"/>
	</node>
	<node id="1003534073" lat="52.5247917" lon="13.3705775"/>
	<node id="1003534074" lat="52.5258146" lon="13.3697924"/>
	<node id="1003534077" lat="52.5257866" lon="13.3696856"/>
	<node id="1003534083" lat="52.5258278" lon="13.3698428"/>
	<node id="1003534093" lat="52.5247506" lon="13.3704202"/>
	<node id="1003534101" lat="52.525722" lon="13.3699178"/>
	<node id="1003553261" lat="52.5247772" lon="13.3705221"/>
	<node id="1003553263" lat="52.5249256" lon="13.3704169"/>
	<node id="1003553265" lat="52.524915" lon="13.3703766"/>
	<node id="1003553269" lat="52.5247668" lon="13.3704818"/>
	<node id="1003553650" lat="52.5258039" lon="13.3697516"/>
	<node id="1003555482" lat="52.5249204" lon="13.3703968">
		<tag k="level" v="-2"/>
	</node>
	<node id="1003555484" lat="52.5249233" lon="13.3702978"/>
	<node id="1003555504" lat="52.5249645" lon="13.3704549"/>
	<node id="1232835380" lat="52.5248928" lon="13.3689913"/>
	<node id="1232835390" lat="52.5252599" lon="13.369083"/>
	<node id="1232835402" lat="52.5250247" lon="13.3703557"/>
	<node id="1232835458" lat="52.525147" lon="13.3702332"/>
	<node id="1368456325" lat="52.5258212" lon="13.3673405">
		<tag k="railway" v="power_supply"/>
		<tag k="ref" v="106.02-1"/>
	</node>
	<node id="1368456336" lat="52.5260287" lon="13.3679483"/>
	<node id="1920302200" lat="52.5260472" lon="13.3701217"/>
	<node id="2021800244" lat="52.5268252" lon="13.3695318"/>
	<node id="2021800260" lat="52.5247387" lon="13.3703803"/>
	<node id="2021800360" lat="52.5235913" lon="13.3707434">
		<tag k="ref" v="51 N6"/>
	</node>
	<node id="2021800364" lat="52.5267652" lon="13.3693236"/>
	<node id="2021800388" lat="52.5266024" lon="13.3690617"/>
	<node id="2021800391" lat="52.5232188" lon="13.3712494"/>
	<node id="2021837083" lat="52.5244388" lon="13.371032"/>
	<node id="2021837084" lat="52.524799" lon="13.370609"/>
	<node id="2021837086" lat="52.5242942" lon="13.3714187"/>
	<node id="2021837088" lat="52.5245088" lon="13.3712409"/>
	<node id="2021837090" lat="52.5239809" lon="13.3715153"/>
	<node id="2047095964" lat="52.5250582" lon="13.3714944"/>
	<node id="2047095986" lat="52.5252844" lon="13.3692785"/>
	<node id="2071350613" lat="52.5248925" lon="13.3713354"/>
	<node id="2071350638" lat="52.5249992" lon="13.371334"/>
	<node id="2071350654" lat="52.5250649" lon="13.3713403"/>
	<node id="2071350681" lat="52.525182" lon="13.3713365"/>
	<node id="2071350685" lat="52.5251956" lon="13.371319"/>
	<node id="2071350693" lat="52.525243" lon="13.3712986"/>
	<node id="2071350699" lat="52.5253391" lon="13.3713112"/>
	<node id="2071375253" lat="52.5242782" lon="13.3665882"/>
	<node id="2071375255" lat="52.524281" lon="13.3669488"/>
	<node id="2071375265" lat="52.5243454" lon="13.3665447"/>
	<node id="2071375274" lat="52.5243672" lon="13.3668634"/>
	<node id="2071375278" lat="52.5244441" lon="13.3670764"/>
	<node id="2071375282" lat="52.5244758" lon="13.3670283"/>
	<node id="2085211643" lat="52.5264969" lon="13.3694391">
		<tag k="public_transport" v="stop_position"/>
		<tag k="railway" v="tram_stop"/>
		<tag k="local_ref" v="5"/>
		<tag k="name" v="S+U Hauptbahnhof"/>
		<tag k="ref:BVG" v="308856"/>
		<tag k="tram" v="yes"/>
	</node>
	<node id="2085214310" lat="52.5255728" lon="13.3665506"/>
	<node id="2085214312" lat="52.5255387" lon="13.3664592"/>
	<node id="2085238177" lat="52.5242095" lon="13.3712323"/>
	<node id="2085238191" lat="52.5236712" lon="13.3712555"/>
	<node id="2085238197" lat="52.5245349" lon="13.3708167"/>
	<node id="2085238201" lat="52.5231525" lon="13.3701767"/>
	<node id="2088354767" lat="52.5241153" lon="13.370949">
		<tag k="railway" v="subway_entrance"/>
		<tag k="level" v="-1"/>
		<tag k="name" v="U Hauptbahnhof"/>
	</node>
	<node id="2089375008" lat="52.5247542" lon="13.3668151"/>
	<node id="2089375225" lat="52.5258093" lon="13.3697721">
		<tag k="level" v="-2"/>
	</node>
	<node id="2089428358" lat="52.5258915" lon="13.3698295"/>
	<node id="2089428360" lat="52.5261091" lon="13.3696316"/>
	<node id="2089428403" lat="52.5269521" lon="13.3687745"/>
	<node id="2089428404" lat="52.5272016" lon="13.3685453">
		<tag k="ref" v="51 ZU8"/>
	</node>
	<node id="2089428406" lat="52.5270238" lon="13.3688584"/>
	<node id="2126702982" lat="52.524229" lon="13.3709832"/>
	<node id="2126703015" lat="52.5269766" lon="13.3676734"/>
	<node id="2126703019" lat="52.5270117" lon="13.3678092"/>
	<node id="2182805377" lat="52.5233894" lon="13.3699627">
		<tag k="ref" v="51 N1"/>
	</node>
	<node id="2182805378" lat="52.5234476" lon="13.3701879">
		<tag k="ref" v="51 N2"/>
	</node>
	<node id="2182805380" lat="52.5235205" lon="13.3704697">
		<tag k="ref" v="51 N4"/>
	</node>
	<node id="2182805384" lat="52.5236644" lon="13.3710261">
		<tag k="ref" v="51 N8"/>
	</node>
	<node id="2182805385" lat="52.5248283" lon="13.3704891"/>
	<node id="2182805386" lat="52.5249812" lon="13.3704047"/>
	<node id="2182805387" lat="52.5250167" lon="13.3703999"/>
	<node id="2182805388" lat="52.5251705" lon="13.3703657"/>
	<node id="2182805389" lat="52.5257348" lon="13.3699422"/>
	<node id="2182805390" lat="52.5258663" lon="13.3698476"/>
	<node id="2182805391" lat="52.5258912" lon="13.3698139"/>
	<node id="2182805392" lat="52.5259184" lon="13.3697523"/>
	<node id="2182805393" lat="52.5260206" lon="13.3695743"/>
	<node id="2182805394" lat="52.5261119" lon="13.3694444"/>
	<node id="2182805395" lat="52.5262507" lon="13.369308"/>
	<node id="2182805396" lat="52.5269845" lon="13.3677068">
		<tag k="ref" v="51 ZU2"/>
	</node>
	<node id="2182805397" lat="52.5270008" lon="13.3677755">
		<tag k="ref" v="51 ZU3"/>
	</node>
	<node id="2182805398" lat="52.5270541" lon="13.3679813">
		<tag k="ref" v="51 ZU4"/>
	</node>
	<node id="2182805399" lat="52.5270726" lon="13.3680537">
		<tag k="ref" v="51 ZU5"/>
	</node>
	<node id="2182805400" lat="52.5271247" lon="13.3682547">
		<tag k="ref" v="51 ZU6"/>
	</node>
	<node id="2182805401" lat="52.5271458" lon="13.3683349">
		<tag k="ref" v="51 ZU7"/>
	</node>
	<node id="2183466847" lat="52.5252174" lon="13.3706985">
		<tag k="ref" v="316"/>
	</node>
	<node id="2183466850" lat="52.525344" lon="13.3706944">
		<tag k="ref" v="314"/>
	</node>
	<node id="2456100722" lat="52.5260976" lon="13.3682454"/>
	<node id="2459919675" lat="52.5246361" lon="13.369861">
		<tag k="public_transport" v="station"/>
		<tag k="train" v="yes"/>
		<tag k="railway" v="station"/>
		<tag k="name" v="Berlin Hauptbahnhof (Tief)"/>
		<tag k="start_date" v="2006-05-28"/>
		<tag k="toilets:wheelchair" v="yes"/>
		<tag k="uic_ref" v="8098160"/>
		<tag k="official_name" v="Berlin Hauptbahnhof - Lehrter Bahnhof"/>
		<tag k="railway:station_category" v="1"/>
		<tag k="uic_name" v="Berlin Hauptbahnhof (tief)"/>
		<tag k="railway:ref" v="BL"/>
	</node>
	<node id="2459919676" lat="52.5252949" lon="13.3706843">
		<tag k="railway" v="proposed"/>
		<tag k="light_rail" v="yes"/>
		<tag k="name" v="S Hauptbahnhof (Tunnel)"/>
		<tag k="uic_ref" v="8011160"/>
		<tag k="railway:station_category" v="1"/>
		<tag k="railway:ref" v="BHBT"/>
		<tag k="station" v="light_rail"/>
		<tag k="network:short" v="VBB"/>
		<tag k="construction:railway" v="halt"/>
		<tag k="proposed:railway" v="station"/>
		<tag k="construction:public_transport" v="station"/>
		<tag k="proposed:public_transport" v="station"/>
	</node>
	<node id="2739626570" lat="52.5269393" lon="13.3675293"/>
	<node id="2739626572" lat="52.5270488" lon="13.3679525"/>
	<node id="2741907541" lat="52.5244728" lon="13.369592"/>
	<node id="2741907549" lat="52.5245087" lon="13.3697298"/>
	<node id="2741907551" lat="52.524544" lon="13.3698709"/>
	<node id="2741907557" lat="52.5245805" lon="13.3700088"/>
	<node id="2742225757" lat="52.5247625" lon="13.3685074"/>
	<node id="2742225758" lat="52.5247646" lon="13.3675828"/>
	<node id="2742232989" lat="52.524676" lon="13.3689519"/>
	<node id="2742232992" lat="52.5251419" lon="13.3683488"/>
	<node id="2744353885" lat="52.524223" lon="13.3694316"/>
	<node id="2744353887" lat="52.5242586" lon="13.3695749"/>
	<node id="2744353907" lat="52.524835" lon="13.3703979"/>
	<node id="2744353914" lat="52.5250106" lon="13.3701643"/>
	<node id="2744353917" lat="52.5251405" lon="13.3701384"/>
	<node id="2745766948" lat="52.5240816" lon="13.3701908"/>
	<node id="2745766957" lat="52.524115" lon="13.3703331"/>
	<node id="2745766968" lat="52.5241579" lon="13.3704677"/>
	<node id="2745766981" lat="52.5241927" lon="13.3706109"/>
	<node id="2745767150" lat="52.5255996" lon="13.3684666"/>
	<node id="2745767152" lat="52.5256687" lon="13.3687486"/>
	<node id="2745767159" lat="52.5256358" lon="13.3686087"/>
	<node id="2745767162" lat="52.5257043" lon="13.368892"/>
	<node id="2745767176" lat="52.5255981" lon="13.369127"/>
	<node id="2745767183" lat="52.5256344" lon="13.3692685"/>
	<node id="2745767193" lat="52.5258131" lon="13.3693091"/>
	<node id="2745767213" lat="52.5258493" lon="13.3694518"/>
	<node id="2746268187" lat="52.52476" lon="13.3690152">
		<tag k="level" v="2"/>
	</node>
	<node id="2746268192" lat="52.5247695" lon="13.3690123">
		<tag k="level" v="2"/>
	</node>
	<node id="2746268202" lat="52.5247796" lon="13.3690093">
		<tag k="level" v="2"/>
	</node>
	<node id="2746268215" lat="52.5248275" lon="13.3702976"/>
	<node id="2746268221" lat="52.5248711" lon="13.3688283"/>
	<node id="2746268225" lat="52.5248828" lon="13.3701517">
		<tag k="level" v="2"/>
	</node>
	<node id="2746268233" lat="52.5248939" lon="13.3701489">
		<tag k="level" v="2"/>
	</node>
	<node id="2746268244" lat="52.5249554" lon="13.368908">
		<tag k="level" v="2"/>
	</node>
	<node id="2746268246" lat="52.5249574" lon="13.3702712"/>
	<node id="2746268247" lat="52.5249653" lon="13.3689049">
		<tag k="level" v="2"/>
	</node>
	<node id="2746268250" lat="52.5250087" lon="13.3687821"/>
	<node id="2746268260" lat="52.5250561" lon="13.3700187">
		<tag k="level" v="2"/>
	</node>
	<node id="2746268262" lat="52.5250664" lon="13.3687013"/>
	<node id="2746268263" lat="52.5250664" lon="13.3700168">
		<tag k="level" v="2"/>
	</node>
	<node id="2746268270" lat="52.5250764" lon="13.3700149">
		<tag k="level" v="2"/>
	</node>
	<node id="2746268273" lat="52.5251416" lon="13.3687898">
		<tag k="level" v="2"/>
	</node>
	<node id="2746268274" lat="52.5251517" lon="13.3687858">
		<tag k="level" v="2"/>
	</node>
	<node id="2746268276" lat="52.5251822" lon="13.3686484"/>
	<node id="2746268284" lat="52.5251964" lon="13.3700585"/>
	<node id="2746268287" lat="52.525237" lon="13.369917">
		<tag k="level" v="2"/>
	</node>
	<node id="2746268294" lat="52.5252596" lon="13.3699131">
		<tag k="level" v="2"/>
	</node>
	<node id="2746268297" lat="52.5253167" lon="13.3700379"/>
	<node id="2779799796" lat="52.5248722" lon="13.3701543">
		<tag k="level" v="2"/>
	</node>
	<node id="2779799798" lat="52.5261745" lon="13.3680642"/>
	<node id="2779799802" lat="52.5262104" lon="13.3682068"/>
	<node id="2779799804" lat="52.5262471" lon="13.368344"/>
	<node id="2779799807" lat="52.5262842" lon="13.3684861"/>
	<node id="2779799810" lat="52.5263193" lon="13.3686242"/>
	<node id="2779799814" lat="52.5263567" lon="13.3687653"/>
	<node id="2779799816" lat="52.5264015" lon="13.3688967"/>
	<node id="2779799819" lat="52.5264382" lon="13.3690386"/>
	<node id="2813070481" lat="52.524742" lon="13.3695626">
		<tag k="public_transport" v="stop_position"/>
		<tag k="train" v="yes"/>
		<tag k="railway" v="stop"/>
		<tag k="level" v="2"/>
		<tag k="local_ref" v="11"/>
		<tag k="name" v="Berlin Hauptbahnhof"/>
		<tag k="ref" v="11"/>
	</node>
	<node id="2813070482" lat="52.5249126" lon="13.3694603">
		<tag k="public_transport" v="stop_position"/>
		<tag k="train" v="yes"/>
		<tag k="railway" v="stop"/>
		<tag k="level" v="2"/>
		<tag k="local_ref" v="12"/>
		<tag k="name" v="Berlin Hauptbahnhof"/>
		<tag k="ref" v="12"/>
	</node>
	<node id="2813070483" lat="52.5249394" lon="13.3694418">
		<tag k="public_transport" v="stop_position"/>
		<tag k="train" v="yes"/>
		<tag k="railway" v="stop"/>
		<tag k="level" v="2"/>
		<tag k="local_ref" v="13"/>
		<tag k="name" v="Berlin Hauptbahnhof"/>
	</node>
	<node id="2813070484" lat="52.5250952" lon="13.3693329">
		<tag k="public_transport" v="stop_position"/>
		<tag k="train" v="yes"/>
		<tag k="railway" v="stop"/>
		<tag k="level" v="2"/>
		<tag k="local_ref" v="14"/>
		<tag k="name" v="Berlin Hauptbahnhof"/>
	</node>
	<node id="2813070485" lat="52.5251094" lon="13.3691198"/>
	<node id="2813070486" lat="52.525275" lon="13.3692007">
		<tag k="public_transport" v="stop_position"/>
		<tag k="train" v="yes"/>
		<tag k="railway" v="stop"/>
		<tag k="light_rail" v="yes"/>
		<tag k="level" v="2"/>
		<tag k="local_ref" v="16"/>
		<tag k="name" v="S Hauptbahnhof"/>
	</node>
	<node id="2813070487" lat="52.5258846" lon="13.3682295">
		<tag k="public_transport" v="stop_position"/>
		<tag k="train" v="yes"/>
		<tag k="railway" v="stop"/>
		<tag k="level" v="-2"/>
		<tag k="name" v="Berlin Hauptbahnhof (Tief)"/>
	</node>
	<node id="2813070488" lat="52.525925" lon="13.3684454">
		<tag k="public_transport" v="stop_position"/>
		<tag k="train" v="yes"/>
		<tag k="railway" v="stop"/>
		<tag k="level" v="0"/>
		<tag k="name" v="Berlin Hauptbahnhof (Tief)"/>
	</node>
	<node id="2813070489" lat="52.5259404" lon="13.3685191">
		<tag k="public_transport" v="stop_position"/>
		<tag k="train" v="yes"/>
		<tag k="railway" v="stop"/>
		<tag k="level" v="-2"/>
		<tag k="name" v="Berlin Hauptbahnhof (Tief)"/>
	</node>
	<node id="2813070490" lat="52.5259971" lon="13.3687223">
		<tag k="public_transport" v="stop_position"/>
		<tag k="train" v="yes"/>
		<tag k="railway" v="stop"/>
		<tag k="level" v="0"/>
		<tag k="name" v="Berlin Hauptbahnhof (Tief)"/>
	</node>
	<node id="2813070491" lat="52.5260107" lon="13.3687936">
		<tag k="public_transport" v="stop_position"/>
		<tag k="train" v="yes"/>
		<tag k="railway" v="stop"/>
		<tag k="level" v="-2"/>
		<tag k="name" v="Berlin Hauptbahnhof (Tief)"/>
	</node>
	<node id="2813070492" lat="52.5260795" lon="13.3690843">
		<tag k="public_transport" v="stop_position"/>
		<tag k="train" v="yes"/>
		<tag k="railway" v="stop"/>
		<tag k="level" v="-2"/>
		<tag k="name" v="Berlin Hauptbahnhof (Tief)"/>
	</node>
	<node id="2813070493" lat="52.5260605" lon="13.369012">
		<tag k="public_transport" v="stop_position"/>
		<tag k="train" v="yes"/>
		<tag k="railway" v="stop"/>
		<tag k="level" v="-2"/>
		<tag k="name" v="Berlin Hauptbahnhof (Tief)"/>
	</node>
	<node id="2813070494" lat="52.5261452" lon="13.3692855">
		<tag k="public_transport" v="stop_position"/>
		<tag k="train" v="yes"/>
		<tag k="railway" v="stop"/>
		<tag k="level" v="-2"/>
		<tag k="name" v="Berlin Hauptbahnhof (Tief)"/>
	</node>
	<node id="2821132947" lat="52.5247521" lon="13.3690175"/>
	<node id="2821132948" lat="52.524781" lon="13.3692782"/>
	<node id="2821132950" lat="52.5247896" lon="13.3690063"/>
	<node id="2821132952" lat="52.5248185" lon="13.369267"/>
	<node id="2821132954" lat="52.5248388" lon="13.3698863"/>
	<node id="2821132955" lat="52.5248636" lon="13.3701564"/>
	<node id="2821132956" lat="52.5248783" lon="13.3698765"/>
	<node id="2821132957" lat="52.5249031" lon="13.3701467"/>
	<node id="2821132958" lat="52.5249391" lon="13.3689131"/>
	<node id="2821132959" lat="52.5249691" lon="13.3691734"/>
	<node id="2821132961" lat="52.5249737" lon="13.3689023"/>
	<node id="2821132965" lat="52.5250037" lon="13.3691626"/>
	<node id="2821132969" lat="52.52503" lon="13.3697509"/>
	<node id="2821132970" lat="52.5250487" lon="13.3700201"/>
	<node id="2821132972" lat="52.5250689" lon="13.3697437"/>
	<node id="2821132973" lat="52.5250876" lon="13.3700128"/>
	<node id="2821132974" lat="52.5251235" lon="13.368797"/>
	<node id="2821132975" lat="52.5251615" lon="13.3690566"/>
	<node id="2821132976" lat="52.5251592" lon="13.3687828"/>
	<node id="2821132978" lat="52.5251973" lon="13.3690425"/>
	<node id="2821132980" lat="52.5252132" lon="13.3696523"/>
	<node id="2821132981" lat="52.5252301" lon="13.369918"/>
	<node id="2821132982" lat="52.5252515" lon="13.3696457"/>
	<node id="2821132983" lat="52.5252684" lon="13.3699114"/>
	<node id="2935963579" lat="52.5248832" lon="13.3715735">
		<tag k="railway" v="milestone"/>
	</node>
	<node id="2935963580" lat="52.5250182" lon="13.3715722">
		<tag k="railway" v="milestone"/>
	</node>
	<node id="2935963581" lat="52.5250592" lon="13.3715718">
		<tag k="railway" v="milestone"/>
	</node>
	<node id="2935963582" lat="52.5251959" lon="13.3715705">
		<tag k="railway" v="milestone"/>
	</node>
	<node id="2951367712" lat="52.5269936" lon="13.3711595"/>
	<node id="2951367713" lat="52.527007" lon="13.3711094"/>
	<node id="3236522161" lat="52.5264032" lon="13.3692476"/>
	<node id="3253288878" lat="52.5266408" lon="13.3700051">
		<tag k="public_transport" v="stop_position"/>
		<tag k="railway" v="tram_stop"/>
		<tag k="local_ref" v="4"/>
		<tag k="name" v="S+U Hauptbahnhof"/>
		<tag k="ref:BVG" v="308860"/>
		<tag k="tram" v="yes"/>
	</node>
	<node id="3256076748" lat="52.5267963" lon="13.3704966"/>
	<node id="3256076749" lat="52.5268577" lon="13.3706991">
		<tag k="railway" v="crossing"/>
	</node>
	<node id="3256076750" lat="52.5267301" lon="13.3703004">
		<tag k="railway" v="crossing"/>
	</node>
	<node id="3256076754" lat="52.526886" lon="13.3706757">
		<tag k="railway" v="crossing"/>
	</node>
	<node id="3256076755" lat="52.5267559" lon="13.3702798">
		<tag k="railway" v="crossing"/>
	</node>
	<node id="3318747008" lat="52.5268869" lon="13.3707982">
		<tag k="ref" v="106VS1"/>
		<tag k="railway:electricity:jumpering" v="jumpered"/>
	</node>
	<node id="3608523245" lat="52.5243683" lon="13.367349"/>
	<node id="3608523246" lat="52.5244913" lon="13.3672562"/>
	<node id="3608523247" lat="52.5245263" lon="13.3672295"/>
	<node id="3608523248" lat="52.5246543" lon="13.3671353"/>
	<node id="3608523249" lat="52.5249605" lon="13.3681669">
		<tag k="ref" v="318"/>
	</node>
	<node id="3608523250" lat="52.5249669" lon="13.368199"/>
	<node id="3625408041" lat="52.5247356" lon="13.3693408"/>
	<node id="3625408052" lat="52.5248362" lon="13.3693317"/>
	<node id="3625408066" lat="52.5247673" lon="13.3696535"/>
	<node id="3625408068" lat="52.524876" lon="13.3693055"/>
	<node id="3625408078" lat="52.5248727" lon="13.3694735"/>
	<node id="3625410105" lat="52.5248741" lon="13.369637"/>
	<node id="3625410119" lat="52.5248597" lon="13.368985"/>
	<node id="3625410131" lat="52.5249108" lon="13.3696206"/>
	<node id="3625410147" lat="52.5249114" lon="13.3697784"/>
	<node id="3625410150" lat="52.5248972" lon="13.3691259"/>
	<node id="3625410153" lat="52.5249241" lon="13.36924"/>
	<node id="3625410174" lat="52.5250127" lon="13.3692083"/>
	<node id="3625410195" lat="52.525062" lon="13.3691987"/>
	<node id="3625410205" lat="52.5250519" lon="13.3693503"/>
	<node id="3625410210" lat="52.5249596" lon="13.3695316"/>
	<node id="3625410220" lat="52.5250493" lon="13.3695126"/>
	<node id="3625410222" lat="52.5250563" lon="13.368992"/>
	<node id="3625410230" lat="52.5250928" lon="13.3694978"/>
	<node id="3625410234" lat="52.5250862" lon="13.3696527"/>
	<node id="3625410250" lat="52.5251222" lon="13.3691242"/>
	<node id="3625410271" lat="52.5251909" lon="13.3690848"/>
	<node id="3625410283" lat="52.5253646" lon="13.3696239"/>
	<node id="3625410316" lat="52.5252488" lon="13.3690853"/>
	<node id="3625410326" lat="52.5252287" lon="13.3692264"/>
	<node id="3625410328" lat="52.5254028" lon="13.3697654"/>
	<node id="3625410334" lat="52.5251494" lon="13.3694154"/>
	<node id="3625410343" lat="52.5252285" lon="13.3693868"/>
	<node id="3625410351" lat="52.5252818" lon="13.3693882"/>
	<node id="3625410355" lat="52.5252667" lon="13.3695293"/>
	<node id="3627158015" lat="52.5251311" lon="13.3683601"/>
	<node id="3629040422" lat="52.5248255" lon="13.368899"/>
	<node id="3629040425" lat="52.5250612" lon="13.368664"/>
	<node id="3629040426" lat="52.5251686" lon="13.3685576"/>
	<node id="3629040427" lat="52.5251691" lon="13.3706912"/>
	<node id="3629040428" lat="52.5252075" lon="13.370237"/>
	<node id="3629040430" lat="52.5252725" lon="13.3692795"/>
	<node id="3629306700" lat="52.5251318" lon="13.3687937">
		<tag k="level" v="2"/>
	</node>
	<node id="3651039655" lat="52.5258337" lon="13.3696001"/>
	<node id="3669091987" lat="52.5250335" lon="13.3685756">
		<tag k="railway" v="milestone"/>
	</node>
	<node id="3856100095" lat="52.5247545" lon="13.3690164">
		<tag k="public_transport" v="stop_position"/>
		<tag k="train" v="yes"/>
		<tag k="railway" v="stop"/>
		<tag k="local_ref" v="1"/>
		<tag k="name" v="Berlin Hauptbahnhof (Tief)"/>
	</node>
	<node id="3856100096" lat="52.524815" lon="13.3693073">
		<tag k="public_transport" v="stop_position"/>
		<tag k="train" v="yes"/>
		<tag k="railway" v="stop"/>
		<tag k="local_ref" v="3"/>
		<tag k="name" v="Berlin Hauptbahnhof (Tief)"/>
	</node>
	<node id="3856100097" lat="52.5248066" lon="13.3692298">
		<tag k="public_transport" v="stop_position"/>
		<tag k="train" v="yes"/>
		<tag k="railway" v="stop"/>
		<tag k="local_ref" v="2"/>
		<tag k="name" v="Berlin Hauptbahnhof (Tief)"/>
	</node>
	<node id="3856100098" lat="52.5248314" lon="13.3695421">
		<tag k="public_transport" v="stop_position"/>
		<tag k="train" v="yes"/>
		<tag k="railway" v="stop"/>
		<tag k="local_ref" v="4"/>
		<tag k="name" v="Berlin Hauptbahnhof (Tief)"/>
	</node>
	<node id="3856100099" lat="52.5248462" lon="13.3696172">
		<tag k="public_transport" v="stop_position"/>
		<tag k="train" v="yes"/>
		<tag k="railway" v="stop"/>
		<tag k="local_ref" v="5"/>
		<tag k="name" v="Berlin Hauptbahnhof (Tief)"/>
	</node>
	<node id="3856100100" lat="52.5248795" lon="13.3698377">
		<tag k="public_transport" v="stop_position"/>
		<tag k="train" v="yes"/>
		<tag k="railway" v="stop"/>
		<tag k="local_ref" v="6"/>
		<tag k="name" v="Berlin Hauptbahnhof (Tief)"/>
	</node>
	<node id="3856100101" lat="52.5248943" lon="13.369915">
		<tag k="public_transport" v="stop_position"/>
		<tag k="train" v="yes"/>
		<tag k="railway" v="stop"/>
		<tag k="local_ref" v="7"/>
		<tag k="name" v="Berlin Hauptbahnhof (Tief)"/>
	</node>
	<node id="3856100102" lat="52.5249194" lon="13.3701466">
		<tag k="public_transport" v="stop_position"/>
		<tag k="train" v="yes"/>
		<tag k="railway" v="stop"/>
		<tag k="local_ref" v="8"/>
		<tag k="name" v="Berlin Hauptbahnhof (Tief)"/>
	</node>
	<node id="3856100103" lat="52.5249451" lon="13.3696614">
		<tag k="public_transport" v="station"/>
		<tag k="train" v="yes"/>
		<tag k="railway" v="station"/>
		<tag k="name" v="Berlin Hauptbahnhof"/>
		<tag k="toilets:wheelchair" v="yes"/>
		<tag k="uic_ref" v="8011160"/>
		<tag k="official_name" v="Berlin Hauptbahnhof-Lehrter Bf (Stadtb)"/>
		<tag k="railway:station_category" v="1"/>
		<tag k="uic_name" v="Berlin Hauptbahnhof"/>
		<tag k="railway:ref" v="BLS"/>
		<tag k="old_name" v="Lehrter Bahnhof"/>
	</node>
	<node id="3856100106" lat="52.5251951" lon="13.3693321">
		<tag k="public_transport" v="station"/>
		<tag k="railway" v="halt"/>
		<tag k="light_rail" v="yes"/>
		<tag k="name" v="S Hauptbahnhof"/>
		<tag k="toilets:wheelchair" v="yes"/>
		<tag k="uic_ref" v="8011160"/>
		<tag k="official_name" v="Berlin Hauptbahnhof - Lehrter Bf S-Bahn"/>
		<tag k="railway:station_category" v="1"/>
		<tag k="railway:ref" v="BHBF"/>
		<tag k="old_name" v="Lehrter Bahnhof"/>
		<tag k="station" v="light_rail"/>
		<tag k="network:short" v="VBB"/>
	</node>
	<node id="3856100107" lat="52.5251423" lon="13.3700843">
		<tag k="public_transport" v="stop_position"/>
		<tag k="railway" v="stop"/>
		<tag k="level" v="-2"/>
		<tag k="name" v="U Hauptbahnhof"/>
		<tag k="subway" v="yes"/>
		<tag k="disused:ref:BVG" v="254602"/>
	</node>
	<node id="3856100108" lat="52.5252819" lon="13.3701242">
		<tag k="surveillance" v="public"/>
		<tag k="public_transport" v="station"/>
		<tag k="railway" v="station"/>
		<tag k="name" v="U Hauptbahnhof"/>
		<tag k="subway" v="yes"/>
		<tag k="start_date" v="2009-08-09"/>
		<tag k="tactile_paving" v="yes"/>
		<tag k="station" v="subway"/>
	</node>
	<node id="3856100120" lat="52.5260778" lon="13.3688101"/>
	<node id="3856100121" lat="52.5261958" lon="13.3691764">
		<tag k="name" v="S+U Hauptbahnhof"/>
		<tag k="highway" v="bus_stop"/>
		<tag k="tactile_paving" v="yes"/>
	</node>
	<node id="3856100124" lat="52.5266109" lon="13.3692389">
		<tag k="name" v="S+U Hauptbahnhof"/>
		<tag k="highway" v="bus_stop"/>
	</node>
	<node id="3856100125" lat="52.526692" lon="13.3695128"/>
	<node id="3856100128" lat="52.5268694" lon="13.3686132"/>
	<node id="4052052711" lat="52.5255263" lon="13.3688543"/>
	<node id="4052052713" lat="52.5255573" lon="13.3689768"/>
	<node id="4052052714" lat="52.525588" lon="13.3688121"/>
	<node id="4052052716" lat="52.525619" lon="13.3689346"/>
	<node id="4052099115" lat="52.5244169" lon="13.3696611"/>
	<node id="4052099116" lat="52.5244327" lon="13.3697217"/>
	<node id="4052099117" lat="52.5244537" lon="13.3696351"/>
	<node id="4052099118" lat="52.5244695" lon="13.3696957"/>
	<node id="4089721243" lat="52.5270218" lon="13.3676823"/>
	<node id="4089721244" lat="52.5271595" lon="13.3675858">
		<tag k="railway" v="milestone"/>
	</node>
	<node id="4090174824" lat="52.5263035" lon="13.3680579">
		<tag k="public_transport" v="info_board"/>
		<tag k="name" v="-2"/>
	</node>
	<node id="4090174825" lat="52.5263763" lon="13.3683371">
		<tag k="public_transport" v="info_board"/>
		<tag k="name" v="-2"/>
	</node>
	<node id="4090174826" lat="52.5264482" lon="13.3686177">
		<tag k="public_transport" v="info_board"/>
		<tag k="name" v="-2"/>
	</node>
	<node id="4090174827" lat="52.5265207" lon="13.3688972">
		<tag k="public_transport" v="info_board"/>
		<tag k="name" v="-2"/>
	</node>
	<node id="4090174828" lat="52.5233995" lon="13.3700018"/>
	<node id="4090174829" lat="52.5234363" lon="13.3701443"/>
	<node id="4090174830" lat="52.5234726" lon="13.3702845"/>
	<node id="4090174831" lat="52.5235098" lon="13.3704283"/>
	<node id="4090174832" lat="52.5235454" lon="13.370566"/>
	<node id="4090174833" lat="52.5235819" lon="13.3707074"/>
	<node id="4090174834" lat="52.5236175" lon="13.3708448"/>
	<node id="4090174835" lat="52.5236542" lon="13.3709869"/>
	<node id="4090176098" lat="52.5263917" lon="13.3689029"/>
	<node id="4090176109" lat="52.5264281" lon="13.3690457"/>
	<node id="4090176339" lat="52.527084" lon="13.3680886"/>
	<node id="4090176344" lat="52.527121" lon="13.3682318"/>
	<node id="4090176349" lat="52.5271563" lon="13.3683682"/>
	<node id="4090176350" lat="52.5271933" lon="13.3685114"/>
	<node id="4090290501" lat="52.5232571" lon="13.3703226">
		<tag k="level" v="-2"/>
		<tag k="ref" v="51W133"/>
		<tag k="railway:maxspeed:straight" v="60"/>
		<tag k="railway:maxspeed:diverging" v="60"/>
		<tag k="railway:turnout_side" v="left"/>
	</node>
	<node id="4093205061" lat="52.5236342" lon="13.3698322"/>
	<node id="4093205074" lat="52.5236733" lon="13.3699784"/>
	<node id="4093208190" lat="52.523709" lon="13.3701206"/>
	<node id="4093208205" lat="52.5237459" lon="13.370263"/>
	<node id="4093208222" lat="52.5237815" lon="13.3704007"/>
	<node id="4093208249" lat="52.523818" lon="13.3705416"/>
	<node id="4093208271" lat="52.5238539" lon="13.3706799"/>
	<node id="4093208293" lat="52.5238906" lon="13.3708218"/>
	<node id="4093546767" lat="52.5244417" lon="13.3702702"/>
	<node id="4093546773" lat="52.5244776" lon="13.3704124"/>
	<node id="4282073089" lat="52.5252839" lon="13.370042"/>
	<node id="4282073090" lat="52.5253237" lon="13.3702002"/>
	<node id="4282073092" lat="52.5256832" lon="13.3697589"/>
	<node id="4283844721" lat="52.5264776" lon="13.3696566"/>
	<node id="4283844722" lat="52.5265024" lon="13.3694041"/>
	<node id="4283844723" lat="52.5265031" lon="13.3696349"/>
	<node id="4283844724" lat="52.5265287" lon="13.3693852"/>
	<node id="4283844725" lat="52.5265618" lon="13.3695938"/>
	<node id="4283844726" lat="52.5265873" lon="13.3695722"/>
	<node id="4284939146" lat="52.526411" lon="13.3678751"/>
	<node id="4284939147" lat="52.5267683" lon="13.3678992"/>
	<node id="4284939148" lat="52.5265555" lon="13.3678313">
		<tag k="public_transport" v="stop_position"/>
		<tag k="local_ref" v="4"/>
		<tag k="name" v="S+U Hauptbahnhof"/>
		<tag k="bus" v="yes"/>
		<tag k="ref:BVG" v="100108"/>
	</node>
	<node id="4294764767" lat="52.5257073" lon="13.3699199">
		<tag k="railway" v="subway_entrance"/>
		<tag k="name" v="U Hauptbahnhof"/>
	</node>
	<node id="4398651542" lat="52.5264174" lon="13.3694654"/>
	<node id="4398651543" lat="52.5264437" lon="13.3694465"/>
	<node id="4398651551" lat="52.5264899" lon="13.3696461">
		<tag k="railway" v="subway_entrance"/>
		<tag k="level" v="0"/>
		<tag k="name" v="U Hauptbahnhof"/>
	</node>
	<node id="4398651552" lat="52.5265755" lon="13.3695822">
		<tag k="railway" v="subway_entrance"/>
		<tag k="level" v="0"/>
		<tag k="name" v="U Hauptbahnhof"/>
	</node>
	<node id="4530641638" lat="52.5241791" lon="13.3685794">
		<tag k="name" v="Hauptbahnhof Nachrückhalteplatz Washingtonplatz"/>
		<tag k="amenity" v="taxi"/>
		<tag k="capacity" v="5"/>
	</node>
	<node id="4560346549" lat="52.5234986" lon="13.3705526"/>
	<node id="4565354480" lat="52.526477" lon="13.3696707"/>
	<node id="4565354481" lat="52.5265097" lon="13.3696422"/>
	<node id="4565354482" lat="52.5265604" lon="13.3696053"/>
	<node id="4565354483" lat="52.5265933" lon="13.3695773"/>
	<node id="4565354484" lat="52.5264562" lon="13.3692017"/>
	<node id="4565354485" lat="52.5263716" lon="13.3692693"/>
	<node id="4565354488" lat="52.5266807" lon="13.370255"/>
	<node id="4565355189" lat="52.5267627" lon="13.3701911"/>
	<node id="4565355190" lat="52.5264724" lon="13.3691881"/>
	<node id="4565355191" lat="52.5267795" lon="13.370177"/>
	<node id="4565355192" lat="52.5267465" lon="13.3702047"/>
	<node id="4565355193" lat="52.5264394" lon="13.3692158"/>
	<node id="4565355194" lat="52.526665" lon="13.3702683"/>
	<node id="4565355195" lat="52.5263552" lon="13.3692833"/>
	<node id="4565355196" lat="52.5266979" lon="13.3702404"/>
	<node id="4565355197" lat="52.5263881" lon="13.3692553"/>
	<node id="4585177134" lat="52.5265565" lon="13.3678849">
		<tag k="name" v="S+U Hauptbahnhof"/>
		<tag k="highway" v="bus_stop"/>
	</node>
	<node id="4603504529" lat="52.5268559" lon="13.3685702"/>
	<node id="4603504530" lat="52.5266019" lon="13.3687848"/>
	<node id="4603504531" lat="52.5266154" lon="13.3688279"/>
	<node id="5052407444" lat="52.5240519" lon="13.3707088"/>
	<node id="5239268826" lat="52.5234363" lon="13.3713551"/>
	<node id="5521742805" lat="52.5245673" lon="13.3670836">
		<tag k="railway" v="site"/>
		<tag k="uic_ref" v="8096003"/>
		<tag k="uic_name" v="BERLIN"/>
		<tag k="site" v="Leitpunkt"/>
	</node>
	<node id="6129272102" lat="52.5271621" lon="13.3676691">
		<tag k="railway" v="milestone"/>
		<tag k="video" v="https://youtu.be/TJRPZ8iMrSo?t=962"/>
	</node>
	<node id="6230869282" lat="52.5243085" lon="13.3664839"/>
	<node id="6230869283" lat="52.524428" lon="13.3664281"/>
	<node id="6442546294" lat="52.5258475" lon="13.3674274">
		<tag k="railway" v="crossing"/>
	</node>
	<node id="6442546295" lat="52.5258696" lon="13.3674092">
		<tag k="railway" v="crossing"/>
	</node>
	<node id="6927248366" lat="52.5231555" lon="13.3710543"/>
	<node id="6927766717" lat="52.5272017" lon="13.3675694"/>
	<way id="4440336">
		<nd ref="27257038"/>
		<nd ref="3856100099"/>
		<nd ref="2813070491"/>
		<nd ref="2182805399"/>
		<tag k="railway" v="rail"/>
		<tag k="level" v="-2"/>
		<tag k="usage" v="main"/>
		<tag k="railway:track_ref" v="5"/>
		<tag k="railway:traffic_mode" v="passenger"/>
		<tag k="detail" v="track"/>
	</way>
	<way id="32591076">
		<nd ref="276689650"/>
		<nd ref="2071350642"/>
		<nd ref="2071350656"/>
		<nd ref="276689619"/>
		<nd ref="276689618"/>
		<nd ref="2071350696"/>
		<nd ref="285865970"/>
		<nd ref="2071350697"/>
		<nd ref="276689616"/>
		<nd ref="2047095991"/>
		<nd ref="2071350699"/>
		<nd ref="276689615"/>
		<nd ref="2183466850"/>
		<nd ref="988669017"/>
		<tag k="railway" v="light_rail"/>
		<tag k="level" v="2"/>
		<tag k="name" v="Berliner Stadtbahn"/>
		<tag k="ref" v="6024"/>
		<tag k="railway:ballastless:system" v="RHEDA-Berlin"/>
		<tag k="usage" v="main"/>
		<tag k="passenger_lines" v="2"/>
		<tag k="bridge" v="yes"/>
		<tag k="detail" v="track"/>
	</way>
	<way id="47385149">
		<nd ref="446301572"/>
		<nd ref="2089428415"/>
		<nd ref="6927669311"/>
		<nd ref="446301571"/>
		<nd ref="446301570"/>
		<nd ref="2022869954"/>
		<nd ref="2022869945"/>
		<nd ref="2022869937"/>
		<tag k="railway" v="rail"/>
		<tag k="level" v="-2"/>
		<tag k="usage" v="main"/>
		<tag k="railway:traffic_mode" v="passenger"/>
		<tag k="detail" v="track"/>
	</way>
	<way id="54845088">
		<nd ref="748364705"/>
		<nd ref="690308177"/>
		<nd ref="748364697"/>
		<nd ref="3625408041"/>
		<nd ref="3625408066"/>
		<nd ref="2746268215"/>
		<nd ref="2744353907"/>
		<nd ref="724161084"/>
		<nd ref="748364714"/>
		<nd ref="2071350613"/>
		<nd ref="690308184"/>
		<nd ref="690308179"/>
		<nd ref="2071350638"/>
		<nd ref="748364706"/>
		<nd ref="724161085"/>
		<nd ref="2746268246"/>
		<nd ref="748364703"/>
		<nd ref="3625410131"/>
		<nd ref="3625408068"/>
		<nd ref="724152363"/>
		<nd ref="3629040422"/>
		<nd ref="690308176"/>
		<nd ref="2742225757"/>
		<nd ref="748364702"/>
		<nd ref="724152360"/>
		<nd ref="748364711"/>
		<nd ref="748364719"/>
		<nd ref="2071375274"/>
		<nd ref="2071375253"/>
		<nd ref="748364725"/>
		<nd ref="2071375226"/>
		<nd ref="2071375213"/>
		<nd ref="690308170"/>
		<nd ref="690308172"/>
		<nd ref="2071375200"/>
		<nd ref="2071375215"/>
		<nd ref="2047095954"/>
		<nd ref="748364701"/>
		<nd ref="2071375255"/>
		<nd ref="748364728"/>
		<nd ref="748364716"/>
		<nd ref="724152365"/>
		<nd ref="748364705"/>
	</way>
	<way id="54845089">
		<nd ref="3629040425"/>
		<nd ref="2746268262"/>
		<nd ref="3625410250"/>
		<nd ref="3625410334"/>
		<nd ref="738234511"/>
		<nd ref="2746268284"/>
		<nd ref="3629040428"/>
		<nd ref="738234548"/>
		<nd ref="738234535"/>
		<nd ref="2746268297"/>
		<nd ref="738234538"/>
		<nd ref="3625410351"/>
		<nd ref="3629040430"/>
		<nd ref="3625410316"/>
		<nd ref="2746268276"/>
		<nd ref="3629040426"/>
		<nd ref="3627158015"/>
		<nd ref="690308173"/>
		<nd ref="738234530"/>
		<nd ref="3629040425"/>
	</way>
	<way id="54845090">
		<nd ref="724152364"/>
		<nd ref="748364709"/>
		<nd ref="721945115"/>
		<nd ref="2746268221"/>
		<nd ref="1232835380"/>
		<nd ref="3625410153"/>
		<nd ref="3625410210"/>
		<nd ref="721945125"/>
		<nd ref="2744353914"/>
		<nd ref="1232835402"/>
		<nd ref="724161086"/>
		<nd ref="2071350654"/>
		<nd ref="721945120"/>
		<nd ref="690308182"/>
		<nd ref="2071350681"/>
		<nd ref="724161087"/>
		<nd ref="3629040427"/>
		<nd ref="1232835458"/>
		<nd ref="2744353917"/>
		<nd ref="748364712"/>
		<nd ref="3625410230"/>
		<nd ref="721945126"/>
		<nd ref="3625410195"/>
		<nd ref="748364723"/>
		<nd ref="2746268250"/>
		<nd ref="690308175"/>
		<nd ref="721945127"/>
		<nd ref="2742225758"/>
		<nd ref="748364721"/>
		<nd ref="748364718"/>
		<nd ref="2071375276"/>
		<nd ref="2071375257"/>
		<nd ref="748364691"/>
		<nd ref="2071375230"/>
		<nd ref="690308174"/>
		<nd ref="721945128"/>
		<nd ref="748364708"/>
		<nd ref="2071375232"/>
		<nd ref="748364710"/>
		<nd ref="2071375265"/>
		<nd ref="748364699"/>
		<nd ref="748364704"/>
		<nd ref="724152364"/>
	</way>
	<way id="59529944">
		<nd ref="2821132970"/>
		<nd ref="2746268260"/>
		<nd ref="2746268263"/>
		<nd ref="2746268270"/>
		<nd ref="2821132973"/>
		<nd ref="2821132972"/>
		<nd ref="2821132969"/>
		<nd ref="2821132970"/>
	</way>
	<way id="59529945">
		<nd ref="2821132959"/>
		<nd ref="2821132965"/>
		<nd ref="2821132961"/>
		<nd ref="2746268247"/>
		<nd ref="2746268244"/>
		<nd ref="738234540"/>
		<nd ref="2821132958"/>
		<nd ref="2821132959"/>
	</way>
	<way id="59710552">
		<nd ref="2821132955"/>
		<nd ref="2779799796"/>
		<nd ref="2746268225"/>
		<nd ref="2746268233"/>
		<nd ref="2821132957"/>
		<nd ref="2821132956"/>
		<nd ref="2821132954"/>
		<nd ref="2821132955"/>
	</way>
	<way id="59710579">
		<nd ref="2821132948"/>
		<nd ref="2821132952"/>
		<nd ref="2821132950"/>
		<nd ref="2746268202"/>
		<nd ref="2746268192"/>
		<nd ref="2746268187"/>
		<nd ref="2821132947"/>
		<nd ref="2821132948"/>
	</way>
	<way id="59804704">
		<nd ref="2821132975"/>
		<nd ref="2821132978"/>
		<nd ref="2821132976"/>
		<nd ref="2746268274"/>
		<nd ref="2746268273"/>
		<nd ref="3629306700"/>
		<nd ref="2821132974"/>
		<nd ref="2821132975"/>
	</way>
	<way id="59804706">
		<nd ref="2821132981"/>
		<nd ref="2746268287"/>
		<nd ref="742238059"/>
		<nd ref="2746268294"/>
		<nd ref="2821132983"/>
		<nd ref="2821132982"/>
		<nd ref="2821132980"/>
		<nd ref="2821132981"/>
	</way>
	<way id="70270903">
		<nd ref="446289301"/>
		<nd ref="2182805389"/>
		<tag k="railway" v="subway"/>
		<tag k="level" v="-2"/>
		<tag k="start_date" v="2009-08-09"/>
		<tag k="electrified:rail" v="bottom"/>
		<tag k="loading_gauge" v="Großprofil"/>
	</way>
	<way id="85258722">
		<nd ref="2813070481"/>
		<nd ref="2742232989"/>
		<nd ref="276689591"/>
		<nd ref="285864947"/>
		<nd ref="3608523245"/>
		<nd ref="29805015"/>
		<nd ref="285864933"/>
		<nd ref="29805016"/>
		<tag k="railway" v="rail"/>
		<tag k="level" v="2"/>
		<tag k="name" v="Berliner Stadtbahn"/>
		<tag k="start_date" v="1882-02"/>
		<tag k="ref" v="6109"/>
		<tag k="railway:ballastless:system" v="RHEDA-Berlin"/>
		<tag k="usage" v="main"/>
		<tag k="railway:track_ref" v="11"/>
		<tag k="passenger_lines" v="2"/>
		<tag k="railway:traffic_mode" v="passenger"/>
		<tag k="bridge" v="yes"/>
		<tag k="detail" v="track"/>
	</way>
	<way id="85258723">
		<nd ref="988669018"/>
		<nd ref="2935963580"/>
		<nd ref="285864907"/>
		<nd ref="2182805386"/>
		<nd ref="285864910"/>
		<nd ref="2813070482"/>
		<nd ref="285864911"/>
		<nd ref="285864913"/>
		<nd ref="285864914"/>
		<nd ref="3608523246"/>
		<nd ref="2071375278"/>
		<nd ref="285864918"/>
		<nd ref="285864932"/>
		<nd ref="285864919"/>
		<tag k="railway" v="rail"/>
		<tag k="level" v="2"/>
		<tag k="start_date" v="1882-02"/>
		<tag k="service" v="siding"/>
		<tag k="railway:ballastless:system" v="RHEDA-Berlin"/>
		<tag k="railway:track_ref" v="12"/>
		<tag k="railway:traffic_mode" v="passenger"/>
		<tag k="bridge" v="yes"/>
		<tag k="detail" v="track"/>
	</way>
	<way id="85258724">
		<nd ref="2813070483"/>
		<nd ref="276689599"/>
		<nd ref="276689598"/>
		<nd ref="3608523247"/>
		<nd ref="2071375282"/>
		<nd ref="276689596"/>
		<nd ref="6230869282"/>
		<nd ref="285864931"/>
		<nd ref="2071375244"/>
		<nd ref="2071375228"/>
		<nd ref="285864924"/>
		<tag k="railway" v="rail"/>
		<tag k="level" v="2"/>
		<tag k="start_date" v="1882-02"/>
		<tag k="service" v="siding"/>
		<tag k="railway:ballastless:system" v="RHEDA-Berlin"/>
		<tag k="railway:track_ref" v="13"/>
		<tag k="railway:traffic_mode" v="passenger"/>
		<tag k="bridge" v="yes"/>
		<tag k="detail" v="track"/>
	</way>
	<way id="85258728">
		<nd ref="988669017"/>
		<nd ref="276689614"/>
		<nd ref="276689612"/>
		<nd ref="2047095986"/>
		<nd ref="2813070486"/>
		<nd ref="1232835390"/>
		<nd ref="988669010"/>
		<nd ref="2742232992"/>
		<nd ref="988669021"/>
		<nd ref="276689610"/>
		<nd ref="2089375008"/>
		<nd ref="276689609"/>
		<nd ref="276689608"/>
		<nd ref="2071375269"/>
		<nd ref="285864893"/>
		<tag k="railway" v="light_rail"/>
		<tag k="level" v="2"/>
		<tag k="name" v="Berliner Stadtbahn"/>
		<tag k="ref" v="6024"/>
		<tag k="railway:ballastless:system" v="RHEDA-Berlin"/>
		<tag k="usage" v="main"/>
		<tag k="railway:track_ref" v="16"/>
		<tag k="passenger_lines" v="2"/>
		<tag k="bridge" v="yes"/>
		<tag k="detail" v="track"/>
	</way>
	<way id="85258730">
		<nd ref="988669015"/>
		<nd ref="2935963582"/>
		<nd ref="2071350685"/>
		<nd ref="285864875"/>
		<nd ref="2182805388"/>
		<nd ref="285864878"/>
		<nd ref="2813070484"/>
		<nd ref="3625410222"/>
		<nd ref="285864880"/>
		<nd ref="285864881"/>
		<nd ref="285864883"/>
		<nd ref="3608523248"/>
		<nd ref="285864885"/>
		<nd ref="6230869283"/>
		<nd ref="2935973005"/>
		<nd ref="285864929"/>
		<nd ref="285864888"/>
		<nd ref="285864889"/>
		<tag k="railway" v="rail"/>
		<tag k="level" v="2"/>
		<tag k="name" v="Berliner Stadtbahn"/>
		<tag k="start_date" v="1882-02"/>
		<tag k="ref" v="6109"/>
		<tag k="railway:ballastless:system" v="RHEDA-Berlin"/>
		<tag k="usage" v="main"/>
		<tag k="railway:track_ref" v="14"/>
		<tag k="passenger_lines" v="2"/>
		<tag k="railway:traffic_mode" v="passenger"/>
		<tag k="bridge" v="yes"/>
		<tag k="detail" v="track"/>
	</way>
	<way id="85258732">
		<nd ref="27412651"/>
		<nd ref="2071350636"/>
		<nd ref="2071350648"/>
		<nd ref="27412309"/>
		<nd ref="27412650"/>
		<nd ref="2071350691"/>
		<nd ref="285865972"/>
		<nd ref="2071350695"/>
		<nd ref="26162553"/>
		<nd ref="2071350693"/>
		<nd ref="2183466847"/>
		<tag k="railway" v="light_rail"/>
		<tag k="level" v="2"/>
		<tag k="name" v="Berliner Stadtbahn"/>
		<tag k="ref" v="6024"/>
		<tag k="railway:ballastless:system" v="RHEDA-Berlin"/>
		<tag k="usage" v="main"/>
		<tag k="passenger_lines" v="2"/>
		<tag k="bridge" v="yes"/>
		<tag k="detail" v="track"/>
	</way>
	<way id="86379623">
		<nd ref="4282073090"/>
		<nd ref="1003534101"/>
		<nd ref="1003534083"/>
		<nd ref="1003534074"/>
		<nd ref="2089375225"/>
		<nd ref="1003553650"/>
		<nd ref="1003534077"/>
		<nd ref="4282073092"/>
		<nd ref="4282073089"/>
		<nd ref="1003555484"/>
		<nd ref="1003534093"/>
		<nd ref="1003553269"/>
		<nd ref="1003553265"/>
		<nd ref="1003555482"/>
		<nd ref="1003553263"/>
		<nd ref="1003553261"/>
		<nd ref="1003534073"/>
		<nd ref="1003555504"/>
		<nd ref="4282073090"/>
		<tag k="public_transport" v="platform"/>
		<tag k="railway" v="platform"/>
		<tag k="level" v="-2"/>
		<tag k="name" v="U Hauptbahnhof"/>
		<tag k="subway" v="yes"/>
		<tag k="start_date" v="2009-08-09"/>
		<tag k="tactile_paving" v="yes"/>
		<tag k="area" v="yes"/>
		<tag k="bin" v="yes"/>
		<tag k="bench" v="yes"/>
	</way>
	<way id="114919150">
		<nd ref="2183466847"/>
		<nd ref="27412648"/>
		<nd ref="29070742"/>
		<nd ref="2813070485"/>
		<nd ref="27412649"/>
		<nd ref="3669091987"/>
		<nd ref="3608523250"/>
		<nd ref="988669016"/>
		<nd ref="3608523249"/>
		<nd ref="285864953"/>
		<nd ref="27528168"/>
		<nd ref="26162555"/>
		<nd ref="285864927"/>
		<nd ref="27528167"/>
		<nd ref="285864892"/>
		<tag k="railway" v="light_rail"/>
		<tag k="level" v="2"/>
		<tag k="name" v="Berliner Stadtbahn"/>
		<tag k="ref" v="6024"/>
		<tag k="railway:ballastless:system" v="RHEDA-Berlin"/>
		<tag k="usage" v="main"/>
		<tag k="railway:track_ref" v="15"/>
		<tag k="passenger_lines" v="2"/>
		<tag k="bridge" v="yes"/>
		<tag k="detail" v="track"/>
	</way>
	<way id="122463699">
		<nd ref="2456100722"/>
		<nd ref="6442546294"/>
		<nd ref="1368456325"/>
		<nd ref="2085214310"/>
		<nd ref="2085214312"/>
		<nd ref="1580786099"/>
		<nd ref="1580786134"/>
		<nd ref="1580786121"/>
		<nd ref="1580786136"/>
		<nd ref="1580786135"/>
		<nd ref="2831020549"/>
		<tag k="railway" v="tram"/>
		<tag k="start_date" v="2014-12-14"/>
		<tag k="speisebezirk" v="106"/>
		<tag k="tracks" v="1"/>
	</way>
	<way id="140478324">
		<nd ref="446301575"/>
		<nd ref="3856100095"/>
		<nd ref="2813070487"/>
		<nd ref="446301572"/>
		<tag k="railway" v="rail"/>
		<tag k="level" v="-2"/>
		<tag k="usage" v="main"/>
		<tag k="railway:track_ref" v="1"/>
		<tag k="railway:traffic_mode" v="passenger"/>
		<tag k="detail" v="track"/>
	</way>
	<way id="140478326">
		<nd ref="446301575"/>
		<nd ref="2182805377"/>
		<tag k="railway" v="rail"/>
		<tag k="level" v="-2"/>
		<tag k="usage" v="main"/>
		<tag k="railway:traffic_mode" v="passenger"/>
		<tag k="detail" v="track"/>
	</way>
	<way id="191589508">
		<nd ref="4089721243"/>
		<nd ref="4089721244"/>
		<nd ref="6129272101"/>
		<nd ref="2089428420"/>
		<nd ref="6927669312"/>
		<nd ref="6927669315"/>
		<nd ref="2021763103"/>
		<tag k="railway" v="rail"/>
		<tag k="level" v="-2"/>
		<tag k="ref" v="6134"/>
		<tag k="service" v="siding"/>
		<tag k="railway:traffic_mode" v="passenger"/>
		<tag k="detail" v="track"/>
	</way>
	<way id="191591507">
		<nd ref="2182805395"/>
		<nd ref="2021800388"/>
		<nd ref="2089428403"/>
		<nd ref="2021800366"/>
		<nd ref="2021800303"/>
		<nd ref="2021800380"/>
		<nd ref="2021800318"/>
		<nd ref="2021800321"/>
		<nd ref="2021800273"/>
		<nd ref="2021800279"/>
		<tag k="railway" v="subway"/>
		<tag k="level" v="-2"/>
		<tag k="start_date" v="2009-08-09"/>
		<tag k="service" v="yard"/>
		<tag k="disused" v="yes"/>
		<tag k="electrified:rail" v="bottom"/>
		<tag k="loading_gauge" v="Großprofil"/>
	</way>
	<way id="191591509">
		<nd ref="2182805398"/>
		<nd ref="2089428417"/>
		<nd ref="2021800258"/>
		<nd ref="6927669314"/>
		<nd ref="2021800284"/>
		<tag k="railway" v="rail"/>
		<tag k="level" v="-2"/>
		<tag k="usage" v="main"/>
		<tag k="railway:traffic_mode" v="passenger"/>
		<tag k="detail" v="track"/>
	</way>
	<way id="191591510">
		<nd ref="2021800370"/>
		<nd ref="2021800391"/>
		<nd ref="2182805384"/>
		<tag k="railway" v="rail"/>
		<tag k="level" v="-2"/>
		<tag k="usage" v="main"/>
		<tag k="railway:traffic_mode" v="passenger"/>
		<tag k="detail" v="track"/>
	</way>
	<way id="191591511">
		<nd ref="2021800360"/>
		<nd ref="3856100100"/>
		<nd ref="2813070493"/>
		<nd ref="2182805400"/>
		<tag k="railway" v="rail"/>
		<tag k="level" v="-2"/>
		<tag k="ref" v="6171"/>
		<tag k="service" v="siding"/>
		<tag k="railway:track_ref" v="6"/>
		<tag k="railway:traffic_mode" v="passenger"/>
		<tag k="detail" v="track"/>
	</way>
	<way id="191593801">
		<nd ref="647690845"/>
		<nd ref="2021837083"/>
		<nd ref="2085238177"/>
		<nd ref="2021837090"/>
		<tag k="railway" v="construction"/>
		<tag k="name" v="S21"/>
		<tag k="ref" v="6017"/>
		<tag k="construction" v="light_rail"/>
		<tag k="opening_date" v="2019"/>
		<tag k="construction:railway" v="light_rail"/>
	</way>
	<way id="191593802">
		<nd ref="1920302200"/>
		<nd ref="2021800244"/>
		<nd ref="3625410360"/>
		<nd ref="1920302199"/>
		<nd ref="6625141916"/>
		<tag k="railway" v="construction"/>
		<tag k="name" v="S21"/>
		<tag k="ref" v="6017"/>
		<tag k="construction" v="light_rail"/>
		<tag k="opening_date" v="2019"/>
		<tag k="construction:railway" v="light_rail"/>
	</way>
	<way id="200229908">
		<nd ref="446301552"/>
		<nd ref="3856100101"/>
		<nd ref="2813070492"/>
		<nd ref="2182805401"/>
		<nd ref="446301550"/>
		<tag k="railway" v="rail"/>
		<tag k="level" v="-2"/>
		<tag k="ref" v="6134"/>
		<tag k="service" v="siding"/>
		<tag k="railway:track_ref" v="7"/>
		<tag k="railway:traffic_mode" v="passenger"/>
		<tag k="detail" v="track"/>
	</way>
	<way id="200229909">
		<nd ref="4090290500"/>
		<nd ref="446301567"/>
		<tag k="railway" v="rail"/>
		<tag k="level" v="-2"/>
		<tag k="ref" v="6171"/>
		<tag k="service" v="siding"/>
		<tag k="railway:traffic_mode" v="passenger"/>
		<tag k="detail" v="track"/>
	</way>
	<way id="200229910">
		<nd ref="2085238201"/>
		<nd ref="446301576"/>
		<tag k="railway" v="rail"/>
		<tag k="level" v="-2"/>
		<tag k="usage" v="main"/>
		<tag k="railway:traffic_mode" v="passenger"/>
		<tag k="detail" v="track"/>
	</way>
	<way id="202719939">
		<nd ref="3625410150"/>
		<nd ref="2745767159"/>
		<nd ref="2779799802"/>
		<nd ref="2126703015"/>
		<nd ref="2739626570"/>
		<nd ref="2779799798"/>
		<nd ref="2745767150"/>
		<nd ref="3625410119"/>
		<nd ref="2744353885"/>
		<nd ref="4093205061"/>
		<nd ref="4090174828"/>
		<nd ref="4090174829"/>
		<nd ref="4093205074"/>
		<nd ref="2744353887"/>
		<nd ref="3625410150"/>
		<tag k="public_transport" v="platform"/>
		<tag k="train" v="yes"/>
		<tag k="railway" v="platform"/>
		<tag k="level" v="-2"/>
		<tag k="name" v="Berlin Hauptbahnhof (Tief)"/>
		<tag k="ref" v="1;2"/>
		<tag k="area" v="yes"/>
		<tag k="location" v="underground"/>
	</way>
	<way id="202719941">
		<nd ref="3625408078"/>
		<nd ref="3625410205"/>
		<nd ref="3625410326"/>
		<nd ref="2745767162"/>
		<nd ref="2779799807"/>
		<nd ref="2739626572"/>
		<nd ref="2126703019"/>
		<nd ref="2779799804"/>
		<nd ref="2745767152"/>
		<nd ref="3625410271"/>
		<nd ref="3625410174"/>
		<nd ref="3625408052"/>
		<nd ref="2741907541"/>
		<nd ref="4093208190"/>
		<nd ref="4090174830"/>
		<nd ref="4090174831"/>
		<nd ref="4093208205"/>
		<nd ref="2741907549"/>
		<nd ref="3625408078"/>
		<tag k="public_transport" v="platform"/>
		<tag k="train" v="yes"/>
		<tag k="railway" v="platform"/>
		<tag k="level" v="-2"/>
		<tag k="name" v="Berlin Hauptbahnhof (Tief)"/>
		<tag k="ref" v="3;4"/>
		<tag k="tactile_paving" v="yes"/>
		<tag k="area" v="yes"/>
		<tag k="location" v="underground"/>
	</way>
	<way id="202719942">
		<nd ref="2741907557"/>
		<nd ref="3625410147"/>
		<nd ref="3625410234"/>
		<nd ref="3625410355"/>
		<nd ref="2745767183"/>
		<nd ref="2779799814"/>
		<nd ref="4090176344"/>
		<nd ref="4090176339"/>
		<nd ref="2779799810"/>
		<nd ref="2745767176"/>
		<nd ref="3625410343"/>
		<nd ref="3625410220"/>
		<nd ref="3625410105"/>
		<nd ref="2741907551"/>
		<nd ref="2745766948"/>
		<nd ref="4093208222"/>
		<nd ref="4090174832"/>
		<nd ref="4090174833"/>
		<nd ref="4093208249"/>
		<nd ref="2745766957"/>
		<nd ref="2741907557"/>
		<tag k="public_transport" v="platform"/>
		<tag k="train" v="yes"/>
		<tag k="railway" v="platform"/>
		<tag k="level" v="-2"/>
		<tag k="name" v="Berlin Hauptbahnhof (Tief)"/>
		<tag k="ref" v="5;6"/>
		<tag k="tactile_paving" v="yes"/>
		<tag k="area" v="yes"/>
		<tag k="location" v="underground"/>
	</way>
	<way id="202719944">
		<nd ref="3625410328"/>
		<nd ref="2745767213"/>
		<nd ref="4090176109"/>
		<nd ref="2779799819"/>
		<nd ref="4090176350"/>
		<nd ref="4090176349"/>
		<nd ref="2779799816"/>
		<nd ref="4090176098"/>
		<nd ref="2745767193"/>
		<nd ref="3625410283"/>
		<nd ref="4093546767"/>
		<nd ref="2745766968"/>
		<nd ref="4093208271"/>
		<nd ref="4090174834"/>
		<nd ref="4090174835"/>
		<nd ref="4093208293"/>
		<nd ref="5052407444"/>
		<nd ref="2745766981"/>
		<nd ref="4093546773"/>
		<nd ref="3625410328"/>
		<tag k="public_transport" v="platform"/>
		<tag k="train" v="yes"/>
		<tag k="railway" v="platform"/>
		<tag k="level" v="-2"/>
		<tag k="name" v="Berlin Hauptbahnhof (Tief)"/>
		<tag k="ref" v="7;8"/>
		<tag k="tactile_paving" v="yes"/>
		<tag k="area" v="yes"/>
		<tag k="location" v="underground"/>
	</way>
	<way id="207993047">
		<nd ref="446301550"/>
		<nd ref="6927669308"/>
		<nd ref="2021800354"/>
		<tag k="railway" v="rail"/>
		<tag k="level" v="-2"/>
		<tag k="service" v="siding"/>
		<tag k="railway:traffic_mode" v="passenger"/>
	</way>
	<way id="207993048">
		<nd ref="2182805389"/>
		<nd ref="2182805390"/>
		<nd ref="2089428358"/>
		<nd ref="2089428360"/>
		<nd ref="253845585"/>
		<nd ref="2089428406"/>
		<nd ref="446260168"/>
		<nd ref="285867026"/>
		<nd ref="253845587"/>
		<nd ref="253845588"/>
		<nd ref="285869380"/>
		<nd ref="285867025"/>
		<nd ref="253845589"/>
		<tag k="railway" v="subway"/>
		<tag k="level" v="-2"/>
		<tag k="start_date" v="2009-08-09"/>
		<tag k="service" v="yard"/>
		<tag k="electrified:rail" v="bottom"/>
		<tag k="loading_gauge" v="Großprofil"/>
	</way>
	<way id="207993053">
		<nd ref="2182805395"/>
		<nd ref="2182805394"/>
		<nd ref="2182805393"/>
		<nd ref="2182805392"/>
		<nd ref="2182805391"/>
		<nd ref="2182805390"/>
		<tag k="railway" v="subway"/>
		<tag k="level" v="-2"/>
		<tag k="start_date" v="2009-08-09"/>
		<tag k="service" v="yard"/>
		<tag k="electrified:rail" v="bottom"/>
		<tag k="loading_gauge" v="Großprofil"/>
	</way>
	<way id="211080236">
		<nd ref="1920302200"/>
		<nd ref="2021837088"/>
		<nd ref="2021837086"/>
		<nd ref="2021837089"/>
		<tag k="railway" v="construction"/>
		<tag k="name" v="S21"/>
		<tag k="ref" v="6017"/>
		<tag k="construction" v="light_rail"/>
		<tag k="opening_date" v="2019"/>
		<tag k="construction:railway" v="light_rail"/>
	</way>
	<way id="240526027">
		<nd ref="4089721243"/>
		<nd ref="2182805396"/>
		<nd ref="2813070488"/>
		<nd ref="3856100097"/>
		<nd ref="2182805378"/>
		<tag k="railway" v="rail"/>
		<tag k="level" v="-2"/>
		<tag k="ref" v="6134"/>
		<tag k="service" v="siding"/>
		<tag k="railway:track_ref" v="2"/>
		<tag k="railway:traffic_mode" v="passenger"/>
		<tag k="detail" v="track"/>
	</way>
	<way id="240526028">
		<nd ref="446301567"/>
		<nd ref="3856100096"/>
		<nd ref="2813070489"/>
		<nd ref="2182805397"/>
		<tag k="railway" v="rail"/>
		<tag k="level" v="-2"/>
		<tag k="ref" v="6171"/>
		<tag k="service" v="siding"/>
		<tag k="railway:track_ref" v="3"/>
		<tag k="railway:traffic_mode" v="passenger"/>
		<tag k="detail" v="track"/>
	</way>
	<way id="240526029">
		<nd ref="2182805380"/>
		<nd ref="3856100098"/>
		<nd ref="2813070490"/>
		<nd ref="2182805398"/>
		<tag k="railway" v="rail"/>
		<tag k="level" v="-2"/>
		<tag k="usage" v="main"/>
		<tag k="railway:track_ref" v="4"/>
		<tag k="railway:traffic_mode" v="passenger"/>
		<tag k="detail" v="track"/>
	</way>
	<way id="240526030">
		<nd ref="2089428404"/>
		<nd ref="2813070494"/>
		<nd ref="3856100102"/>
		<nd ref="2182805384"/>
		<tag k="railway" v="rail"/>
		<tag k="level" v="-2"/>
		<tag k="usage" v="main"/>
		<tag k="railway:track_ref" v="8"/>
		<tag k="railway:traffic_mode" v="passenger"/>
		<tag k="detail" v="track"/>
	</way>
	<way id="240526031">
		<nd ref="446301569"/>
		<nd ref="2021800296"/>
		<nd ref="2182805380"/>
		<tag k="railway" v="rail"/>
		<tag k="level" v="-2"/>
		<tag k="usage" v="main"/>
		<tag k="railway:traffic_mode" v="passenger"/>
		<tag k="detail" v="track"/>
	</way>
	<way id="240526032">
		<nd ref="2089428404"/>
		<nd ref="2021800352"/>
		<nd ref="6927669307"/>
		<nd ref="2022869958"/>
		<nd ref="6129272103"/>
		<nd ref="2022869961"/>
		<tag k="railway" v="rail"/>
		<tag k="level" v="-2"/>
		<tag k="usage" v="main"/>
		<tag k="railway:traffic_mode" v="passenger"/>
		<tag k="detail" v="track"/>
	</way>
	<way id="240526033">
		<nd ref="446301550"/>
		<nd ref="6927669309"/>
		<nd ref="446301547"/>
		<nd ref="2022869933"/>
		<tag k="railway" v="rail"/>
		<tag k="level" v="-2"/>
		<tag k="ref" v="6134"/>
		<tag k="service" v="siding"/>
		<tag k="railway:traffic_mode" v="passenger"/>
		<tag k="detail" v="track"/>
	</way>
	<way id="240526035">
		<nd ref="2182805399"/>
		<nd ref="2089428418"/>
		<nd ref="285869377"/>
		<nd ref="2021800363"/>
		<tag k="railway" v="rail"/>
		<tag k="level" v="-2"/>
		<tag k="usage" v="main"/>
		<tag k="railway:traffic_mode" v="passenger"/>
		<tag k="detail" v="track"/>
	</way>
	<way id="271420275">
		<nd ref="2182805377"/>
		<nd ref="2085238201"/>
		<tag k="railway" v="rail"/>
		<tag k="level" v="-2"/>
		<tag k="usage" v="main"/>
		<tag k="railway:traffic_mode" v="passenger"/>
		<tag k="detail" v="track"/>
	</way>
	<way id="291670884">
		<nd ref="2951367716"/>
		<nd ref="2951367712"/>
		<nd ref="3318747008"/>
		<nd ref="3256076749"/>
		<nd ref="3256076748"/>
		<nd ref="3256076750"/>
		<nd ref="3253288878"/>
		<nd ref="3236522161"/>
		<nd ref="2456100722"/>
		<tag k="railway" v="tram"/>
		<tag k="start_date" v="2014-12-14"/>
	</way>
	<way id="291670886">
		<nd ref="2951367717"/>
		<nd ref="2951367713"/>
		<nd ref="3256076754"/>
		<nd ref="3256076755"/>
		<nd ref="2085211643"/>
		<nd ref="1368456336"/>
		<nd ref="6442546295"/>
		<nd ref="1736686132"/>
		<nd ref="1736686173"/>
		<nd ref="-20865077"/>
		<tag k="railway" v="tram"/>
		<tag k="start_date" v="2014-12-14"/>
		<tag k="detail" v="track"/>
		<tag k="speisebezirk" v="106"/>
	</way>
	<way id="357555812">
		<nd ref="27426145"/>
		<nd ref="4560346549"/>
		<nd ref="27257038"/>
		<tag k="railway" v="rail"/>
		<tag k="level" v="-2"/>
		<tag k="usage" v="main"/>
		<tag k="railway:traffic_mode" v="passenger"/>
		<tag k="detail" v="track"/>
	</way>
	<way id="367465755">
		<nd ref="4565354482"/>
		<nd ref="4565355192"/>
		<nd ref="4565355189"/>
		<nd ref="4565355191"/>
		<nd ref="4565354483"/>
		<nd ref="4565355190"/>
		<nd ref="4565354484"/>
		<nd ref="4565355193"/>
		<nd ref="4565354482"/>
		<tag k="public_transport" v="platform"/>
		<tag k="railway" v="platform"/>
		<tag k="name" v="S+U Hauptbahnhof"/>
		<tag k="tactile_paving" v="yes"/>
		<tag k="tram" v="yes"/>
	</way>
	<way id="367465756">
		<nd ref="4565354480"/>
		<nd ref="4565355194"/>
		<nd ref="4565354488"/>
		<nd ref="4565355196"/>
		<nd ref="4565354481"/>
		<nd ref="4565355197"/>
		<nd ref="4565354485"/>
		<nd ref="4565355195"/>
		<nd ref="4565354480"/>
		<tag k="public_transport" v="platform"/>
		<tag k="railway" v="platform"/>
		<tag k="name" v="S+U Hauptbahnhof"/>
		<tag k="tactile_paving" v="yes"/>
		<tag k="tram" v="yes"/>
	</way>
	<way id="382412794">
		<nd ref="3856100121"/>
		<nd ref="3856100120"/>
		<tag k="public_transport" v="platform"/>
		<tag k="local_ref" v="1"/>
		<tag k="name" v="S+U Hauptbahnhof"/>
		<tag k="bus" v="yes"/>
		<tag k="tactile_paving" v="no"/>
		<tag k="bin" v="yes"/>
		<tag k="bench" v="yes"/>
	</way>
	<way id="382412795">
		<nd ref="892675614"/>
		<nd ref="4603504531"/>
		<nd ref="3856100128"/>
		<nd ref="4603504529"/>
		<nd ref="4603504530"/>
		<nd ref="892675614"/>
		<tag k="public_transport" v="platform"/>
		<tag k="local_ref" v="3"/>
		<tag k="name" v="S+U Hauptbahnhof"/>
		<tag k="bus" v="yes"/>
		<tag k="highway" v="platform"/>
		<tag k="tactile_paving" v="yes"/>
		<tag k="area" v="yes"/>
		<tag k="bin" v="yes"/>
		<tag k="bench" v="yes"/>
	</way>
	<way id="382412796">
		<nd ref="3856100125"/>
		<nd ref="3856100124"/>
		<tag k="public_transport" v="platform"/>
		<tag k="local_ref" v="2"/>
		<tag k="name" v="S+U Hauptbahnhof"/>
		<tag k="bus" v="yes"/>
		<tag k="tactile_paving" v="yes"/>
		<tag k="bin" v="yes"/>
		<tag k="bench" v="yes"/>
	</way>
	<way id="402790810">
		<nd ref="4052052713"/>
		<nd ref="4052052716"/>
		<nd ref="4052052714"/>
		<nd ref="4052052711"/>
		<nd ref="4052052713"/>
		<tag k="public_transport" v="service_point"/>
		<tag k="level" v="0"/>
		<tag k="name" v="DB Information"/>
		<tag k="indoor" v="room"/>
		<tag k="access" v="public"/>
		<tag k="tourism" v="information"/>
		<tag k="information" v="office"/>
	</way>
	<way id="402794450">
		<nd ref="4052099116"/>
		<nd ref="4052099118"/>
		<nd ref="4052099117"/>
		<nd ref="4052099115"/>
		<nd ref="4052099116"/>
		<tag k="public_transport" v="service_point"/>
		<tag k="level" v="0"/>
		<tag k="indoor" v="room"/>
		<tag k="access" v="public"/>
	</way>
	<way id="406935575">
		<nd ref="2182805378"/>
		<nd ref="4090290501"/>
		<nd ref="6927248361"/>
		<nd ref="446301576"/>
		<tag k="railway" v="rail"/>
		<tag k="level" v="-2"/>
		<tag k="ref" v="6134"/>
		<tag k="service" v="siding"/>
		<tag k="railway:traffic_mode" v="passenger"/>
		<tag k="detail" v="track"/>
	</way>
	<way id="406935576">
		<nd ref="4089721243"/>
		<nd ref="6927766717"/>
		<nd ref="6927766718"/>
		<nd ref="4089721245"/>
		<tag k="railway" v="rail"/>
		<tag k="level" v="-2"/>
		<tag k="service" v="siding"/>
		<tag k="railway:traffic_mode" v="passenger"/>
		<tag k="detail" v="track"/>
	</way>
	<way id="406994079">
		<nd ref="4090290501"/>
		<nd ref="4090290500"/>
		<tag k="railway" v="rail"/>
		<tag k="level" v="-2"/>
		<tag k="service" v="siding"/>
		<tag k="railway:traffic_mode" v="passenger"/>
		<tag k="detail" v="track"/>
	</way>
	<way id="421230282">
		<nd ref="2182805397"/>
		<nd ref="6129272102"/>
		<nd ref="4089721245"/>
		<tag k="railway" v="rail"/>
		<tag k="level" v="-2"/>
		<tag k="ref" v="6171"/>
		<tag k="service" v="siding"/>
		<tag k="railway:traffic_mode" v="passenger"/>
		<tag k="detail" v="track"/>
	</way>
	<way id="421230285">
		<nd ref="2182805400"/>
		<nd ref="6927669310"/>
		<nd ref="2021800354"/>
		<tag k="railway" v="rail"/>
		<tag k="level" v="-2"/>
		<tag k="ref" v="6171"/>
		<tag k="service" v="siding"/>
		<tag k="railway:traffic_mode" v="passenger"/>
		<tag k="detail" v="track"/>
	</way>
	<way id="421618229">
		<nd ref="-20881288"/>
		<nd ref="2023215629"/>
		<nd ref="5239269663"/>
		<nd ref="2023215636"/>
		<nd ref="5239268800"/>
		<nd ref="5239269525"/>
		<nd ref="5239268569"/>
		<nd ref="5239268568"/>
		<nd ref="5239268802"/>
		<nd ref="5239269524"/>
		<nd ref="5239268826"/>
		<nd ref="2085238191"/>
		<nd ref="2126702982"/>
		<nd ref="2085238197"/>
		<nd ref="2021837084"/>
		<tag k="railway" v="subway"/>
		<tag k="level" v="-2"/>
		<tag k="start_date" v="2009-08-09"/>
		<tag k="ref" v="C"/>
		<tag k="electrified:rail" v="bottom"/>
		<tag k="loading_gauge" v="Großprofil"/>
		<tag k="passenger_lines" v="1"/>
	</way>
	<way id="421618231">
		<nd ref="2021837084"/>
		<nd ref="446289301"/>
		<tag k="railway" v="subway"/>
		<tag k="level" v="-2"/>
		<tag k="start_date" v="2009-08-09"/>
		<tag k="ref" v="C"/>
		<tag k="electrified:rail" v="bottom"/>
		<tag k="loading_gauge" v="Großprofil"/>
		<tag k="railway:track_ref" v="1"/>
		<tag k="passenger_lines" v="1"/>
	</way>
	<way id="421618233">
		<nd ref="3651039655"/>
		<nd ref="3856100107"/>
		<nd ref="2021800260"/>
		<tag k="railway" v="disused"/>
		<tag k="level" v="-2"/>
		<tag k="ref" v="C"/>
		<tag k="disused:railway" v="subway"/>
		<tag k="electrified:rail" v="bottom"/>
		<tag k="loading_gauge" v="Großprofil"/>
		<tag k="railway:track_ref" v="2"/>
	</way>
	<way id="421618248">
		<nd ref="2182805395"/>
		<nd ref="3651039655"/>
		<tag k="railway" v="disused"/>
		<tag k="level" v="-2"/>
		<tag k="service" v="yard"/>
		<tag k="disused:railway" v="subway"/>
		<tag k="disused" v="yes"/>
		<tag k="electrified:rail" v="bottom"/>
		<tag k="loading_gauge" v="Großprofil"/>
	</way>
	<way id="429261369">
		<nd ref="4283844725"/>
		<nd ref="4398651552"/>
		<nd ref="4283844726"/>
		<nd ref="4283844724"/>
		<nd ref="4283844722"/>
		<nd ref="4283844725"/>
		<tag k="indoor" v="yes"/>
		<tag k="stairwell" v="flight_of_stairs"/>
	</way>
	<way id="429261370">
		<nd ref="4283844721"/>
		<nd ref="4398651551"/>
		<nd ref="4283844723"/>
		<nd ref="4398651543"/>
		<nd ref="4398651542"/>
		<nd ref="4283844721"/>
		<tag k="indoor" v="yes"/>
		<tag k="stairwell" v="flight_of_stairs"/>
	</way>
	<way id="429369796">
		<nd ref="4284939147"/>
		<nd ref="4585177134"/>
		<nd ref="4284939146"/>
		<tag k="public_transport" v="platform"/>
		<tag k="local_ref" v="4"/>
		<tag k="name" v="S+U Hauptbahnhof"/>
		<tag k="bus" v="yes"/>
		<tag k="highway" v="platform"/>
		<tag k="tactile_paving" v="no"/>
	</way>
	<way id="459344273">
		<nd ref="446301552"/>
		<nd ref="446301554"/>
		<nd ref="446301556"/>
		<nd ref="2021800370"/>
		<tag k="railway" v="rail"/>
		<tag k="level" v="-2"/>
		<tag k="ref" v="6134"/>
		<tag k="service" v="siding"/>
		<tag k="railway:traffic_mode" v="passenger"/>
		<tag k="detail" v="track"/>
	</way>
	<way id="643739266">
		<nd ref="988669014"/>
		<nd ref="2935963581"/>
		<nd ref="2047095964"/>
		<nd ref="276689603"/>
		<nd ref="2182805387"/>
		<nd ref="539318419"/>
		<nd ref="2813070483"/>
		<tag k="railway" v="rail"/>
		<tag k="level" v="2"/>
		<tag k="start_date" v="1882-02"/>
		<tag k="service" v="siding"/>
		<tag k="railway:ballastless:system" v="RHEDA-Berlin"/>
		<tag k="railway:track_ref" v="13"/>
		<tag k="railway:traffic_mode" v="passenger"/>
		<tag k="bridge" v="yes"/>
		<tag k="detail" v="track"/>
	</way>
	<way id="643739286">
		<nd ref="988669020"/>
		<nd ref="2935963579"/>
		<nd ref="29805010"/>
		<nd ref="2182805385"/>
		<nd ref="2813070481"/>
		<tag k="railway" v="rail"/>
		<tag k="level" v="2"/>
		<tag k="name" v="Berliner Stadtbahn"/>
		<tag k="start_date" v="1882-02"/>
		<tag k="ref" v="6109"/>
		<tag k="railway:ballastless:system" v="RHEDA-Berlin"/>
		<tag k="usage" v="main"/>
		<tag k="railway:track_ref" v="11"/>
		<tag k="passenger_lines" v="2"/>
		<tag k="railway:traffic_mode" v="passenger"/>
		<tag k="bridge" v="yes"/>
		<tag k="detail" v="track"/>
	</way>
	<way id="705288682">
		<nd ref="647690845"/>
		<nd ref="2021800364"/>
		<nd ref="647690868"/>
		<nd ref="945766157"/>
		<nd ref="945766156"/>
		<nd ref="6625141917"/>
		<tag k="railway" v="construction"/>
		<tag k="name" v="S21"/>
		<tag k="ref" v="6017"/>
		<tag k="construction" v="light_rail"/>
		<tag k="opening_date" v="2019"/>
		<tag k="construction:railway" v="light_rail"/>
	</way>
	<way id="739812070">
		<nd ref="2021800360"/>
		<nd ref="2021800342"/>
		<tag k="railway" v="rail"/>
		<tag k="level" v="-2"/>
		<tag k="ref" v="6171"/>
		<tag k="service" v="siding"/>
		<tag k="railway:traffic_mode" v="passenger"/>
		<tag k="detail" v="track"/>
	</way>
	<way id="739812071">
		<nd ref="2021800342"/>
		<nd ref="6927248366"/>
		<nd ref="446301554"/>
		<tag k="railway" v="rail"/>
		<tag k="level" v="-2"/>
		<tag k="ref" v="6171"/>
		<tag k="service" v="siding"/>
		<tag k="railway:traffic_mode" v="passenger"/>
		<tag k="detail" v="track"/>
	</way>
	<relation id="156479">
		<member type="way" ref="85258724" role=""/>
		<member type="node" ref="2813070483" role="stop"/>
		<member type="way" ref="643739266" role=""/>
		<tag k="name" v="RE2: Cottbus =&#62; Wismar"/>
		<tag k="colour" v="#FFE600"/>
		<tag k="type" v="route"/>
		<tag k="ref" v="RE2"/>
		<tag k="brand" v="ODEG"/>
		<tag k="service" v="regional"/>
		<tag k="from" v="Cottbus"/>
		<tag k="public_transport:version" v="2"/>
		<tag k="to" v="Wismar"/>
		<tag k="route" v="train"/>
	</relation>
	<relation id="164793">
		<member type="way" ref="202719941" role="platform"/>
		<member type="node" ref="3856100096" role="stop"/>
		<member type="way" ref="200229909" role=""/>
		<member type="way" ref="421230282" role=""/>
		<member type="way" ref="240526028" role=""/>
		<tag k="name" v="RE5: Rostock =&#62; Elsterwerda"/>
		<tag k="colour" v="#0080FF"/>
		<tag k="type" v="route"/>
		<tag k="ref" v="RE5"/>
		<tag k="network:short" v="VBB"/>
		<tag k="service" v="regional"/>
		<tag k="from" v="Rostock"/>
		<tag k="public_transport:version" v="2"/>
		<tag k="to" v="Elsterwerda"/>
		<tag k="route" v="train"/>
	</relation>
	<relation id="187767">
		<member type="way" ref="85258722" role=""/>
		<member type="way" ref="643739286" role=""/>
		<tag k="name" v="RE1: Magdeburg =&#62; Eisenhüttenstadt"/>
		<tag k="colour" v="#FF0000"/>
		<tag k="type" v="route"/>
		<tag k="ref" v="RE1"/>
		<tag k="from" v="Magdeburg"/>
		<tag k="public_transport:version" v="2"/>
		<tag k="to" v="Eisenhüttenstadt"/>
		<tag k="route" v="train"/>
	</relation>
	<relation id="188380">
		<member type="way" ref="85258724" role=""/>
		<member type="way" ref="643739266" role=""/>
		<tag k="name" v="RE1: Eisenhüttenstadt =&#62; Magdeburg"/>
		<tag k="colour" v="#FF0000"/>
		<tag k="type" v="route"/>
		<tag k="ref" v="RE1"/>
		<tag k="from" v="Eisenhüttenstadt"/>
		<tag k="public_transport:version" v="2"/>
		<tag k="to" v="Magdeburg"/>
		<tag k="route" v="train"/>
	</relation>
	<relation id="283039">
		<member type="way" ref="202719941" role="platform"/>
		<member type="node" ref="3856100096" role="stop"/>
		<member type="way" ref="200229909" role=""/>
		<member type="way" ref="421230282" role=""/>
		<member type="way" ref="240526028" role=""/>
		<tag k="name" v="RE3: Stralsund =&#62; Falkenberg (Elster)"/>
		<tag k="colour" v="#FF5900"/>
		<tag k="type" v="route"/>
		<tag k="ref" v="RE3"/>
		<tag k="service" v="regional"/>
		<tag k="from" v="Stralsund"/>
		<tag k="public_transport:version" v="2"/>
		<tag k="to" v="Falkenberg (Elster)"/>
		<tag k="route" v="train"/>
	</relation>
	<relation id="300432">
		<member type="node" ref="2813070482" role="stop"/>
		<member type="way" ref="85258723" role=""/>
		<tag k="name" v="RB21: Wustermark =&#62; Berlin Friedrichstraße"/>
		<tag k="colour" v="#4D66FF"/>
		<tag k="type" v="route"/>
		<tag k="ref" v="RB21"/>
		<tag k="service" v="regional"/>
		<tag k="from" v="Wustermark"/>
		<tag k="public_transport:version" v="2"/>
		<tag k="to" v="Berlin Friedrichstraße"/>
		<tag k="route" v="train"/>
	</relation>
	<relation id="326636">
		<member type="way" ref="85258724" role=""/>
		<member type="node" ref="2813070483" role="stop"/>
		<member type="way" ref="643739266" role=""/>
		<tag k="name" v="RE7: Wünsdorf-Waldstadt =&#62; Dessau Hbf"/>
		<tag k="colour" v="#269900"/>
		<tag k="type" v="route"/>
		<tag k="ref" v="RE7"/>
		<tag k="network:short" v="VBB"/>
		<tag k="service" v="regional"/>
		<tag k="from" v="Wünsdorf-Waldstadt"/>
		<tag k="public_transport:version" v="2"/>
		<tag k="to" v="Dessau Hbf"/>
		<tag k="route" v="train"/>
	</relation>
	<relation id="373229">
		<member type="way" ref="240526035" role=""/>
		<member type="way" ref="4440336" role=""/>
		<member type="node" ref="3856100099" role="stop"/>
		<member type="way" ref="202719942" role="platform"/>
		<member type="way" ref="357555812" role=""/>
		<tag k="name" v="RE4: Jüterbog =&#62; Rathenow"/>
		<tag k="colour" v="#80004D"/>
		<tag k="type" v="route"/>
		<tag k="ref" v="RE4"/>
		<tag k="service" v="regional"/>
		<tag k="from" v="Jüterbog"/>
		<tag k="public_transport:version" v="2"/>
		<tag k="to" v="Rathenow"/>
		<tag k="route" v="train"/>
	</relation>
	<relation id="373292">
		<member type="way" ref="421230285" role=""/>
		<member type="way" ref="739812070" role=""/>
		<member type="way" ref="202719942" role="platform"/>
		<member type="node" ref="3856100100" role="stop"/>
		<member type="way" ref="191591511" role=""/>
		<tag k="name" v="RE5: Elsterwerda =&#62; Stralsund"/>
		<tag k="colour" v="#0080FF"/>
		<tag k="type" v="route"/>
		<tag k="ref" v="RE5"/>
		<tag k="network:short" v="VBB"/>
		<tag k="service" v="regional"/>
		<tag k="from" v="Elsterwerda"/>
		<tag k="public_transport:version" v="2"/>
		<tag k="to" v="Stralsund"/>
		<tag k="route" v="train"/>
	</relation>
	<relation id="374676">
		<member type="way" ref="85258722" role=""/>
		<member type="node" ref="2813070481" role="stop"/>
		<member type="way" ref="643739286" role=""/>
		<tag k="name" v="IC 77: Amsterdam =&#62; Berlin"/>
		<tag k="type" v="route"/>
		<tag k="ref" v="IC 77"/>
		<tag k="service" v="long_distance"/>
		<tag k="from" v="Amsterdam"/>
		<tag k="public_transport:version" v="2"/>
		<tag k="to" v="Berlin"/>
		<tag k="route" v="train"/>
	</relation>
	<relation id="377858">
		<member type="way" ref="85258722" role=""/>
		<member type="node" ref="2813070481" role="stop"/>
		<member type="way" ref="643739286" role=""/>
		<tag k="name" v="RB14: Nauen =&#62; Berlin-Schönefeld"/>
		<tag k="colour" v="#9900FF"/>
		<tag k="type" v="route"/>
		<tag k="ref" v="RB14"/>
		<tag k="service" v="regional"/>
		<tag k="from" v="Nauen"/>
		<tag k="public_transport:version" v="2"/>
		<tag k="to" v="Berlin-Schönefeld"/>
		<tag k="route" v="train"/>
	</relation>
	<relation id="918697">
		<member type="way" ref="54845090" role="outer"/>
		<member type="way" ref="59529945" role="inner"/>
		<member type="way" ref="59529944" role="inner"/>
		<tag k="public_transport" v="platform"/>
		<tag k="train" v="yes"/>
		<tag k="railway" v="platform"/>
		<tag k="level" v="2"/>
		<tag k="name" v="Berlin Hauptbahnhof"/>
		<tag k="type" v="multipolygon"/>
		<tag k="ref" v="13;14"/>
		<tag k="area" v="yes"/>
	</relation>
	<relation id="929443">
		<member type="way" ref="54845088" role="outer"/>
		<member type="way" ref="59710552" role="inner"/>
		<member type="way" ref="59710579" role="inner"/>
		<tag k="public_transport" v="platform"/>
		<tag k="train" v="yes"/>
		<tag k="railway" v="platform"/>
		<tag k="level" v="2"/>
		<tag k="name" v="Berlin Hauptbahnhof"/>
		<tag k="type" v="multipolygon"/>
		<tag k="ref" v="11;12"/>
		<tag k="area" v="yes"/>
		<tag k="bench" v="yes"/>
	</relation>
	<relation id="930922">
		<member type="way" ref="54845089" role="outer"/>
		<member type="way" ref="59804706" role="inner"/>
		<member type="way" ref="59804704" role="inner"/>
		<tag k="public_transport" v="platform"/>
		<tag k="railway" v="platform"/>
		<tag k="light_rail" v="yes"/>
		<tag k="level" v="2"/>
		<tag k="name" v="S Hauptbahnhof"/>
		<tag k="type" v="multipolygon"/>
		<tag k="ref" v="15;16"/>
		<tag k="area" v="yes"/>
		<tag k="bin" v="yes"/>
		<tag k="bench" v="no"/>
	</relation>
	<relation id="939025">
		<member type="way" ref="85258722" role=""/>
		<member type="node" ref="2813070481" role="stop"/>
		<member type="way" ref="643739286" role=""/>
		<tag k="name" v="RE7: Dessau Hbf =&#62; Wünsdorf-Waldstadt"/>
		<tag k="colour" v="#269900"/>
		<tag k="type" v="route"/>
		<tag k="ref" v="RE7"/>
		<tag k="service" v="regional"/>
		<tag k="from" v="Dessau Hbf"/>
		<tag k="public_transport:version" v="2"/>
		<tag k="to" v="Wünsdorf-Waldstadt"/>
		<tag k="route" v="train"/>
	</relation>
	<relation id="1085699">
		<member type="way" ref="140478326" role=""/>
		<member type="way" ref="200229910" role=""/>
		<member type="way" ref="202719939" role="platform"/>
		<member type="node" ref="3856100095" role="stop"/>
		<member type="way" ref="271420275" role=""/>
		<member type="way" ref="140478324" role=""/>
		<tag k="name" v="ICE 11: Berlin =&#62; Frankfurt =&#62; München"/>
		<tag k="type" v="route"/>
		<tag k="ref" v="ICE 11"/>
		<tag k="service" v="high_speed"/>
		<tag k="from" v="Berlin Hauptbahnhof"/>
		<tag k="public_transport:version" v="2"/>
		<tag k="to" v="München Hbf"/>
		<tag k="route" v="train"/>
		<tag k="alt_name" v="ICE11 München"/>
	</relation>
	<relation id="1085700">
		<member type="way" ref="85258724" role=""/>
		<member type="node" ref="2813070483" role="stop"/>
		<member type="way" ref="643739266" role=""/>
		<tag k="name" v="ICE 12: Berlin Ostbahnhof =&#62; Interlaken Ost"/>
		<tag k="type" v="route"/>
		<tag k="ref" v="ICE 12"/>
		<tag k="fee" v="yes"/>
		<tag k="service" v="high_speed"/>
		<tag k="from" v="Berlin Ostbahnhof"/>
		<tag k="public_transport:version" v="2"/>
		<tag k="to" v="Interlaken Ost"/>
		<tag k="route" v="train"/>
		<tag k="alt_name" v="ICE12 Basel"/>
		<tag k="fixme" v="stops south of Basel Bad missing here you go: Basel SBB – Liestal – Olten – Bern – Thun – Spiez – Interlaken West – Interlaken Ost"/>
	</relation>
	<relation id="1278346">
		<member type="way" ref="202719941" role="platform"/>
		<member type="way" ref="191591509" role=""/>
		<member type="node" ref="2813070490" role="stop"/>
		<member type="way" ref="240526029" role=""/>
		<tag k="name" v="ICE 10: Berlin =&#62; Bonn =&#62; Koblenz"/>
		<tag k="type" v="route"/>
		<tag k="ref" v="ICE 10"/>
		<tag k="service" v="high_speed"/>
		<tag k="from" v="Berlin Ostbahnhof"/>
		<tag k="public_transport:version" v="2"/>
		<tag k="to" v="Koblenz Hbf"/>
		<tag k="route" v="train"/>
	</relation>
	<relation id="1311835">
		<member type="way" ref="202719941" role="platform"/>
		<member type="way" ref="191591509" role=""/>
		<member type="node" ref="2813070490" role="stop"/>
		<member type="way" ref="240526029" role=""/>
		<tag k="name" v="ICE 10: Berlin Ostbahnhof =&#62; Köln/Bonn Flughafen"/>
		<tag k="type" v="route"/>
		<tag k="ref" v="ICE 10"/>
		<tag k="service" v="high_speed"/>
		<tag k="from" v="Berlin Ostbahnhof"/>
		<tag k="public_transport:version" v="2"/>
		<tag k="to" v="Köln/Bonn Flughafen"/>
		<tag k="route" v="train"/>
	</relation>
	<relation id="1728821">
		<member type="way" ref="240526031" role=""/>
		<member type="way" ref="202719941" role="platform"/>
		<member type="node" ref="3856100098" role="stop"/>
		<member type="way" ref="191591509" role=""/>
		<member type="way" ref="240526029" role=""/>
		<tag k="name" v="RB10: Nauen =&#62; Berlin Südkreuz"/>
		<tag k="colour" v="#59FF00"/>
		<tag k="type" v="route"/>
		<tag k="ref" v="RB10"/>
		<tag k="service" v="regional"/>
		<tag k="from" v="Nauen"/>
		<tag k="public_transport:version" v="2"/>
		<tag k="to" v="Berlin Südkreuz"/>
		<tag k="route" v="train"/>
	</relation>
	<relation id="1797144">
		<member type="way" ref="459344273" role=""/>
		<member type="node" ref="3856100101" role="stop"/>
		<member type="way" ref="202719944" role="platform"/>
		<member type="way" ref="200229908" role=""/>
		<tag k="name" v="ICE 11: München =&#62; Frankfurt =&#62; Berlin"/>
		<tag k="type" v="route"/>
		<tag k="ref" v="ICE 11"/>
		<tag k="service" v="high_speed"/>
		<tag k="from" v="München Hbf"/>
		<tag k="public_transport:version" v="2"/>
		<tag k="to" v="Berlin Ostbahnhof"/>
		<tag k="route" v="train"/>
		<tag k="alt_name" v="ICE11 Berlin"/>
	</relation>
	<relation id="1798225">
		<member type="way" ref="85258722" role=""/>
		<member type="node" ref="2813070481" role="stop"/>
		<member type="way" ref="643739286" role=""/>
		<tag k="name" v="ICE 12: Interlaken Ost =&#62; Berlin"/>
		<tag k="type" v="route"/>
		<tag k="ref" v="ICE 12"/>
		<tag k="fee" v="yes"/>
		<tag k="service" v="high_speed"/>
		<tag k="from" v="Interlaken Ost"/>
		<tag k="public_transport:version" v="2"/>
		<tag k="to" v="Berlin Ostbahnhof"/>
		<tag k="route" v="train"/>
	</relation>
	<relation id="1801790">
		<member type="node" ref="2813070488" role="stop"/>
		<member type="way" ref="202719939" role="platform"/>
		<member type="way" ref="240526027" role=""/>
		<member type="way" ref="191589508" role=""/>
		<member type="way" ref="406935576" role=""/>
		<tag k="name" v="ICE 10: Köln/Bonn Flughafen =&#62; Berlin-Gesundbrunnen"/>
		<tag k="type" v="route"/>
		<tag k="ref" v="ICE 10"/>
		<tag k="service" v="high_speed"/>
		<tag k="from" v="Köln/Bonn Flughafen"/>
		<tag k="public_transport:version" v="2"/>
		<tag k="to" v="Berlin-Gesundbrunnen"/>
		<tag k="route" v="train"/>
	</relation>
	<relation id="1926823">
		<member type="way" ref="207993047" role=""/>
		<member type="way" ref="459344273" role=""/>
		<member type="node" ref="3856100101" role="stop"/>
		<member type="way" ref="202719944" role="platform"/>
		<member type="way" ref="200229908" role=""/>
		<tag k="name" v="ICE 28: München =&#62; Hamburg"/>
		<tag k="type" v="route"/>
		<tag k="ref" v="ICE 28"/>
		<tag k="service" v="high_speed"/>
		<tag k="from" v="München Hbf"/>
		<tag k="public_transport:version" v="2"/>
		<tag k="to" v="Hamburg Hbf"/>
		<tag k="route" v="train"/>
	</relation>
	<relation id="2014012">
		<member type="way" ref="291670886" role=""/>
		<member type="node" ref="2085211643" role="stop"/>
		<member type="way" ref="367465755" role="platform"/>
		<tag k="name" v="Tram M5: Hohenschönhausen, Zingster Straße =&#62; S+U Hauptbahnhof"/>
		<tag k="colour" v="#CC9933"/>
		<tag k="type" v="route"/>
		<tag k="ref" v="M5"/>
		<tag k="network:short" v="VBB"/>
		<tag k="from" v="Hohenschönhausen, Zingster Straße"/>
		<tag k="public_transport:version" v="2"/>
		<tag k="to" v="S+U Hauptbahnhof"/>
		<tag k="route" v="tram"/>
	</relation>
	<relation id="2014013">
		<member type="node" ref="3253288878" role="stop"/>
		<member type="way" ref="367465756" role="platform"/>
		<member type="way" ref="291670884" role=""/>
		<member type="way" ref="122463699" role=""/>
		<tag k="name" v="Tram M5: S+U Hauptbahnhof =&#62; Hohenschönhausen, Zingster Straße"/>
		<tag k="colour" v="#CC9933"/>
		<tag k="type" v="route"/>
		<tag k="ref" v="M5"/>
		<tag k="network:short" v="VBB"/>
		<tag k="from" v="S+U Hauptbahnhof"/>
		<tag k="public_transport:version" v="2"/>
		<tag k="to" v="Hohenschönhausen, Zingster Straße"/>
		<tag k="route" v="tram"/>
	</relation>
	<relation id="2015440">
		<member type="way" ref="291670886" role=""/>
		<member type="node" ref="2085211643" role="stop"/>
		<member type="way" ref="367465755" role="platform"/>
		<tag k="name" v="Tram M8: Ahrensfelde/Stadtgrenze =&#62; S+U Hauptbahnhof"/>
		<tag k="colour" v="#FF6633"/>
		<tag k="type" v="route"/>
		<tag k="ref" v="M8"/>
		<tag k="network:short" v="VBB"/>
		<tag k="from" v="Ahrensfelde/Stadtgrenze"/>
		<tag k="public_transport:version" v="2"/>
		<tag k="to" v="S+U Hauptbahnhof"/>
		<tag k="route" v="tram"/>
		<tag k="headway" v="10"/>
	</relation>
	<relation id="2015441">
		<member type="node" ref="3253288878" role="stop"/>
		<member type="way" ref="367465756" role="platform"/>
		<member type="way" ref="291670884" role=""/>
		<member type="way" ref="122463699" role=""/>
		<tag k="name" v="Tram M8: S+U Hauptbahnhof =&#62; Ahrensfelde/Stadtgrenze"/>
		<tag k="colour" v="#FF6633"/>
		<tag k="type" v="route"/>
		<tag k="ref" v="M8"/>
		<tag k="network:short" v="VBB"/>
		<tag k="from" v="S+U Hauptbahnhof"/>
		<tag k="public_transport:version" v="2"/>
		<tag k="to" v="Ahrensfelde/Stadtgrenze"/>
		<tag k="route" v="tram"/>
		<tag k="headway" v="10"/>
	</relation>
	<relation id="2015944">
		<member type="way" ref="32591076" role=""/>
		<member type="way" ref="85258728" role=""/>
		<member type="node" ref="2813070486" role="stop"/>
		<tag k="name" v="S5: S Strausberg Nord =&#62; S Westkreuz"/>
		<tag k="colour" v="#F25721"/>
		<tag k="type" v="route"/>
		<tag k="ref" v="S5"/>
		<tag k="network:short" v="VBB"/>
		<tag k="from" v="S Strausberg Nord"/>
		<tag k="public_transport:version" v="2"/>
		<tag k="to" v="S Westkreuz"/>
		<tag k="route" v="train"/>
		<tag k="line" v="light_rail"/>
		<tag k="network:metro" v="s-bahn"/>
		<tag k="service_times" v="04:00-24:00"/>
	</relation>
	<relation id="2015959">
		<member type="way" ref="114919150" role=""/>
		<member type="way" ref="85258732" role=""/>
		<member type="node" ref="27412648" role="stop"/>
		<tag k="name" v="S5: S Westkreuz =&#62; S Strausberg Nord"/>
		<tag k="colour" v="#F25721"/>
		<tag k="type" v="route"/>
		<tag k="ref" v="S5"/>
		<tag k="network:short" v="VBB"/>
		<tag k="from" v="S Westkreuz"/>
		<tag k="public_transport:version" v="2"/>
		<tag k="to" v="S Strausberg Nord"/>
		<tag k="route" v="train"/>
		<tag k="line" v="light_rail"/>
		<tag k="network:metro" v="s-bahn"/>
		<tag k="service_times" v="04:00-24:00"/>
	</relation>
	<relation id="2017023">
		<member type="way" ref="32591076" role=""/>
		<member type="way" ref="85258728" role=""/>
		<member type="node" ref="2813070486" role="stop"/>
		<tag k="name" v="S7: S Ahrensfelde =&#62; S Potsdam Hauptbahnhof"/>
		<tag k="colour" v="#8070B7"/>
		<tag k="type" v="route"/>
		<tag k="ref" v="S7"/>
		<tag k="network:short" v="VBB"/>
		<tag k="from" v="S Ahrensfelde"/>
		<tag k="public_transport:version" v="2"/>
		<tag k="to" v="S Potsdam Hauptbahnhof"/>
		<tag k="route" v="train"/>
		<tag k="line" v="light_rail"/>
		<tag k="network:metro" v="s-bahn"/>
	</relation>
	<relation id="2017024">
		<member type="way" ref="114919150" role=""/>
		<member type="way" ref="85258732" role=""/>
		<member type="node" ref="27412648" role="stop"/>
		<tag k="name" v="S7: S Potsdam Hauptbahnhof =&#62; S Ahrensfelde"/>
		<tag k="colour" v="#8070B7"/>
		<tag k="type" v="route"/>
		<tag k="ref" v="S7"/>
		<tag k="network:short" v="VBB"/>
		<tag k="from" v="S Potsdam Hauptbahnhof"/>
		<tag k="public_transport:version" v="2"/>
		<tag k="to" v="S Ahrensfelde"/>
		<tag k="route" v="train"/>
		<tag k="line" v="light_rail"/>
		<tag k="network:metro" v="s-bahn"/>
	</relation>
	<relation id="2077031">
		<member type="node" ref="3253288878" role="stop"/>
		<member type="way" ref="367465756" role="platform"/>
		<member type="way" ref="291670884" role=""/>
		<member type="way" ref="122463699" role=""/>
		<tag k="name" v="Tram M10: S+U Hauptbahnhof =&#62; S+U Warschauer Straße"/>
		<tag k="colour" v="#108449"/>
		<tag k="type" v="route"/>
		<tag k="ref" v="M10"/>
		<tag k="network:short" v="VBB"/>
		<tag k="from" v="S+U Hauptbahnhof"/>
		<tag k="public_transport:version" v="2"/>
		<tag k="to" v="S+U Warschauer Straße"/>
		<tag k="route" v="tram"/>
	</relation>
	<relation id="2077032">
		<member type="way" ref="291670886" role=""/>
		<member type="node" ref="2085211643" role="stop"/>
		<member type="way" ref="367465755" role="platform"/>
		<tag k="name" v="Tram M10: S+U Warschauer Straße =&#62; S+U Hauptbahnhof"/>
		<tag k="colour" v="#108449"/>
		<tag k="type" v="route"/>
		<tag k="ref" v="M10"/>
		<tag k="network:short" v="VBB"/>
		<tag k="from" v="S+U Warschauer Straße"/>
		<tag k="public_transport:version" v="2"/>
		<tag k="to" v="S+U Hauptbahnhof"/>
		<tag k="route" v="tram"/>
	</relation>
	<relation id="2178680">
		<member type="way" ref="140478326" role=""/>
		<member type="way" ref="200229910" role=""/>
		<member type="way" ref="202719939" role="platform"/>
		<member type="node" ref="3856100095" role="stop"/>
		<member type="way" ref="271420275" role=""/>
		<member type="way" ref="47385149" role=""/>
		<member type="way" ref="140478324" role=""/>
		<tag k="name" v="ICE 28: Hamburg =&#62; München"/>
		<tag k="type" v="route"/>
		<tag k="ref" v="ICE 28"/>
		<tag k="service" v="long_distance"/>
		<tag k="from" v="Hamburg Hbf"/>
		<tag k="public_transport:version" v="2"/>
		<tag k="to" v="München Hbf"/>
		<tag k="route" v="train"/>
	</relation>
	<relation id="2343465">
		<member type="way" ref="32591076" role=""/>
		<member type="way" ref="85258728" role=""/>
		<member type="node" ref="2813070486" role="stop"/>
		<tag k="name" v="S3: S Erkner =&#62; S Spandau"/>
		<tag k="colour" v="#055A99"/>
		<tag k="type" v="route"/>
		<tag k="ref" v="S3"/>
		<tag k="network:short" v="VBB"/>
		<tag k="from" v="S Erkner"/>
		<tag k="public_transport:version" v="2"/>
		<tag k="to" v="S Spandau"/>
		<tag k="route" v="train"/>
		<tag k="line" v="light_rail"/>
		<tag k="network:metro" v="s-bahn"/>
	</relation>
	<relation id="2343466">
		<member type="way" ref="114919150" role=""/>
		<member type="way" ref="85258732" role=""/>
		<member type="node" ref="27412648" role="stop"/>
		<tag k="name" v="S3: S Spandau =&#62; S Erkner"/>
		<tag k="colour" v="#055A99"/>
		<tag k="type" v="route"/>
		<tag k="ref" v="S3"/>
		<tag k="network:short" v="VBB"/>
		<tag k="from" v="S Spandau"/>
		<tag k="public_transport:version" v="2"/>
		<tag k="to" v="S Erkner"/>
		<tag k="route" v="train"/>
		<tag k="line" v="light_rail"/>
		<tag k="network:metro" v="s-bahn"/>
	</relation>
	<relation id="2389945">
		<member type="way" ref="32591076" role=""/>
		<member type="way" ref="85258728" role=""/>
		<member type="node" ref="2813070486" role="stop"/>
		<tag k="name" v="S9: S Flughafen Schönefeld =&#62; S Spandau"/>
		<tag k="colour" v="#9A3052"/>
		<tag k="type" v="route"/>
		<tag k="ref" v="S9"/>
		<tag k="network:short" v="VBB"/>
		<tag k="from" v="S Flughafen Schönefeld"/>
		<tag k="public_transport:version" v="2"/>
		<tag k="to" v="S Spandau"/>
		<tag k="route" v="train"/>
		<tag k="line" v="light_rail"/>
		<tag k="network:metro" v="s-bahn"/>
	</relation>
	<relation id="2389946">
		<member type="way" ref="114919150" role=""/>
		<member type="way" ref="85258732" role=""/>
		<member type="node" ref="27412648" role="stop"/>
		<tag k="name" v="S9: S Spandau =&#62; S Flughafen Schönefeld"/>
		<tag k="colour" v="#9A3052"/>
		<tag k="type" v="route"/>
		<tag k="ref" v="S9"/>
		<tag k="network:short" v="VBB"/>
		<tag k="from" v="S Spandau"/>
		<tag k="public_transport:version" v="2"/>
		<tag k="to" v="S Flughafen Schönefeld"/>
		<tag k="route" v="train"/>
		<tag k="line" v="light_rail"/>
		<tag k="network:metro" v="s-bahn"/>
	</relation>
	<relation id="2466742">
		<member type="way" ref="85258724" role=""/>
		<member type="node" ref="2813070483" role="stop"/>
		<member type="way" ref="643739266" role=""/>
		<tag k="name" v="IC 77: Berlin =&#62; Amsterdam Centraal"/>
		<tag k="type" v="route"/>
		<tag k="ref" v="IC 77"/>
		<tag k="service" v="long_distance"/>
		<tag k="from" v="Berlin"/>
		<tag k="public_transport:version" v="2"/>
		<tag k="to" v="Amsterdam"/>
		<tag k="route" v="train"/>
		<tag k="url" v="http://wiki.ovinnederland.nl/wiki/Serie_140"/>
	</relation>
	<relation id="2500638">
		<member type="way" ref="85258722" role=""/>
		<member type="node" ref="2813070481" role="stop"/>
		<member type="way" ref="643739286" role=""/>
		<tag k="name" v="IC 56: Norddeich =&#62; Cottbus"/>
		<tag k="type" v="route"/>
		<tag k="ref" v="IC 56"/>
		<tag k="brand" v="InterCity"/>
		<tag k="service" v="long_distance"/>
		<tag k="from" v="Norddeich Mole"/>
		<tag k="public_transport:version" v="2"/>
		<tag k="to" v="Cottbus"/>
		<tag k="route" v="train"/>
	</relation>
	<relation id="2522653">
		<member type="node" ref="2813070488" role="stop"/>
		<member type="way" ref="202719939" role="platform"/>
		<member type="way" ref="240526027" role=""/>
		<member type="way" ref="191589508" role=""/>
		<member type="way" ref="406935576" role=""/>
		<tag k="name" v="ICE 10: Koblenz =&#62; Bonn =&#62; Berlin"/>
		<tag k="type" v="route"/>
		<tag k="ref" v="ICE 10"/>
		<tag k="service" v="high_speed"/>
		<tag k="from" v="Koblenz"/>
		<tag k="public_transport:version" v="2"/>
		<tag k="to" v="Berlin-Gesundbrunnen"/>
		<tag k="route" v="train"/>
	</relation>
	<relation id="2523197">
		<member type="way" ref="140478326" role=""/>
		<member type="way" ref="200229910" role=""/>
		<member type="way" ref="202719939" role="platform"/>
		<member type="node" ref="3856100095" role="stop"/>
		<member type="way" ref="271420275" role=""/>
		<member type="way" ref="47385149" role=""/>
		<member type="way" ref="140478324" role=""/>
		<tag k="name" v="RE4: Rathenow =&#62; Jüterbog"/>
		<tag k="colour" v="#80004D"/>
		<tag k="type" v="route"/>
		<tag k="ref" v="RE4"/>
		<tag k="service" v="regional"/>
		<tag k="from" v="Rathenow"/>
		<tag k="public_transport:version" v="2"/>
		<tag k="to" v="Jüterbog"/>
		<tag k="route" v="train"/>
	</relation>
	<relation id="2607467">
		<member type="way" ref="85258722" role=""/>
		<member type="node" ref="2813070481" role="stop"/>
		<member type="way" ref="643739286" role=""/>
		<tag k="name" v="RE2: Wismar =&#62; Cottbus"/>
		<tag k="colour" v="#FFE600"/>
		<tag k="type" v="route"/>
		<tag k="ref" v="RE2"/>
		<tag k="brand" v="ODEG"/>
		<tag k="service" v="regional"/>
		<tag k="from" v="Wismar"/>
		<tag k="public_transport:version" v="2"/>
		<tag k="to" v="Cottbus"/>
		<tag k="route" v="train"/>
	</relation>
	<relation id="2609906">
		<member type="way" ref="85258724" role=""/>
		<member type="node" ref="2813070483" role="stop"/>
		<member type="way" ref="643739266" role=""/>
		<tag k="name" v="RE2: Berlin Ostbahnhof =&#62; Wismar"/>
		<tag k="colour" v="#FFE600"/>
		<tag k="type" v="route"/>
		<tag k="ref" v="RE2"/>
		<tag k="brand" v="ODEG"/>
		<tag k="service" v="regional"/>
		<tag k="from" v="Berlin Ostbahnhof"/>
		<tag k="public_transport:version" v="2"/>
		<tag k="to" v="Wismar"/>
		<tag k="route" v="train"/>
	</relation>
	<relation id="2609907">
		<member type="way" ref="240526035" role=""/>
		<member type="way" ref="4440336" role=""/>
		<member type="node" ref="3856100099" role="stop"/>
		<member type="way" ref="202719942" role="platform"/>
		<member type="way" ref="357555812" role=""/>
		<tag k="name" v="RE3: Falkenberg (Elster) =&#62; Stralsund"/>
		<tag k="colour" v="#FF5900"/>
		<tag k="type" v="route"/>
		<tag k="ref" v="RE3"/>
		<tag k="service" v="regional"/>
		<tag k="from" v="Falkenberg (Elster)"/>
		<tag k="public_transport:version" v="2"/>
		<tag k="to" v="Stralsund"/>
		<tag k="route" v="train"/>
	</relation>
	<relation id="2609908">
		<member type="way" ref="202719941" role="platform"/>
		<member type="node" ref="3856100096" role="stop"/>
		<member type="way" ref="200229909" role=""/>
		<member type="way" ref="421230282" role=""/>
		<member type="way" ref="240526028" role=""/>
		<tag k="name" v="RE5: Stralsund =&#62; Elsterwerda"/>
		<tag k="colour" v="#0080FF"/>
		<tag k="type" v="route"/>
		<tag k="ref" v="RE5"/>
		<tag k="network:short" v="VBB"/>
		<tag k="service" v="regional"/>
		<tag k="from" v="Stralsund"/>
		<tag k="public_transport:version" v="2"/>
		<tag k="to" v="Elsterwerda"/>
		<tag k="route" v="train"/>
	</relation>
	<relation id="2609909">
		<member type="way" ref="240526035" role=""/>
		<member type="way" ref="4440336" role=""/>
		<member type="way" ref="202719942" role="platform"/>
		<member type="node" ref="2813070491" role="stop"/>
		<member type="way" ref="357555812" role=""/>
		<tag k="name" v="RE5: Elsterwerda =&#62; Rostock"/>
		<tag k="colour" v="#0080FF"/>
		<tag k="type" v="route"/>
		<tag k="ref" v="RE5"/>
		<tag k="network:short" v="VBB"/>
		<tag k="service" v="regional"/>
		<tag k="from" v="Elsterwerda"/>
		<tag k="public_transport:version" v="2"/>
		<tag k="to" v="Rostock"/>
		<tag k="route" v="train"/>
	</relation>
	<relation id="2721032">
		<member type="node" ref="2813070487" role="stop"/>
		<member type="node" ref="2813070489" role="stop"/>
		<member type="node" ref="2813070488" role="stop"/>
		<member type="node" ref="2813070491" role="stop"/>
		<member type="node" ref="2813070490" role="stop"/>
		<member type="node" ref="2813070493" role="stop"/>
		<member type="way" ref="202719939" role="platform"/>
		<member type="node" ref="2813070492" role="stop"/>
		<member type="way" ref="202719941" role="platform"/>
		<member type="node" ref="2813070494" role="stop"/>
		<member type="way" ref="202719942" role="platform"/>
		<member type="way" ref="202719944" role="platform"/>
		<member type="node" ref="3856100095" role="stop"/>
		<member type="node" ref="3856100097" role="stop"/>
		<member type="node" ref="2459919675" role="station"/>
		<member type="node" ref="3856100096" role="stop"/>
		<member type="node" ref="3856100099" role="stop"/>
		<member type="node" ref="3856100098" role="stop"/>
		<member type="node" ref="3856100101" role="stop"/>
		<member type="node" ref="3856100100" role="stop"/>
		<member type="node" ref="3856100102" role="stop"/>
		<tag k="public_transport" v="stop_area"/>
		<tag k="name" v="Berlin Hauptbahnhof (Tief)"/>
		<tag k="type" v="public_transport"/>
		<tag k="uic_ref" v="8098160"/>
		<tag k="uic_name" v="Berlin Hauptbahnhof (tief)"/>
		<tag k="network:short" v="VBB"/>
	</relation>
	<relation id="3378857">
		<member type="way" ref="240526035" role=""/>
		<member type="way" ref="4440336" role=""/>
		<member type="node" ref="3856100099" role="stop"/>
		<member type="way" ref="202719942" role="platform"/>
		<member type="way" ref="357555812" role=""/>
		<tag k="name" v="RE3: Lutherstadt Wittenberg =&#62; Schwedt (Oder)"/>
		<tag k="colour" v="#FF5900"/>
		<tag k="type" v="route"/>
		<tag k="ref" v="RE3"/>
		<tag k="service" v="regional"/>
		<tag k="from" v="Lutherstadt Wittenberg"/>
		<tag k="public_transport:version" v="2"/>
		<tag k="to" v="Schwedt (Oder)"/>
		<tag k="route" v="train"/>
	</relation>
	<relation id="3378858">
		<member type="way" ref="202719941" role="platform"/>
		<member type="node" ref="3856100096" role="stop"/>
		<member type="way" ref="200229909" role=""/>
		<member type="way" ref="421230282" role=""/>
		<member type="way" ref="240526028" role=""/>
		<tag k="name" v="RE3: Schwedt (Oder) =&#62; Lutherstadt Wittenberg"/>
		<tag k="colour" v="#FF5900"/>
		<tag k="type" v="route"/>
		<tag k="ref" v="RE3"/>
		<tag k="service" v="regional"/>
		<tag k="from" v="Schwedt (Oder)"/>
		<tag k="public_transport:version" v="2"/>
		<tag k="to" v="Lutherstadt Wittenberg"/>
		<tag k="route" v="train"/>
	</relation>
	<relation id="3390246">
		<member type="way" ref="4440336" role=""/>
		<member type="way" ref="202719942" role="platform"/>
		<member type="node" ref="2813070491" role="stop"/>
		<member type="way" ref="357555812" role=""/>
		<tag k="name" v="IC 1953: Karlsruhe Hbf =&#62; Berlin Hbf"/>
		<tag k="type" v="route"/>
		<tag k="ref" v="IC 50 E"/>
		<tag k="service" v="long_distance"/>
		<tag k="from" v="Karlsruhe Hauptbahnhof"/>
		<tag k="public_transport:version" v="2"/>
		<tag k="to" v="Berlin Hauptbahnhof"/>
		<tag k="route" v="train"/>
		<tag k="fixme" v="stops missing; Verlauf Halle-Berlin?"/>
		<tag k="ref:DB" v="IC1953"/>
	</relation>
	<relation id="3779840">
		<member type="node" ref="3856100096" role="stop"/>
		<member type="way" ref="200229909" role=""/>
		<member type="way" ref="421230282" role=""/>
		<member type="way" ref="240526028" role=""/>
		<tag k="name" v="EC 173: Hamburg =&#62; Budapest"/>
		<tag k="colour" v="#9D9D9D"/>
		<tag k="type" v="route"/>
		<tag k="ref" v="EC 173"/>
		<tag k="service" v="long_distance"/>
		<tag k="from" v="Hamburg-Altona"/>
		<tag k="public_transport:version" v="2"/>
		<tag k="to" v="Budapest-Keleti pu."/>
		<tag k="route" v="train"/>
	</relation>
	<relation id="3779841">
		<member type="way" ref="240526030" role=""/>
		<member type="way" ref="240526032" role=""/>
		<member type="way" ref="202719944" role="platform"/>
		<member type="node" ref="3856100102" role="stop"/>
		<member type="way" ref="191591510" role=""/>
		<tag k="name" v="EC 172: Budapest =&#62; Hamburg"/>
		<tag k="colour" v="#9D9D9D"/>
		<tag k="type" v="route"/>
		<tag k="ref" v="EC 172"/>
		<tag k="service" v="long_distance"/>
		<tag k="from" v="Budapest-Keleti pu."/>
		<tag k="public_transport:version" v="2"/>
		<tag k="to" v="Hamburg-Altona"/>
		<tag k="route" v="train"/>
	</relation>
	<relation id="5454292">
		<member type="way" ref="240526035" role=""/>
		<member type="way" ref="4440336" role=""/>
		<member type="node" ref="3856100099" role="stop"/>
		<member type="way" ref="202719942" role="platform"/>
		<member type="way" ref="357555812" role=""/>
		<tag k="name" v="EC 27: Decin =&#62; Dresden =&#62; Hamburg"/>
		<tag k="type" v="route"/>
		<tag k="ref" v="EC 27"/>
		<tag k="service" v="long_distance"/>
		<tag k="from" v="Decin"/>
		<tag k="public_transport:version" v="2"/>
		<tag k="to" v="Hamburg Altona"/>
		<tag k="route" v="train"/>
	</relation>
	<relation id="5455739">
		<member type="way" ref="140478326" role=""/>
		<member type="way" ref="200229910" role=""/>
		<member type="way" ref="202719939" role="platform"/>
		<member type="node" ref="3856100095" role="stop"/>
		<member type="way" ref="271420275" role=""/>
		<member type="way" ref="47385149" role=""/>
		<member type="way" ref="140478324" role=""/>
		<tag k="name" v="EC 27: Hamburg =&#62; Dresden =&#62; Decin"/>
		<tag k="type" v="route"/>
		<tag k="ref" v="EC 27"/>
		<tag k="service" v="international"/>
		<tag k="from" v="Hamburg Altona"/>
		<tag k="public_transport:version" v="2"/>
		<tag k="to" v="Decin"/>
		<tag k="route" v="train"/>
	</relation>
	<relation id="5491473">
		<member type="way" ref="85258724" role=""/>
		<member type="node" ref="2813070483" role="stop"/>
		<member type="way" ref="643739266" role=""/>
		<tag k="name" v="ICE 3: Berlin =&#62; Frankfurt"/>
		<tag k="type" v="route"/>
		<tag k="ref" v="ICE 3"/>
		<tag k="service" v="high_speed"/>
		<tag k="from" v="Berlin Ostbahnhof"/>
		<tag k="public_transport:version" v="2"/>
		<tag k="to" v="Frankfurt (Main) Hauptbahnhof"/>
		<tag k="route" v="train"/>
		<tag k="alt_name" v="ICE Sprinter Berlin - Frankfurt"/>
		<tag k="fixme" v="Durchfahrgleise auf Berliner Bahnhöfen (außer Hbf, Zoo) und im Bahnhof Fulda geraten"/>
	</relation>
	<relation id="5688517">
		<member type="node" ref="2813070481" role="stop"/>
		<member type="node" ref="2813070483" role="stop"/>
		<member type="node" ref="2813070482" role="stop"/>
		<member type="node" ref="2813070484" role="stop"/>
		<member type="node" ref="3856100103" role="station"/>
		<tag k="public_transport" v="stop_area"/>
		<tag k="railway" v="facility"/>
		<tag k="name" v="Berlin Hauptbahnhof"/>
		<tag k="type" v="public_transport"/>
		<tag k="uic_ref" v="8011160"/>
		<tag k="uic_name" v="Berlin Hauptbahnhof"/>
		<tag k="network:short" v="VBB"/>
	</relation>
	<relation id="5688520">
		<member type="node" ref="3856100106" role=""/>
		<member type="node" ref="2813070486" role="stop"/>
		<member type="node" ref="27412648" role="stop"/>
		<tag k="public_transport" v="stop_area"/>
		<tag k="name" v="Berlin, S Hauptbahnhof"/>
		<tag k="type" v="public_transport"/>
		<tag k="uic_ref" v="8089021"/>
		<tag k="uic_name" v="S-Bahnhof Berlin Hauptbahnhof"/>
		<tag k="network:short" v="VBB"/>
	</relation>
	<relation id="5688521">
		<member type="node" ref="4284939148" role="stop"/>
		<member type="node" ref="3253288878" role="stop"/>
		<member type="way" ref="382412795" role="platform"/>
		<member type="way" ref="382412794" role="platform"/>
		<member type="node" ref="817754406" role="stop"/>
		<member type="node" ref="817763144" role="stop"/>
		<member type="way" ref="382412796" role="platform"/>
		<member type="node" ref="892675617" role="stop"/>
		<member type="node" ref="2085211643" role="stop"/>
		<member type="way" ref="367465755" role="platform"/>
		<member type="way" ref="367465756" role="platform"/>
		<member type="way" ref="429369796" role="platform"/>
		<tag k="public_transport" v="stop_area"/>
		<tag k="name" v="Berlin, S+U Hauptbahnhof (Bus/Tram)"/>
		<tag k="type" v="public_transport"/>
		<tag k="network:short" v="VBB"/>
	</relation>
	<relation id="5688522">
		<member type="node" ref="3856100107" role="stop"/>
		<member type="node" ref="4398651552" role=""/>
		<member type="node" ref="2088354767" role=""/>
		<member type="node" ref="3856100108" role=""/>
		<member type="way" ref="86379623" role="platform"/>
		<member type="node" ref="4294764767" role=""/>
		<member type="node" ref="4398651551" role=""/>
		<member type="node" ref="446289301" role="stop"/>
		<member type="node" ref="390962614" role=""/>
		<tag k="public_transport" v="stop_area"/>
		<tag k="name" v="Berlin, U Hauptbahnhof"/>
		<tag k="type" v="public_transport"/>
		<tag k="network:short" v="VBB"/>
	</relation>
	<relation id="5688523">
		<member type="node" ref="4530641638" role=""/>
		<member type="node" ref="983272582" role=""/>
		<member type="node" ref="983272586" role=""/>
		<tag k="public_transport" v="stop_area_group"/>
		<tag k="name" v="Berlin, Hauptbahnhof"/>
		<tag k="type" v="public_transport"/>
	</relation>
	<relation id="5969072">
		<member type="way" ref="421230285" role=""/>
		<member type="way" ref="739812070" role=""/>
		<member type="node" ref="2813070493" role="stop"/>
		<member type="way" ref="191591511" role=""/>
		<tag k="name" v="EN 453 : Paris =&#62; Berlin =&#62; Moscou"/>
		<tag k="type" v="route"/>
		<tag k="ref" v="EN 453"/>
		<tag k="service" v="international"/>
		<tag k="from" v="Paris - Gare de l&#39;Est"/>
		<tag k="public_transport:version" v="2"/>
		<tag k="to" v="Moskva Belorusskaja"/>
		<tag k="route" v="train"/>
		<tag k="by_night" v="yes"/>
		<tag k="to:ru" v="Москва-Пассажирская-Смоленская"/>
		<tag k="dining" v="yes"/>
		<tag k="reservation" v="yes"/>
		<tag k="sleeping" v="yes"/>
		<tag k="from:ru" v="Восточный вокзал"/>
	</relation>
	<relation id="6147984">
		<member type="way" ref="140478326" role=""/>
		<member type="way" ref="200229910" role=""/>
		<member type="way" ref="202719939" role="platform"/>
		<member type="node" ref="2813070487" role="stop"/>
		<member type="way" ref="271420275" role=""/>
		<member type="way" ref="47385149" role=""/>
		<member type="way" ref="140478324" role=""/>
		<tag k="name" v="ICE 15: Ostseebad Binz =&#62; Berlin =&#62; Erfurt =&#62; Frankfurt"/>
		<tag k="type" v="route"/>
		<tag k="ref" v="ICE 15"/>
		<tag k="service" v="long_distance"/>
		<tag k="from" v="Ostseebad Binz"/>
		<tag k="public_transport:version" v="2"/>
		<tag k="to" v="Frankfurt (Main) Hbf"/>
		<tag k="route" v="train"/>
	</relation>
	<relation id="6147989">
		<member type="way" ref="240526035" role=""/>
		<member type="way" ref="4440336" role=""/>
		<member type="node" ref="3856100099" role="stop"/>
		<member type="way" ref="202719942" role="platform"/>
		<member type="way" ref="357555812" role=""/>
		<tag k="name" v="ICE 15: Frankfurt =&#62; Erfurt =&#62; Berlin =&#62; Ostseebad Binz"/>
		<tag k="type" v="route"/>
		<tag k="ref" v="ICE 15"/>
		<tag k="service" v="long_distance"/>
		<tag k="from" v="Frankfurt (Main) Hbf"/>
		<tag k="public_transport:version" v="2"/>
		<tag k="to" v="Ostseebad Binz"/>
		<tag k="route" v="train"/>
	</relation>
	<relation id="6181528">
		<member type="way" ref="85258724" role=""/>
		<member type="node" ref="2813070483" role="stop"/>
		<member type="way" ref="643739266" role=""/>
		<tag k="name" v="IC 56: Cottbus =&#62; Norddeich"/>
		<tag k="type" v="route"/>
		<tag k="ref" v="IC 56"/>
		<tag k="brand" v="InterCity"/>
		<tag k="service" v="long_distance"/>
		<tag k="from" v="Cottbus"/>
		<tag k="public_transport:version" v="2"/>
		<tag k="to" v="Norddeich Mole"/>
		<tag k="route" v="train"/>
	</relation>
	<relation id="6188745">
		<member type="way" ref="85258722" role=""/>
		<member type="node" ref="2813070481" role="stop"/>
		<member type="way" ref="643739286" role=""/>
		<tag k="name" v="ICE 3: Frankfurt =&#62; Berlin"/>
		<tag k="type" v="route"/>
		<tag k="ref" v="ICE 3"/>
		<tag k="service" v="high_speed"/>
		<tag k="from" v="Frankfurt (Main) Hauptbahnhof"/>
		<tag k="public_transport:version" v="2"/>
		<tag k="to" v="Berlin Ostbahnhof"/>
		<tag k="route" v="train"/>
		<tag k="alt_name" v="ICE Sprinter Frankfurt - Berlin"/>
		<tag k="fixme" v="Durchfahrgleise auf Berliner Bahnhöfen und im Bahnhof Fulda geraten"/>
	</relation>
	<relation id="6195246">
		<member type="node" ref="2813070481" role="stop"/>
		<member type="way" ref="643739286" role=""/>
		<tag k="name" v="EC 95 Berlin - Warszawa"/>
		<tag k="type" v="route"/>
		<tag k="ref" v="EC 95"/>
		<tag k="service" v="international"/>
		<tag k="from" v="Berlin Hauptbahnhof"/>
		<tag k="public_transport:version" v="2"/>
		<tag k="to" v="Warszawa Wschodnia"/>
		<tag k="route" v="train"/>
	</relation>
	<relation id="6195247">
		<member type="node" ref="2813070483" role="stop"/>
		<member type="way" ref="643739266" role=""/>
		<tag k="name" v="EC 95 Warszawa - Berlin"/>
		<tag k="type" v="route"/>
		<tag k="ref" v="EC 95"/>
		<tag k="service" v="international"/>
		<tag k="from" v="Warszawa Wschodnia"/>
		<tag k="public_transport:version" v="2"/>
		<tag k="to" v="Berlin Hauptbahnhof"/>
		<tag k="route" v="train"/>
	</relation>
	<relation id="6257264">
		<member type="way" ref="85258724" role=""/>
		<member type="node" ref="2813070483" role="stop"/>
		<member type="way" ref="643739266" role=""/>
		<tag k="name" v="RB14: Berlin-Schönefeld =&#62; Nauen"/>
		<tag k="colour" v="#9900FF"/>
		<tag k="type" v="route"/>
		<tag k="ref" v="RB14"/>
		<tag k="service" v="regional"/>
		<tag k="from" v="Berlin-Schönefeld"/>
		<tag k="public_transport:version" v="2"/>
		<tag k="to" v="Nauen"/>
		<tag k="route" v="train"/>
	</relation>
	<relation id="6357667">
		<member type="way" ref="207993047" role=""/>
		<member type="way" ref="459344273" role=""/>
		<member type="way" ref="202719944" role="platform"/>
		<member type="node" ref="2813070492" role="stop"/>
		<member type="way" ref="200229908" role=""/>
		<tag k="name" v="IC 17: Leipzig =&#62; / Dresden =&#62; Berlin =&#62; Warnemünde"/>
		<tag k="type" v="route"/>
		<tag k="ref" v="IC 17"/>
		<tag k="service" v="long_distance"/>
		<tag k="from" v="Leipzig"/>
		<tag k="public_transport:version" v="2"/>
		<tag k="to" v="Warnemünde"/>
		<tag k="route" v="train"/>
	</relation>
	<relation id="6357668">
		<member type="way" ref="202719939" role="platform"/>
		<member type="node" ref="3856100097" role="stop"/>
		<member type="way" ref="406935575" role=""/>
		<member type="way" ref="240526027" role=""/>
		<member type="way" ref="406935576" role=""/>
		<tag k="name" v="IC 17: Warnemünde =&#62; Berlin =&#62; Dresden / =&#62; Leipzig"/>
		<tag k="type" v="route"/>
		<tag k="ref" v="IC 17"/>
		<tag k="service" v="long_distance"/>
		<tag k="from" v="Warnemünde"/>
		<tag k="public_transport:version" v="2"/>
		<tag k="to" v="Leipzig"/>
		<tag k="route" v="train"/>
	</relation>
	<relation id="6498069">
		<member type="way" ref="140478326" role=""/>
		<member type="way" ref="200229910" role=""/>
		<member type="way" ref="202719939" role="platform"/>
		<member type="node" ref="3856100095" role="stop"/>
		<member type="way" ref="271420275" role=""/>
		<member type="way" ref="47385149" role=""/>
		<member type="way" ref="140478324" role=""/>
		<tag k="name" v="IC 32: Aachen =&#62; Berlin"/>
		<tag k="type" v="route"/>
		<tag k="ref" v="IC 32"/>
		<tag k="service" v="long_distance"/>
		<tag k="from" v="Aachen"/>
		<tag k="public_transport:version" v="2"/>
		<tag k="to" v="Berlin"/>
		<tag k="route" v="train"/>
	</relation>
	<relation id="6498070">
		<member type="way" ref="207993047" role=""/>
		<member type="way" ref="459344273" role=""/>
		<member type="node" ref="3856100101" role="stop"/>
		<member type="way" ref="202719944" role="platform"/>
		<member type="way" ref="200229908" role=""/>
		<tag k="name" v="IC 32: Berlin =&#62; Aachen"/>
		<tag k="type" v="route"/>
		<tag k="ref" v="IC 32"/>
		<tag k="service" v="long_distance"/>
		<tag k="from" v="Berlin"/>
		<tag k="public_transport:version" v="2"/>
		<tag k="to" v="Aachen"/>
		<tag k="route" v="train"/>
	</relation>
	<relation id="6593330">
		<member type="way" ref="85258724" role=""/>
		<member type="node" ref="2813070483" role="stop"/>
		<member type="way" ref="643739266" role=""/>
		<tag k="name" v="RB21: Berlin Friedrichstraße =&#62; Wustermark"/>
		<tag k="colour" v="#4D66FF"/>
		<tag k="type" v="route"/>
		<tag k="ref" v="RB21"/>
		<tag k="service" v="regional"/>
		<tag k="from" v="Berlin Friedrichstraße"/>
		<tag k="public_transport:version" v="2"/>
		<tag k="to" v="Wustermark"/>
		<tag k="route" v="train"/>
	</relation>
	<relation id="6593454">
		<member type="way" ref="85258724" role=""/>
		<member type="node" ref="2813070483" role="stop"/>
		<member type="way" ref="643739266" role=""/>
		<tag k="name" v="RB22: Berlin Friedrichstraße =&#62; Königs Wusterhausen"/>
		<tag k="colour" v="#4D66FF"/>
		<tag k="type" v="route"/>
		<tag k="ref" v="RB22"/>
		<tag k="service" v="regional"/>
		<tag k="from" v="Berlin Friedrichstraße"/>
		<tag k="public_transport:version" v="2"/>
		<tag k="to" v="Königs Wusterhausen"/>
		<tag k="route" v="train"/>
	</relation>
	<relation id="6593455">
		<member type="node" ref="2813070482" role="stop"/>
		<member type="way" ref="85258723" role=""/>
		<tag k="name" v="RB22: Königs Wusterhausen =&#62; Berlin Friedrichstraße"/>
		<tag k="colour" v="#4D66FF"/>
		<tag k="type" v="route"/>
		<tag k="ref" v="RB22"/>
		<tag k="service" v="regional"/>
		<tag k="from" v="Königs Wusterhausen"/>
		<tag k="public_transport:version" v="2"/>
		<tag k="to" v="Berlin Friedrichstraße"/>
		<tag k="route" v="train"/>
	</relation>
	<relation id="6809883">
		<member type="way" ref="367465755" role="outer"/>
		<member type="way" ref="429261369" role="inner"/>
		<tag k="public_transport" v="platform"/>
		<tag k="railway" v="platform"/>
		<tag k="name" v="S+U Hauptbahnhof"/>
		<tag k="type" v="multipolygon"/>
		<tag k="ref" v="5"/>
		<tag k="tactile_paving" v="yes"/>
		<tag k="passenger_information_display" v="yes"/>
		<tag k="bin" v="yes"/>
		<tag k="bench" v="yes"/>
		<tag k="tram" v="yes"/>
	</relation>
	<relation id="6809884">
		<member type="way" ref="367465756" role="outer"/>
		<member type="way" ref="429261370" role="inner"/>
		<tag k="public_transport" v="platform"/>
		<tag k="railway" v="platform"/>
		<tag k="name" v="S+U Hauptbahnhof"/>
		<tag k="type" v="multipolygon"/>
		<tag k="ref" v="4"/>
		<tag k="tactile_paving" v="yes"/>
		<tag k="passenger_information_display" v="yes"/>
		<tag k="bin" v="yes"/>
		<tag k="bench" v="yes"/>
		<tag k="tram" v="yes"/>
	</relation>
	<relation id="6924341">
		<member type="way" ref="240526035" role=""/>
		<member type="way" ref="4440336" role=""/>
		<member type="node" ref="3856100099" role="stop"/>
		<member type="way" ref="202719942" role="platform"/>
		<member type="way" ref="357555812" role=""/>
		<tag k="name" v="RB10: Berlin Südkreuz =&#62; Nauen"/>
		<tag k="colour" v="#59FF00"/>
		<tag k="type" v="route"/>
		<tag k="ref" v="RB10"/>
		<tag k="service" v="regional"/>
		<tag k="from" v="Berlin Südkreuz"/>
		<tag k="public_transport:version" v="2"/>
		<tag k="to" v="Nauen"/>
		<tag k="route" v="train"/>
	</relation>
	<relation id="7363930">
		<member type="way" ref="240526035" role=""/>
		<member type="way" ref="4440336" role=""/>
		<member type="node" ref="2813070491" role="stop"/>
		<member type="way" ref="357555812" role=""/>
		<tag k="name" v="EN 452 : Moscou =&#62; Berlin =&#62; Paris"/>
		<tag k="type" v="route"/>
		<tag k="ref" v="EN 452"/>
		<tag k="service" v="international"/>
		<tag k="from" v="Moskva Belorusskaja"/>
		<tag k="public_transport:version" v="2"/>
		<tag k="to" v="Paris - Gare de l&#39;Est"/>
		<tag k="route" v="train"/>
		<tag k="by_night" v="yes"/>
		<tag k="to:ru" v="Париж"/>
		<tag k="dining" v="yes"/>
		<tag k="reservation" v="yes"/>
		<tag k="sleeping" v="yes"/>
		<tag k="from:ru" v="Москва-Пассажирская-Смоленская"/>
	</relation>
	<relation id="7796142">
		<member type="way" ref="140478326" role=""/>
		<member type="way" ref="200229910" role=""/>
		<member type="way" ref="202719939" role="platform"/>
		<member type="node" ref="2813070487" role="stop"/>
		<member type="way" ref="271420275" role=""/>
		<member type="way" ref="47385149" role=""/>
		<member type="way" ref="140478324" role=""/>
		<tag k="name" v="ICE 29: Berlin =&#62; Erfurt =&#62; München"/>
		<tag k="type" v="route"/>
		<tag k="ref" v="ICE 29"/>
		<tag k="service" v="high_speed"/>
		<tag k="from" v="Berlin Gesundbrunnen"/>
		<tag k="public_transport:version" v="2"/>
		<tag k="to" v="München Hbf"/>
		<tag k="route" v="train"/>
		<tag k="alt_name" v="ICE-Sprinter VDE8"/>
	</relation>
	<relation id="7796226">
		<member type="way" ref="240526033" role=""/>
		<member type="way" ref="459344273" role=""/>
		<member type="node" ref="3856100101" role="stop"/>
		<member type="way" ref="202719944" role="platform"/>
		<member type="way" ref="200229908" role=""/>
		<tag k="name" v="ICE 29: München =&#62; Erfurt =&#62; Berlin"/>
		<tag k="type" v="route"/>
		<tag k="ref" v="ICE 29"/>
		<tag k="service" v="high_speed"/>
		<tag k="from" v="München Hbf"/>
		<tag k="public_transport:version" v="2"/>
		<tag k="to" v="Berlin Gesundbrunnen"/>
		<tag k="route" v="train"/>
		<tag k="alt_name" v="ICE-Sprinter VDE8"/>
	</relation>
	<relation id="7796960">
		<member type="way" ref="207993047" role=""/>
		<member type="way" ref="459344273" role=""/>
		<member type="node" ref="3856100101" role="stop"/>
		<member type="way" ref="202719944" role="platform"/>
		<member type="way" ref="200229908" role=""/>
		<tag k="name" v="ICE 18: München =&#62; Berlin =&#62; Hamburg Hbf"/>
		<tag k="type" v="route"/>
		<tag k="ref" v="ICE 18"/>
		<tag k="service" v="high_speed"/>
		<tag k="from" v="München Hbf"/>
		<tag k="public_transport:version" v="2"/>
		<tag k="to" v="Hamburg Hbf"/>
		<tag k="route" v="train"/>
	</relation>
	<relation id="7796961">
		<member type="way" ref="140478326" role=""/>
		<member type="way" ref="200229910" role=""/>
		<member type="way" ref="202719939" role="platform"/>
		<member type="node" ref="2813070487" role="stop"/>
		<member type="way" ref="271420275" role=""/>
		<member type="way" ref="47385149" role=""/>
		<member type="way" ref="140478324" role=""/>
		<tag k="name" v="ICE 18: Hamburg =&#62; Berlin =&#62; München"/>
		<tag k="type" v="route"/>
		<tag k="ref" v="ICE 18"/>
		<tag k="service" v="long_distance"/>
		<tag k="from" v="Hamburg Hbf"/>
		<tag k="public_transport:version" v="2"/>
		<tag k="to" v="München Hbf"/>
		<tag k="route" v="train"/>
	</relation>
	<relation id="7797053">
		<member type="way" ref="85258722" role=""/>
		<member type="node" ref="2813070481" role="stop"/>
		<member type="way" ref="643739286" role=""/>
		<tag k="name" v="ICE 13: Frankfurt =&#62; Berlin"/>
		<tag k="type" v="route"/>
		<tag k="ref" v="ICE 13"/>
		<tag k="service" v="high_speed"/>
		<tag k="from" v="Frankfurt (Main) Flughafen"/>
		<tag k="public_transport:version" v="2"/>
		<tag k="to" v="Berlin Ostbahnhof"/>
		<tag k="route" v="train"/>
		<tag k="alt_name" v="ICE13 Berlin"/>
	</relation>
	<relation id="7797054">
		<member type="way" ref="85258724" role=""/>
		<member type="node" ref="2813070483" role="stop"/>
		<member type="way" ref="643739266" role=""/>
		<tag k="name" v="ICE 13: Berlin =&#62; Frankfurt"/>
		<tag k="type" v="route"/>
		<tag k="ref" v="ICE 13"/>
		<tag k="service" v="high_speed"/>
		<tag k="from" v="Berlin Ostbahnhof"/>
		<tag k="public_transport:version" v="2"/>
		<tag k="to" v="Frankfurt (Main) Flughafen"/>
		<tag k="route" v="train"/>
		<tag k="alt_name" v="ICE13 Frankfurt(M)"/>
	</relation>
	<relation id="8865697">
		<member type="node" ref="3856100096" role="stop"/>
		<member type="way" ref="200229909" role=""/>
		<member type="way" ref="421230282" role=""/>
		<member type="way" ref="240526028" role=""/>
		<tag k="name" v="EC 379: Kiel =&#62; Praha"/>
		<tag k="type" v="route"/>
		<tag k="ref" v="EC 379"/>
		<tag k="service" v="long_distance"/>
		<tag k="from" v="Kiel Hbf"/>
		<tag k="public_transport:version" v="2"/>
		<tag k="to" v="Praha hlavní nádraží"/>
		<tag k="route" v="train"/>
	</relation>
	<relation id="8885541">
		<member type="way" ref="240526030" role=""/>
		<member type="way" ref="240526032" role=""/>
		<member type="node" ref="3856100102" role="stop"/>
		<member type="way" ref="191591510" role=""/>
		<tag k="name" v="EC 378: Praha - Kiel"/>
		<tag k="type" v="route"/>
		<tag k="ref" v="EC 378"/>
		<tag k="service" v="long_distance"/>
		<tag k="from" v="Praha hlavní nádraží"/>
		<tag k="public_transport:version" v="2"/>
		<tag k="to" v="Kiel Hbf"/>
		<tag k="route" v="train"/>
	</relation>
	<relation id="8922805">
		<member type="node" ref="2813070483" role="stop"/>
		<member type="way" ref="643739266" role=""/>
		<tag k="name" v="EC 54: Gdynia =&#62; Berlin"/>
		<tag k="type" v="route"/>
		<tag k="ref" v="EC 54"/>
		<tag k="service" v="international"/>
		<tag k="from" v="Gdynia Główna"/>
		<tag k="public_transport:version" v="2"/>
		<tag k="to" v="Berlin Hauptbahnhof"/>
		<tag k="route" v="train"/>
	</relation>
	<relation id="8922806">
		<member type="node" ref="2813070481" role="stop"/>
		<member type="way" ref="643739286" role=""/>
		<tag k="name" v="EC 55: Berlin =&#62; Gdynia"/>
		<tag k="type" v="route"/>
		<tag k="ref" v="EC 55"/>
		<tag k="service" v="international"/>
		<tag k="from" v="Berlin Hauptbahnhof"/>
		<tag k="public_transport:version" v="2"/>
		<tag k="to" v="Gdynia Główna"/>
		<tag k="route" v="train"/>
	</relation>
	<relation id="9611828">
		<member type="way" ref="421230285" role=""/>
		<member type="way" ref="739812070" role=""/>
		<member type="way" ref="202719942" role="platform"/>
		<member type="node" ref="3856100100" role="stop"/>
		<member type="way" ref="191591511" role=""/>
		<tag k="name" v="FLX 30: Berlin =&#62; Hannover =&#62; Köln"/>
		<tag k="colour" v="green"/>
		<tag k="type" v="route"/>
		<tag k="ref" v="FLX 30"/>
		<tag k="service" v="long_distance"/>
		<tag k="from" v="Berlin"/>
		<tag k="public_transport:version" v="2"/>
		<tag k="to" v="Köln"/>
		<tag k="route" v="train"/>
	</relation>
	<relation id="9626408">
		<member type="way" ref="191589508" role=""/>
		<member type="way" ref="202719939" role="platform"/>
		<member type="node" ref="3856100097" role="stop"/>
		<member type="way" ref="406935575" role=""/>
		<member type="way" ref="240526027" role=""/>
		<tag k="name" v="FLX 30: Köln =&#62; Hannover =&#62; Berlin"/>
		<tag k="colour" v="green"/>
		<tag k="type" v="route"/>
		<tag k="ref" v="FLX 30"/>
		<tag k="service" v="long_distance"/>
		<tag k="from" v="Köln"/>
		<tag k="public_transport:version" v="2"/>
		<tag k="to" v="Berlin"/>
		<tag k="route" v="train"/>
	</relation>
	<relation id="10413415">
		<member type="way" ref="4440336" role=""/>
		<member type="way" ref="202719942" role="platform"/>
		<member type="node" ref="2813070491" role="stop"/>
		<member type="way" ref="357555812" role=""/>
		<tag k="name" v="FLX 10 Stuttgart =&#62; Erfurt =&#62; Berlin"/>
		<tag k="type" v="route"/>
		<tag k="ref" v="FLX 10"/>
		<tag k="from" v="Suttgart Hbf"/>
		<tag k="public_transport:version" v="2"/>
		<tag k="to" v="Berlin Hbf"/>
		<tag k="route" v="train"/>
	</relation>
	<relation id="10419142">
		<member type="way" ref="140478326" role=""/>
		<member type="way" ref="200229910" role=""/>
		<member type="way" ref="202719939" role="platform"/>
		<member type="node" ref="2813070487" role="stop"/>
		<member type="way" ref="271420275" role=""/>
		<member type="way" ref="140478324" role=""/>
		<tag k="name" v="FLX 10: Berlin =&#62; Erfurt =&#62; Stuttgart"/>
		<tag k="colour" v="green"/>
		<tag k="type" v="route"/>
		<tag k="ref" v="FLX 10"/>
		<tag k="brand" v="FlixTrain"/>
		<tag k="service" v="long_distance"/>
		<tag k="from" v="Berlin hbf"/>
		<tag k="public_transport:version" v="2"/>
		<tag k="to" v="Stuttgart Hbf"/>
		<tag k="route" v="train"/>
	</relation>
	<relation id="10757934">
		<member type="way" ref="85258722" role=""/>
		<member type="node" ref="2813070481" role="stop"/>
		<member type="way" ref="643739286" role=""/>
		<tag k="name" v="NJ 457: Berlin =&#62; Wien"/>
		<tag k="type" v="route"/>
		<tag k="ref" v="NJ 457"/>
		<tag k="brand" v="ÖBB nightjet"/>
		<tag k="service" v="night"/>
		<tag k="from" v="Berlin-Charlottenburg"/>
		<tag k="public_transport:version" v="2"/>
		<tag k="to" v="Wien Hauptbahnhof"/>
		<tag k="route" v="train"/>
	</relation>
	<relation id="10830177">
		<member type="way" ref="85258724" role=""/>
		<member type="node" ref="2813070483" role="stop"/>
		<member type="way" ref="643739266" role=""/>
		<tag k="name" v="NJ 456: Wien =&#62; Berlin"/>
		<tag k="type" v="route"/>
		<tag k="ref" v="NJ 456"/>
		<tag k="brand" v="ÖBB nightjet"/>
		<tag k="service" v="night"/>
		<tag k="from" v="Wien Hauptbahnhof"/>
		<tag k="public_transport:version" v="2"/>
		<tag k="to" v="Berlin-Charlottenburg"/>
		<tag k="route" v="train"/>
	</relation>
</osm>
