<?xml version='1.0' encoding='UTF-8'?>
<!--
 SPDX-FileCopyrightText: OpenStreetMap contributors
 SPDX-License-Identifier: ODbL-1.0
-->
<osm version="0.6" generator="osmfilter 1.4.4">
	<bounds minlat="53.5500993" minlon="9.9316406" maxlat="53.5582575" maxlon="9.9398804"/>
	<node id="26600603" lat="53.5530558" lon="9.9345005"/>
	<node id="26600604" lat="53.5553795" lon="9.9344544">
		<tag k="ref" v="741"/>
	</node>
	<node id="31167162" lat="53.5525635" lon="9.9348758">
		<tag k="railway" v="car_shuttle"/>
	</node>
	<node id="31167170" lat="53.5564703" lon="9.9350073">
		<tag k="ref" v="16"/>
	</node>
	<node id="50792016" lat="53.5527782" lon="9.9356204">
		<tag k="railway" v="buffer_stop"/>
	</node>
	<node id="50792021" lat="53.555291" lon="9.9357318">
		<tag k="ref" v="5"/>
	</node>
	<node id="50792022" lat="53.5568721" lon="9.9357341">
		<tag k="ref" v="21"/>
	</node>
	<node id="52643696" lat="53.5560414" lon="9.9353526">
		<tag k="ref" v="8"/>
	</node>
	<node id="52643938" lat="53.5525571" lon="9.9354462">
		<tag k="railway" v="car_shuttle"/>
	</node>
	<node id="52643939" lat="53.5563852" lon="9.9356121">
		<tag k="ref" v="11"/>
	</node>
	<node id="52648958" lat="53.5574624" lon="9.9344862"/>
	<node id="52648960" lat="53.5564907" lon="9.9348748">
		<tag k="ref" v="18"/>
	</node>
	<node id="52648964" lat="53.5525555" lon="9.9346724">
		<tag k="railway" v="buffer_stop"/>
	</node>
	<node id="52649006" lat="53.557664" lon="9.9356751">
		<tag k="ref" v="65"/>
	</node>
	<node id="52649183" lat="53.5573968" lon="9.9354241"/>
	<node id="52649185" lat="53.5568545" lon="9.9356422">
		<tag k="ref" v="22"/>
	</node>
	<node id="52649220" lat="53.5570045" lon="9.9354109"/>
	<node id="52649221" lat="53.5572615" lon="9.9350377">
		<tag k="ref" v="27"/>
	</node>
	<node id="52649223" lat="53.5576349" lon="9.9347937">
		<tag k="ref" v="30"/>
	</node>
	<node id="52701749" lat="53.5559912" lon="9.934184"/>
	<node id="52702813" lat="53.5571513" lon="9.9337481"/>
	<node id="52702815" lat="53.5554054" lon="9.9345266">
		<tag k="ref" v="251"/>
	</node>
	<node id="206180776" lat="53.5553254" lon="9.9347428">
		<tag k="ref" v="736"/>
	</node>
	<node id="206180777" lat="53.5530528" lon="9.9346475"/>
	<node id="249420043" lat="53.5554752" lon="9.9344238"/>
	<node id="282330113" lat="53.5530501" lon="9.9357756"/>
	<node id="300809500" lat="53.5518599" lon="9.934627">
		<tag k="name" v="Hamburg-Altona"/>
		<tag k="railway" v="stop"/>
		<tag k="light_rail" v="yes"/>
		<tag k="public_transport" v="stop_position"/>
		<tag k="short_name" v="Altona"/>
		<tag k="train" v="yes"/>
	</node>
	<node id="300809530" lat="53.5518777" lon="9.9349361">
		<tag k="name" v="Hamburg-Altona"/>
		<tag k="railway" v="stop"/>
		<tag k="light_rail" v="yes"/>
		<tag k="public_transport" v="stop_position"/>
		<tag k="short_name" v="Altona"/>
		<tag k="train" v="yes"/>
	</node>
	<node id="300810293" lat="53.5511172" lon="9.9348679"/>
	<node id="300810299" lat="53.5510427" lon="9.9350943"/>
	<node id="344364268" lat="53.551769" lon="9.9355258">
		<tag k="name" v="Altona"/>
		<tag k="level" v="-1"/>
	</node>
	<node id="344364273" lat="53.5520991" lon="9.9339029"/>
	<node id="347513371" lat="53.551459" lon="9.9353818">
		<tag k="name" v="Altona"/>
	</node>
	<node id="535951138" lat="53.5518544" lon="9.9343956">
		<tag k="name" v="Hamburg-Altona"/>
		<tag k="railway" v="stop"/>
		<tag k="light_rail" v="yes"/>
		<tag k="public_transport" v="stop_position"/>
		<tag k="short_name" v="Altona"/>
		<tag k="train" v="yes"/>
	</node>
	<node id="535951140" lat="53.5518678" lon="9.934685">
		<tag k="name" v="Hamburg-Altona"/>
		<tag k="railway" v="stop"/>
		<tag k="light_rail" v="yes"/>
		<tag k="public_transport" v="stop_position"/>
		<tag k="short_name" v="Altona"/>
		<tag k="train" v="yes"/>
	</node>
	<node id="535951143" lat="53.5511228" lon="9.934928"/>
	<node id="535951145" lat="53.5530541" lon="9.9344258"/>
	<node id="535951147" lat="53.5530546" lon="9.934565"/>
	<node id="535951148" lat="53.5549789" lon="9.9345873"/>
	<node id="535951150" lat="53.5554541" lon="9.9346768"/>
	<node id="535951154" lat="53.5569625" lon="9.9341499"/>
	<node id="535951158" lat="53.5575411" lon="9.9339403"/>
	<node id="535951160" lat="53.5567705" lon="9.9343359"/>
	<node id="535951162" lat="53.5575221" lon="9.9338855"/>
	<node id="535951164" lat="53.5568792" lon="9.9338075"/>
	<node id="535951166" lat="53.5575007" lon="9.9337971"/>
	<node id="535951167" lat="53.5572229" lon="9.9340873">
		<tag k="ref" v="757"/>
	</node>
	<node id="535951176" lat="53.5569349" lon="9.9337774"/>
	<node id="535951187" lat="53.55563" lon="9.9346695"/>
	<node id="535951189" lat="53.555894" lon="9.9346975"/>
	<node id="535951191" lat="53.5557833" lon="9.9346544">
		<tag k="ref" v="752"/>
	</node>
	<node id="535951193" lat="53.5567674" lon="9.9343737"/>
	<node id="535951197" lat="53.5566054" lon="9.9344082"/>
	<node id="535951198" lat="53.5562659" lon="9.9345397"/>
	<node id="535951199" lat="53.5562016" lon="9.934619"/>
	<node id="535951200" lat="53.5562603" lon="9.9345107"/>
	<node id="535982109" lat="53.5511396" lon="9.9348373"/>
	<node id="535982110" lat="53.5511559" lon="9.9349414"/>
	<node id="535982119" lat="53.5524622" lon="9.9344327"/>
	<node id="535982120" lat="53.5524774" lon="9.9345388"/>
	<node id="536400522" lat="53.5551626" lon="9.9345738"/>
	<node id="536400523" lat="53.5550024" lon="9.9346583"/>
	<node id="536400525" lat="53.5554549" lon="9.9347433">
		<tag k="ref" v="740"/>
	</node>
	<node id="536400532" lat="53.5571759" lon="9.9338104"/>
	<node id="536400533" lat="53.5572845" lon="9.9342044"/>
	<node id="536400534" lat="53.5572969" lon="9.9342667"/>
	<node id="536400535" lat="53.5571776" lon="9.9340118"/>
	<node id="536400539" lat="53.5573241" lon="9.9338073">
		<tag k="railway" v="buffer_stop"/>
	</node>
	<node id="536400542" lat="53.5575272" lon="9.9343379"/>
	<node id="536400544" lat="53.5576534" lon="9.934014">
		<tag k="railway" v="buffer_stop"/>
	</node>
	<node id="536400545" lat="53.5574312" lon="9.9342514">
		<tag k="railway" v="buffer_stop"/>
	</node>
	<node id="536400553" lat="53.5576009" lon="9.9339785"/>
	<node id="536400555" lat="53.5560125" lon="9.9344554"/>
	<node id="536400556" lat="53.5558738" lon="9.9344425"/>
	<node id="536400558" lat="53.5557329" lon="9.934758">
		<tag k="ref" v="744"/>
	</node>
	<node id="536400559" lat="53.5557042" lon="9.9345131"/>
	<node id="536400561" lat="53.5563057" lon="9.9343381"/>
	<node id="536400563" lat="53.5560662" lon="9.9347332"/>
	<node id="536400565" lat="53.5561521" lon="9.934774">
		<tag k="ref" v="745"/>
	</node>
	<node id="536400566" lat="53.556365" lon="9.9347868"/>
	<node id="536400568" lat="53.5563624" lon="9.9347454"/>
	<node id="536400570" lat="53.5563817" lon="9.9346872"/>
	<node id="536400571" lat="53.5563362" lon="9.9346422"/>
	<node id="536400572" lat="53.5562307" lon="9.9347141"/>
	<node id="536400573" lat="53.5564132" lon="9.9347468">
		<tag k="ref" v="746"/>
	</node>
	<node id="536400574" lat="53.5566791" lon="9.9347841"/>
	<node id="536400576" lat="53.5568739" lon="9.9347413"/>
	<node id="536400577" lat="53.5568319" lon="9.9344532"/>
	<node id="536400579" lat="53.5568515" lon="9.9346779"/>
	<node id="536400580" lat="53.5566768" lon="9.9347169"/>
	<node id="536400582" lat="53.5567309" lon="9.9345735"/>
	<node id="536400584" lat="53.5566764" lon="9.9346675"/>
	<node id="536400586" lat="53.5570775" lon="9.9346525"/>
	<node id="536400587" lat="53.5573097" lon="9.9345162"/>
	<node id="536400588" lat="53.5574144" lon="9.9343571"/>
	<node id="536400589" lat="53.5570527" lon="9.9345956"/>
	<node id="536705546" lat="53.5559673" lon="9.9357211"/>
	<node id="536705548" lat="53.5564538" lon="9.9351502"/>
	<node id="536705550" lat="53.5566112" lon="9.9349492"/>
	<node id="536705552" lat="53.5524785" lon="9.9347063"/>
	<node id="536705554" lat="53.5564696" lon="9.9355074"/>
	<node id="651980431" lat="53.5565369" lon="9.936046"/>
	<node id="651980432" lat="53.5565383" lon="9.9358686"/>
	<node id="651980433" lat="53.5567766" lon="9.9358737"/>
	<node id="651980434" lat="53.5567759" lon="9.9359621"/>
	<node id="656184167" lat="53.5567503" lon="9.9360506"/>
	<node id="656590415" lat="53.5525537" lon="9.9352071">
		<tag k="railway" v="buffer_stop"/>
	</node>
	<node id="702367660" lat="53.5563903" lon="9.9338359"/>
	<node id="702367661" lat="53.5564054" lon="9.9339295"/>
	<node id="702367662" lat="53.5561128" lon="9.9341015"/>
	<node id="702367663" lat="53.5560914" lon="9.9339635"/>
	<node id="747674116" lat="53.5541879" lon="9.9346925">
		<tag k="ref" v="730"/>
	</node>
	<node id="747674117" lat="53.5535556" lon="9.934594">
		<tag k="ref" v="727"/>
	</node>
	<node id="747674118" lat="53.5543234" lon="9.9345612">
		<tag k="ref" v="731"/>
	</node>
	<node id="747674119" lat="53.5547756" lon="9.9346503">
		<tag k="ref" v="733"/>
	</node>
	<node id="747674121" lat="53.5545902" lon="9.9345732">
		<tag k="ref" v="732"/>
	</node>
	<node id="747674123" lat="53.5541956" lon="9.9345557">
		<tag k="ref" v="728"/>
	</node>
	<node id="747674124" lat="53.5535655" lon="9.9344586">
		<tag k="ref" v="725"/>
	</node>
	<node id="747674125" lat="53.5541908" lon="9.9346244">
		<tag k="ref" v="729"/>
	</node>
	<node id="747674126" lat="53.55356" lon="9.9345229">
		<tag k="ref" v="726"/>
	</node>
	<node id="890071055" lat="53.5576462" lon="9.9349431">
		<tag k="ref" v="70"/>
	</node>
	<node id="890074746" lat="53.5576167" lon="9.9348413">
		<tag k="ref" v="29"/>
	</node>
	<node id="890082686" lat="53.5568766" lon="9.9352576">
		<tag k="ref" v="25"/>
	</node>
	<node id="890434036" lat="53.5573299" lon="9.9345889">
		<tag k="ref" v="34"/>
	</node>
	<node id="890434420" lat="53.5574099" lon="9.9346258">
		<tag k="ref" v="33"/>
	</node>
	<node id="890437110" lat="53.556851" lon="9.9349452"/>
	<node id="890437541" lat="53.5525624" lon="9.9349385">
		<tag k="railway" v="car_shuttle"/>
	</node>
	<node id="890438438" lat="53.5561959" lon="9.9350225">
		<tag k="ref" v="15"/>
	</node>
	<node id="890438461" lat="53.5556156" lon="9.9350669">
		<tag k="ref" v="7"/>
	</node>
	<node id="890438505" lat="53.5555537" lon="9.9350674">
		<tag k="ref" v="6"/>
	</node>
	<node id="890438546" lat="53.5550361" lon="9.9349793">
		<tag k="ref" v="2"/>
	</node>
	<node id="890439784" lat="53.5525589" lon="9.9351443">
		<tag k="railway" v="buffer_stop"/>
	</node>
	<node id="890440541" lat="53.5564421" lon="9.935212">
		<tag k="ref" v="13"/>
	</node>
	<node id="890440628" lat="53.556349" lon="9.9351109">
		<tag k="ref" v="14"/>
	</node>
	<node id="890440629" lat="53.557262" lon="9.9348287">
		<tag k="ref" v="31"/>
	</node>
	<node id="890441020" lat="53.5570557" lon="9.935103">
		<tag k="ref" v="26"/>
	</node>
	<node id="890463535" lat="53.5562077" lon="9.9357209">
		<tag k="ref" v="10"/>
	</node>
	<node id="890464448" lat="53.5525558" lon="9.9353848">
		<tag k="railway" v="car_shuttle"/>
	</node>
	<node id="890464449" lat="53.5568364" lon="9.9355466">
		<tag k="ref" v="23"/>
	</node>
	<node id="890464586" lat="53.5560192" lon="9.9355296">
		<tag k="ref" v="9"/>
		<tag k="railway:turnout_side" v="right"/>
	</node>
	<node id="890464855" lat="53.5573781" lon="9.9356619">
		<tag k="ref" v="61"/>
	</node>
	<node id="890465093" lat="53.5573593" lon="9.9355721">
		<tag k="ref" v="62"/>
	</node>
	<node id="890465378" lat="53.5571964" lon="9.9357431">
		<tag k="ref" v="60"/>
	</node>
	<node id="890466399" lat="53.5569723" lon="9.9348326">
		<tag k="railway" v="railway_crossing"/>
		<tag k="ref" v="Kr 202"/>
	</node>
	<node id="890466537" lat="53.5571015" lon="9.9347266"/>
	<node id="890470459" lat="53.5547183" lon="9.9357914"/>
	<node id="890470462" lat="53.5542343" lon="9.9357989">
		<tag k="railway" v="buffer_stop"/>
	</node>
	<node id="890475181" lat="53.5562227" lon="9.9352394">
		<tag k="ref" v="12"/>
	</node>
	<node id="890475329" lat="53.5553871" lon="9.9353405">
		<tag k="ref" v="4"/>
	</node>
	<node id="890475429" lat="53.5544849" lon="9.9352236">
		<tag k="ref" v="1"/>
	</node>
	<node id="890475510" lat="53.5551785" lon="9.9353416">
		<tag k="ref" v="3"/>
	</node>
	<node id="890483904" lat="53.5576386" lon="9.9355895">
		<tag k="ref" v="64"/>
	</node>
	<node id="890768054" lat="53.5564581" lon="9.9353074">
		<tag k="ref" v="19"/>
	</node>
	<node id="890768194" lat="53.5562107" lon="9.9352978">
		<tag k="railway" v="buffer_stop"/>
	</node>
	<node id="890807582" lat="53.5575234" lon="9.9355473">
		<tag k="ref" v="63"/>
	</node>
	<node id="890819867" lat="53.55745" lon="9.9352662">
		<tag k="ref" v="68"/>
	</node>
	<node id="1144110314" lat="53.5559504" lon="9.9357537"/>
	<node id="1144110329" lat="53.5575125" lon="9.9350553"/>
	<node id="1144110410" lat="53.5567322" lon="9.9350772">
		<tag k="ref" v="R7"/>
	</node>
	<node id="1144110451" lat="53.5569381" lon="9.9350571"/>
	<node id="1144110486" lat="53.5573207" lon="9.9353572"/>
	<node id="1144110530" lat="53.5570222" lon="9.9353283">
		<tag k="ref" v="24"/>
	</node>
	<node id="1144110532" lat="53.5567684" lon="9.9352932"/>
	<node id="1236211789" lat="53.5511684" lon="9.9350499"/>
	<node id="1236211791" lat="53.5524442" lon="9.9343135"/>
	<node id="1236211793" lat="53.5524991" lon="9.9346472"/>
	<node id="1236211795" lat="53.5511223" lon="9.9347088"/>
	<node id="1238568574" lat="53.5565731" lon="9.9353815">
		<tag k="ref" v="20"/>
	</node>
	<node id="1240250288" lat="53.5573833" lon="9.9347351">
		<tag k="ref" v="32"/>
	</node>
	<node id="1240250302" lat="53.5570316" lon="9.9348702"/>
	<node id="1240250327" lat="53.5567898" lon="9.935183"/>
	<node id="1240250357" lat="53.5570734" lon="9.9349475"/>
	<node id="1240250359" lat="53.5572034" lon="9.9347753"/>
	<node id="1240250368" lat="53.5576053" lon="9.9343547"/>
	<node id="1240250405" lat="53.5568483" lon="9.9348968"/>
	<node id="1240250414" lat="53.5572048" lon="9.9347399"/>
	<node id="1240250431" lat="53.5570745" lon="9.9349774"/>
	<node id="1240250433" lat="53.5575152" lon="9.9349672"/>
	<node id="1240250436" lat="53.5567477" lon="9.9351447">
		<tag k="railway" v="railway_crossing"/>
		<tag k="ref" v="Kr 201"/>
	</node>
	<node id="1240254600" lat="53.5563628" lon="9.9345652">
		<tag k="ref" v="755"/>
	</node>
	<node id="1240254603" lat="53.5571258" lon="9.9342113"/>
	<node id="1240260149" lat="53.5543252" lon="9.9352883">
		<tag k="ref" v="92 I"/>
	</node>
	<node id="1412830022" lat="53.5515389" lon="9.9341457">
		<tag k="name" v="Bf. Altona"/>
		<tag k="public_transport" v="stop_position"/>
		<tag k="bus" v="yes"/>
	</node>
	<node id="1454704284" lat="53.5515475" lon="9.9335794">
		<tag k="name" v="Bf. Altona"/>
		<tag k="public_transport" v="stop_position"/>
		<tag k="bus" v="yes"/>
	</node>
	<node id="1577952127" lat="53.5562254" lon="9.9340137"/>
	<node id="1577952128" lat="53.5563996" lon="9.9338977"/>
	<node id="1577952129" lat="53.5562304" lon="9.9340472"/>
	<node id="1686600807" lat="53.5530698" lon="9.9354715">
		<tag k="name" v="Hamburg-Altona"/>
		<tag k="railway" v="stop"/>
		<tag k="ref" v="11"/>
		<tag k="public_transport" v="stop_position"/>
		<tag k="train" v="yes"/>
		<tag k="local_ref" v="11"/>
	</node>
	<node id="1686600808" lat="53.5530712" lon="9.9354096">
		<tag k="name" v="Hamburg-Altona"/>
		<tag k="railway" v="stop"/>
		<tag k="ref" v="10"/>
		<tag k="public_transport" v="stop_position"/>
		<tag k="train" v="yes"/>
		<tag k="local_ref" v="10"/>
	</node>
	<node id="1686600809" lat="53.5530753" lon="9.9352345">
		<tag k="name" v="Hamburg-Altona"/>
		<tag k="railway" v="stop"/>
		<tag k="ref" v="9"/>
		<tag k="public_transport" v="stop_position"/>
		<tag k="train" v="yes"/>
		<tag k="local_ref" v="9"/>
	</node>
	<node id="1686600810" lat="53.5530887" lon="9.9351647">
		<tag k="name" v="Hamburg-Altona"/>
		<tag k="railway" v="stop"/>
		<tag k="ref" v="8"/>
		<tag k="public_transport" v="stop_position"/>
		<tag k="train" v="yes"/>
		<tag k="local_ref" v="8"/>
	</node>
	<node id="1686600811" lat="53.5530818" lon="9.9349648">
		<tag k="name" v="Hamburg-Altona"/>
		<tag k="railway" v="stop"/>
		<tag k="ref" v="7"/>
		<tag k="public_transport" v="stop_position"/>
		<tag k="train" v="yes"/>
		<tag k="local_ref" v="7"/>
	</node>
	<node id="1686600812" lat="53.5530832" lon="9.9348983">
		<tag k="name" v="Hamburg-Altona"/>
		<tag k="railway" v="stop"/>
		<tag k="ref" v="6"/>
		<tag k="public_transport" v="stop_position"/>
		<tag k="train" v="yes"/>
		<tag k="local_ref" v="6"/>
	</node>
	<node id="1686600813" lat="53.5530888" lon="9.934707">
		<tag k="name" v="Hamburg-Altona"/>
		<tag k="railway" v="stop"/>
		<tag k="ref" v="5"/>
		<tag k="public_transport" v="stop_position"/>
		<tag k="train" v="yes"/>
		<tag k="local_ref" v="5"/>
	</node>
	<node id="1686600814" lat="53.5532195" lon="9.9356388">
		<tag k="name" v="Hamburg-Altona"/>
		<tag k="railway" v="stop"/>
		<tag k="ref" v="12"/>
		<tag k="public_transport" v="stop_position"/>
		<tag k="train" v="yes"/>
		<tag k="local_ref" v="12"/>
	</node>
	<node id="1686600816" lat="53.5546735" lon="9.9345091"/>
	<node id="1686600822" lat="53.5550933" lon="9.935211"/>
	<node id="1686600824" lat="53.5554261" lon="9.9353664"/>
	<node id="1686600825" lat="53.5554926" lon="9.9345942"/>
	<node id="1686600827" lat="53.55583" lon="9.9347699">
		<tag k="ref" v="799"/>
	</node>
	<node id="1686600829" lat="53.5563356" lon="9.9356371"/>
	<node id="1686600831" lat="53.5559662" lon="9.9343419"/>
	<node id="1686600832" lat="53.5560929" lon="9.9353896"/>
	<node id="1686600834" lat="53.5564372" lon="9.9348756">
		<tag k="ref" v="17"/>
	</node>
	<node id="1686600841" lat="53.5565238" lon="9.9347918"/>
	<node id="1686600844" lat="53.5565313" lon="9.934652"/>
	<node id="1686600846" lat="53.5566072" lon="9.935002">
		<tag k="ref" v="R6"/>
	</node>
	<node id="1686600847" lat="53.5568214" lon="9.9348638"/>
	<node id="1686600848" lat="53.5567982" lon="9.9348347"/>
	<node id="1686600849" lat="53.5569874" lon="9.9336664"/>
	<node id="1686600850" lat="53.5572894" lon="9.9351042"/>
	<node id="2165225465" lat="53.5536963" lon="9.9357759"/>
	<node id="2165248081" lat="53.5547745" lon="9.9358569"/>
	<node id="2165248082" lat="53.5540181" lon="9.9358287"/>
	<node id="2165248083" lat="53.5542936" lon="9.9358496"/>
	<node id="2165248084" lat="53.5538888" lon="9.9358026"/>
	<node id="2165248085" lat="53.5555228" lon="9.9358006"/>
	<node id="2165248088" lat="53.5564448" lon="9.9357847"/>
	<node id="2165248090" lat="53.5559795" lon="9.9358378"/>
	<node id="2238244035" lat="53.556405" lon="9.9352149">
		<tag k="ref" v="R8"/>
	</node>
	<node id="2238244040" lat="53.5559344" lon="9.9352466"/>
	<node id="2238244042" lat="53.5568558" lon="9.9350405"/>
	<node id="2238244043" lat="53.5559337" lon="9.93528"/>
	<node id="2238302773" lat="53.5575623" lon="9.9353735"/>
	<node id="2238302775" lat="53.5566313" lon="9.9356773">
		<tag k="railway" v="railway_crossing"/>
		<tag k="ref" v="Kr 200"/>
	</node>
	<node id="2238302779" lat="53.557095" lon="9.9356016">
		<tag k="railway" v="railway_crossing"/>
		<tag k="ref" v="Kr 203"/>
	</node>
	<node id="2238302781" lat="53.5575557" lon="9.9354153"/>
	<node id="2961708334" lat="53.5510349" lon="9.9347298"/>
	<node id="2961708346" lat="53.5510918" lon="9.9348749">
		<tag k="ref" v="707"/>
	</node>
	<node id="2961708347" lat="53.5507682" lon="9.9348493">
		<tag k="ref" v="703"/>
	</node>
	<node id="2961708348" lat="53.5510989" lon="9.9349372">
		<tag k="ref" v="708"/>
	</node>
	<node id="2961708349" lat="53.5507784" lon="9.9351141">
		<tag k="ref" v="705"/>
	</node>
	<node id="2961708350" lat="53.5507769" lon="9.9349779">
		<tag k="ref" v="706"/>
	</node>
	<node id="2961708351" lat="53.5504203" lon="9.9349566">
		<tag k="ref" v="702"/>
	</node>
	<node id="2961708352" lat="53.5506455" lon="9.9350374">
		<tag k="ref" v="704"/>
	</node>
	<node id="2961708353" lat="53.5504217" lon="9.9351736">
		<tag k="ref" v="701"/>
	</node>
	<node id="2991308521" lat="53.5537543" lon="9.9356632"/>
	<node id="2991308522" lat="53.5537587" lon="9.9354382"/>
	<node id="2991308523" lat="53.5537591" lon="9.935504"/>
	<node id="2991308524" lat="53.5537624" lon="9.9352634"/>
	<node id="2991308525" lat="53.5537637" lon="9.935193"/>
	<node id="2991308526" lat="53.5537673" lon="9.9349957"/>
	<node id="2991308527" lat="53.5537687" lon="9.9347426"/>
	<node id="2991308528" lat="53.5537698" lon="9.9349247"/>
	<node id="3038826837" lat="53.5539493" lon="9.9344755">
		<tag k="railway" v="milestone"/>
	</node>
	<node id="3038826838" lat="53.5560207" lon="9.9350205">
		<tag k="railway" v="milestone"/>
	</node>
	<node id="3038826839" lat="53.556022" lon="9.9348566">
		<tag k="railway" v="milestone"/>
	</node>
	<node id="3038826840" lat="53.5564492" lon="9.9354349">
		<tag k="ref" v="R9"/>
	</node>
	<node id="3158071952" lat="53.5525135" lon="9.9346695">
		<tag k="ref" v="74"/>
	</node>
	<node id="3158071953" lat="53.5524911" lon="9.9345171">
		<tag k="ref" v="73"/>
	</node>
	<node id="3158071954" lat="53.5524902" lon="9.9344553">
		<tag k="ref" v="72"/>
	</node>
	<node id="3158071955" lat="53.5524834" lon="9.9342954">
		<tag k="ref" v="71"/>
	</node>
	<node id="3183841635" lat="53.5538295" lon="9.9351453">
		<tag k="name" v="Hamburg-Altona"/>
		<tag k="railway" v="station"/>
		<tag k="uic_name" v="Hamburg-Altona"/>
		<tag k="railway:ref" v="AA"/>
		<tag k="railway:station_category" v="1"/>
		<tag k="light_rail" v="yes"/>
		<tag k="hvv:psv_type" v="R"/>
		<tag k="uic_ref" v="8002553"/>
		<tag k="public_transport" v="station"/>
	</node>
	<node id="3319091871" lat="53.5553781" lon="9.9346275"/>
	<node id="3319091873" lat="53.5559032" lon="9.9345543"/>
	<node id="3319091874" lat="53.5560846" lon="9.9345077"/>
	<node id="3319091875" lat="53.5561878" lon="9.9344643"/>
	<node id="3319091876" lat="53.5563606" lon="9.9343839">
		<tag k="railway" v="buffer_stop"/>
	</node>
	<node id="3319091877" lat="53.5560204" lon="9.9343182"/>
	<node id="3319091878" lat="53.5564608" lon="9.9343309"/>
	<node id="3357946758" lat="53.5521527" lon="9.9345653">
		<tag k="name" v="Hamburg-Altona"/>
		<tag k="railway" v="station"/>
		<tag k="uic_name" v="Hamburg-Altona(S)"/>
		<tag k="railway:ref" v="AAS"/>
		<tag k="railway:station_category" v="1"/>
		<tag k="light_rail" v="yes"/>
		<tag k="hvv:psv_type" v="S"/>
		<tag k="uic_ref" v="8098553"/>
		<tag k="public_transport" v="station"/>
		<tag k="short_name" v="Altona"/>
		<tag k="official_name" v="Hamburg-Altona (S-Bahn)"/>
		<tag k="station" v="light_rail"/>
		<tag k="hvv:barrier_free" v="yes"/>
	</node>
	<node id="3365707267" lat="53.5534237" lon="9.9345877">
		<tag k="ref" v="43"/>
	</node>
	<node id="3365707268" lat="53.5534379" lon="9.934516">
		<tag k="ref" v="42"/>
	</node>
	<node id="3365707269" lat="53.5534439" lon="9.934453">
		<tag k="ref" v="41"/>
	</node>
	<node id="3396952647" lat="53.5525932" lon="9.9345151"/>
	<node id="3396952648" lat="53.552892" lon="9.9346434"/>
	<node id="3396952649" lat="53.5525951" lon="9.9344528"/>
	<node id="3396952650" lat="53.5530554" lon="9.9345889"/>
	<node id="3396952651" lat="53.5530544" lon="9.934457"/>
	<node id="3396952652" lat="53.5531141" lon="9.9345073">
		<tag k="ref" v="718"/>
	</node>
	<node id="3396952653" lat="53.5531093" lon="9.9346497">
		<tag k="ref" v="44"/>
	</node>
	<node id="3396952654" lat="53.5533374" lon="9.9345841">
		<tag k="ref" v="719"/>
	</node>
	<node id="3396952655" lat="53.5533881" lon="9.9344506">
		<tag k="ref" v="717"/>
	</node>
	<node id="3396952656" lat="53.5542584" lon="9.9346268">
		<tag k="ref" v="733"/>
	</node>
	<node id="3396952657" lat="53.5542763" lon="9.9345595">
		<tag k="ref" v="731"/>
	</node>
	<node id="3396952658" lat="53.5545945" lon="9.9345045">
		<tag k="ref" v="741"/>
	</node>
	<node id="3396952659" lat="53.5548093" lon="9.9347208">
		<tag k="ref" v="736"/>
	</node>
	<node id="3396952660" lat="53.5557211" lon="9.9345781"/>
	<node id="3396952661" lat="53.5560299" lon="9.9343859"/>
	<node id="3396952662" lat="53.556034" lon="9.9344475"/>
	<node id="3396952663" lat="53.5562772" lon="9.9345353">
		<tag k="ref" v="93"/>
	</node>
	<node id="3396952664" lat="53.5562807" lon="9.9345913">
		<tag k="ref" v="94"/>
	</node>
	<node id="3396952665" lat="53.5564993" lon="9.93458">
		<tag k="ref" v="25"/>
	</node>
	<node id="3396952666" lat="53.5564965" lon="9.9346609">
		<tag k="ref" v="26"/>
	</node>
	<node id="3396952667" lat="53.5567779" lon="9.9347624"/>
	<node id="3396952668" lat="53.5568002" lon="9.9346187"/>
	<node id="3396952669" lat="53.5568028" lon="9.9346928"/>
	<node id="3477282439" lat="53.5511388" lon="9.9349225">
		<tag k="railway" v="milestone"/>
	</node>
	<node id="3477282440" lat="53.5511161" lon="9.9350876">
		<tag k="ref" v="84"/>
	</node>
	<node id="3477282441" lat="53.5511426" lon="9.9348602">
		<tag k="ref" v="82"/>
	</node>
	<node id="3477282442" lat="53.5511531" lon="9.9349178">
		<tag k="ref" v="83"/>
	</node>
	<node id="3477282443" lat="53.551098" lon="9.9346992">
		<tag k="ref" v="81"/>
	</node>
	<node id="3617808877" lat="53.5574179" lon="9.9337565"/>
	<node id="3617808878" lat="53.5575159" lon="9.9341897"/>
	<node id="3639361796" lat="53.5568975" lon="9.9344914"/>
	<node id="3639361798" lat="53.5570635" lon="9.9344857"/>
	<node id="3639361799" lat="53.5561799" lon="9.9352951"/>
	<node id="3639361800" lat="53.5569606" lon="9.935002"/>
	<node id="3639361803" lat="53.5570904" lon="9.9343194"/>
	<node id="3639361806" lat="53.5572226" lon="9.9344996"/>
	<node id="3639424412" lat="53.557572" lon="9.9348677"/>
	<node id="3639424413" lat="53.5574025" lon="9.9349591">
		<tag k="ref" v="28"/>
	</node>
	<node id="3640991791" lat="53.5566938" lon="9.934875">
		<tag k="ref" v="R5"/>
	</node>
	<node id="3640992004" lat="53.5569429" lon="9.934798"/>
	<node id="3640992006" lat="53.5564701" lon="9.9354418"/>
	<node id="3641000721" lat="53.5570774" lon="9.9351752"/>
	<node id="3641079636" lat="53.5558117" lon="9.9353474"/>
	<node id="3641079637" lat="53.5571209" lon="9.9347375"/>
	<node id="3646676591" lat="53.5533362" lon="9.9357531"/>
	<node id="3663269142" lat="53.5557833" lon="9.9342943">
		<tag k="ref" v="21"/>
	</node>
	<node id="3663269143" lat="53.5560958" lon="9.9342143">
		<tag k="ref" v="22"/>
	</node>
	<node id="3695388860" lat="53.5549059" lon="9.9357719">
		<tag k="railway" v="derail"/>
		<tag k="ref" v="Gs 180"/>
		<tag k="railway:derail" v="wedge"/>
	</node>
	<node id="3695388861" lat="53.5561835" lon="9.9357232">
		<tag k="ref" v="R12"/>
	</node>
	<node id="3695388862" lat="53.5564292" lon="9.9356309">
		<tag k="ref" v="R11"/>
	</node>
	<node id="3695388863" lat="53.5564668" lon="9.9355336">
		<tag k="ref" v="R10"/>
	</node>
	<node id="3702655387" lat="53.5553023" lon="9.9358007"/>
	<node id="3702655388" lat="53.5558214" lon="9.935529">
		<tag k="ref" v="100"/>
	</node>
	<node id="3702655389" lat="53.5559687" lon="9.9355843">
		<tag k="ref" v="112"/>
	</node>
	<node id="3702655390" lat="53.5565805" lon="9.9357283">
		<tag k="ref" v="R112"/>
	</node>
	<node id="3702655391" lat="53.5568241" lon="9.9357331"/>
	<node id="3702655392" lat="53.5571775" lon="9.9357981">
		<tag k="railway" v="buffer_stop"/>
	</node>
	<node id="3702655393" lat="53.5573207" lon="9.9358156"/>
	<node id="3705279397" lat="53.5529841" lon="9.9349606">
		<tag k="ref" v="71 II"/>
	</node>
	<node id="3705279398" lat="53.5530525" lon="9.9349637"/>
	<node id="3705279399" lat="53.5543304" lon="9.9350176">
		<tag k="ref" v="72 II"/>
	</node>
	<node id="3705279400" lat="53.5546647" lon="9.9352246"/>
	<node id="3705279401" lat="53.5546701" lon="9.9350315"/>
	<node id="3705279402" lat="53.5547334" lon="9.9353277">
		<tag k="ref" v="93"/>
	</node>
	<node id="3705279403" lat="53.5550164" lon="9.9349783">
		<tag k="ref" v="60"/>
	</node>
	<node id="3705279404" lat="53.5550231" lon="9.9349787"/>
	<node id="3705279405" lat="53.555125" lon="9.9350533">
		<tag k="ref" v="72"/>
	</node>
	<node id="3705279406" lat="53.5551276" lon="9.9352124"/>
	<node id="3705279407" lat="53.5552121" lon="9.9353384"/>
	<node id="3705279408" lat="53.5554354" lon="9.9349993">
		<tag k="railway" v="milestone"/>
	</node>
	<node id="3705279409" lat="53.5555751" lon="9.9350657">
		<tag k="ref" v="6"/>
	</node>
	<node id="3705279410" lat="53.5555922" lon="9.9350662"/>
	<node id="3705279411" lat="53.5557217" lon="9.9350101">
		<tag k="ref" v="15"/>
	</node>
	<node id="3705279412" lat="53.5557372" lon="9.9352381">
		<tag k="ref" v="81"/>
	</node>
	<node id="3705279413" lat="53.5558529" lon="9.9355304"/>
	<node id="3705279414" lat="53.5558547" lon="9.9353516">
		<tag k="ref" v="8"/>
	</node>
	<node id="3705279415" lat="53.5559534" lon="9.9350194"/>
	<node id="3705279416" lat="53.5559601" lon="9.9348516">
		<tag k="ref" v="50"/>
	</node>
	<node id="3705279417" lat="53.555967" lon="9.9357516"/>
	<node id="3705279418" lat="53.5559987" lon="9.9350206"/>
	<node id="3705279419" lat="53.5561803" lon="9.9352405"/>
	<node id="3705279420" lat="53.5561809" lon="9.935102">
		<tag k="ref" v="14"/>
	</node>
	<node id="3705279421" lat="53.5563619" lon="9.9355413"/>
	<node id="3705279422" lat="53.5563638" lon="9.935415"/>
	<node id="3705279423" lat="53.5563966" lon="9.935305">
		<tag k="ref" v="141"/>
	</node>
	<node id="3705279424" lat="53.5571223" lon="9.9350819"/>
	<node id="3705280925" lat="53.5572754" lon="9.9350339">
		<tag k="ref" v="27"/>
	</node>
	<node id="3705280926" lat="53.5573242" lon="9.9352877">
		<tag k="ref" v="68"/>
	</node>
	<node id="3705280927" lat="53.5573665" lon="9.9353603">
		<tag k="ref" v="67"/>
	</node>
	<node id="3705310837" lat="53.5543216" lon="9.9355301">
		<tag k="ref" v="111 I"/>
	</node>
	<node id="3705310838" lat="53.5543245" lon="9.935465"/>
	<node id="3705310839" lat="53.5543749" lon="9.9352176">
		<tag k="ref" v="80"/>
	</node>
	<node id="3705310840" lat="53.5543818" lon="9.9355329">
		<tag k="ref" v="112 II"/>
	</node>
	<node id="3705310841" lat="53.5544673" lon="9.9352228"/>
	<node id="3705310842" lat="53.5547306" lon="9.9354824"/>
	<node id="3705310843" lat="53.5556271" lon="9.9355207"/>
	<node id="3705310844" lat="53.5573497" lon="9.935283"/>
	<node id="3755862321" lat="53.5525714" lon="9.9348761"/>
	<node id="3953416077" lat="53.5565863" lon="9.9343442"/>
	<node id="3953416078" lat="53.5572527" lon="9.9340704"/>
	<node id="4027487387" lat="53.5524639" lon="9.935582"/>
	<node id="4027489489" lat="53.5524658" lon="9.935469"/>
	<node id="4027489490" lat="53.5524676" lon="9.9353595"/>
	<node id="4027489491" lat="53.5524717" lon="9.9351146"/>
	<node id="4027489492" lat="53.5524697" lon="9.9352314"/>
	<node id="4027489493" lat="53.5524742" lon="9.9349633"/>
	<node id="4027489494" lat="53.5524761" lon="9.9348452"/>
	<node id="4027489504" lat="53.5546522" lon="9.935202">
		<tag k="ref" v="B"/>
		<tag k="railway:platform:section" v="B"/>
	</node>
	<node id="4027489510" lat="53.5560096" lon="9.9349882"/>
	<node id="4027489511" lat="53.5560156" lon="9.9352228"/>
	<node id="4027489512" lat="53.5562093" lon="9.9354039"/>
	<node id="4027489513" lat="53.5563364" lon="9.9356738"/>
	<node id="4027489514" lat="53.5563906" lon="9.9349865"/>
	<node id="4027489515" lat="53.5564539" lon="9.935186"/>
	<node id="4027489516" lat="53.5564693" lon="9.9354708"/>
	<node id="4027489517" lat="53.5566096" lon="9.9348975"/>
	<node id="4034103592" lat="53.5513589" lon="9.9348749"/>
	<node id="4034103598" lat="53.55137" lon="9.9347623"/>
	<node id="4034103626" lat="53.5515235" lon="9.9351618"/>
	<node id="4034103627" lat="53.5515235" lon="9.9352348"/>
	<node id="4034103668" lat="53.5516824" lon="9.9352351"/>
	<node id="4034103670" lat="53.5516879" lon="9.9352536"/>
	<node id="4034103677" lat="53.551702" lon="9.9352414"/>
	<node id="4034103678" lat="53.5517022" lon="9.9351072"/>
	<node id="4034103682" lat="53.5517273" lon="9.934461"/>
	<node id="4034103683" lat="53.5517323" lon="9.9347533"/>
	<node id="4034103690" lat="53.5517477" lon="9.9346391"/>
	<node id="4034103692" lat="53.5517511" lon="9.9349503"/>
	<node id="4081693841" lat="53.5525697" lon="9.9349389"/>
	<node id="4081693842" lat="53.5536882" lon="9.9349213"/>
	<node id="4081693843" lat="53.5537041" lon="9.9349916"/>
	<node id="4081693844" lat="53.5543238" lon="9.9350174">
		<tag k="ref" v="71 I"/>
	</node>
	<node id="4107429529" lat="53.5515857" lon="9.9345072"/>
	<node id="4107429531" lat="53.5516027" lon="9.9346864"/>
	<node id="4107429550" lat="53.5520172" lon="9.9346621"/>
	<node id="4107429552" lat="53.5520367" lon="9.9348579"/>
	<node id="4107429556" lat="53.5524687" lon="9.9352972"/>
	<node id="4107429557" lat="53.5524649" lon="9.9355257"/>
	<node id="4107429558" lat="53.552473" lon="9.9350389"/>
	<node id="4107429559" lat="53.5524773" lon="9.9347756"/>
	<node id="4107429562" lat="53.5530904" lon="9.9351415"/>
	<node id="4107429564" lat="53.5537135" lon="9.934762"/>
	<node id="4107429565" lat="53.5538465" lon="9.9349037"/>
	<node id="4107429566" lat="53.5539462" lon="9.9352937"/>
	<node id="4107429568" lat="53.5543217" lon="9.9351919"/>
	<node id="4107429569" lat="53.554325" lon="9.9353123"/>
	<node id="4107429570" lat="53.5543294" lon="9.9350413"/>
	<node id="4107429571" lat="53.5547544" lon="9.9350616"/>
	<node id="4107429573" lat="53.5548721" lon="9.9353608"/>
	<node id="4107429574" lat="53.5548725" lon="9.935338"/>
	<node id="4107429575" lat="53.5548826" lon="9.9351935"/>
	<node id="4107429577" lat="53.5549794" lon="9.9350706"/>
	<node id="4107429578" lat="53.5550044" lon="9.9355765"/>
	<node id="4107429579" lat="53.5550256" lon="9.9348302"/>
	<node id="4107429580" lat="53.5551039" lon="9.935186"/>
	<node id="4107429581" lat="53.5551816" lon="9.9350768">
		<tag k="ref" v="A"/>
		<tag k="railway:platform:section" v="A"/>
	</node>
	<node id="4107429583" lat="53.5554289" lon="9.9357105"/>
	<node id="4107429584" lat="53.5555667" lon="9.9352062"/>
	<node id="4107429585" lat="53.5555806" lon="9.9350081"/>
	<node id="4107429586" lat="53.5557332" lon="9.9356065"/>
	<node id="4107429587" lat="53.5557811" lon="9.9349843"/>
	<node id="4107429588" lat="53.5558206" lon="9.9348681"/>
	<node id="4107441489" lat="53.5558404" lon="9.9351065"/>
	<node id="4107441490" lat="53.5558982" lon="9.9350862"/>
	<node id="4107441491" lat="53.5559754" lon="9.9348744"/>
	<node id="4107441492" lat="53.5560712" lon="9.9357092"/>
	<node id="4107441493" lat="53.5561758" lon="9.9352136"/>
	<node id="4107441494" lat="53.5561986" lon="9.9349927"/>
	<node id="4107441495" lat="53.5562034" lon="9.9351288"/>
	<node id="4107441498" lat="53.5563141" lon="9.9352223"/>
	<node id="4107441500" lat="53.5563709" lon="9.9355098"/>
	<node id="4107441501" lat="53.5564357" lon="9.9348977"/>
	<node id="4107441502" lat="53.5564447" lon="9.9349799"/>
	<node id="4107441503" lat="53.55649" lon="9.9348979"/>
	<node id="4107441504" lat="53.5564997" lon="9.9349725"/>
	<node id="4126318163" lat="53.5525662" lon="9.9352077"/>
	<node id="4126318164" lat="53.5525671" lon="9.9353852"/>
	<node id="4126318168" lat="53.5528933" lon="9.9349563"/>
	<node id="4126318169" lat="53.552972" lon="9.9349602">
		<tag k="ref" v="70 I"/>
	</node>
	<node id="4126318170" lat="53.5529871" lon="9.9352302">
		<tag k="ref" v="90 I"/>
	</node>
	<node id="4126318171" lat="53.5530001" lon="9.9352306">
		<tag k="ref" v="91 II"/>
	</node>
	<node id="4126318172" lat="53.5530074" lon="9.9348952"/>
	<node id="4126318173" lat="53.5531705" lon="9.9354775">
		<tag k="railway:platform:section" v="E"/>
	</node>
	<node id="4126318174" lat="53.5531712" lon="9.9354125">
		<tag k="railway:platform:section" v="E"/>
	</node>
	<node id="4126318175" lat="53.5531729" lon="9.9352359">
		<tag k="railway:platform:section" v="E"/>
	</node>
	<node id="4126318176" lat="53.5531736" lon="9.9351678">
		<tag k="railway:platform:section" v="E"/>
	</node>
	<node id="4126318177" lat="53.5531756" lon="9.9349683">
		<tag k="railway:platform:section" v="E"/>
	</node>
	<node id="4126318178" lat="53.5531763" lon="9.9349">
		<tag k="railway:platform:section" v="E"/>
	</node>
	<node id="4126318179" lat="53.5531792" lon="9.9347112">
		<tag k="railway:platform:section" v="E"/>
	</node>
	<node id="4126318184" lat="53.5534972" lon="9.9356506">
		<tag k="railway:platform:section" v="D"/>
	</node>
	<node id="4126318185" lat="53.5534988" lon="9.935491">
		<tag k="railway:platform:section" v="D"/>
	</node>
	<node id="4126318186" lat="53.5534995" lon="9.935426">
		<tag k="railway:platform:section" v="D"/>
	</node>
	<node id="4126318187" lat="53.5535012" lon="9.9352494">
		<tag k="railway:platform:section" v="D"/>
	</node>
	<node id="4126318188" lat="53.5535019" lon="9.9351813">
		<tag k="railway:platform:section" v="D"/>
	</node>
	<node id="4126319889" lat="53.5535039" lon="9.9349817">
		<tag k="railway:platform:section" v="D"/>
	</node>
	<node id="4126319890" lat="53.5535046" lon="9.9349135">
		<tag k="railway:platform:section" v="D"/>
	</node>
	<node id="4126319891" lat="53.5535075" lon="9.9347263">
		<tag k="railway:platform:section" v="D"/>
	</node>
	<node id="4126319901" lat="53.5539422" lon="9.9352714">
		<tag k="ref" v="91 I"/>
	</node>
	<node id="4126319902" lat="53.5539597" lon="9.9352721">
		<tag k="ref" v="92 II"/>
	</node>
	<node id="4126319911" lat="53.5544426" lon="9.9352996">
		<tag k="ref" v="93 II"/>
	</node>
	<node id="4616380709" lat="53.5525939" lon="9.9346512"/>
	<node id="4616380712" lat="53.5525461" lon="9.9344519"/>
	<node id="4616380714" lat="53.5523855" lon="9.9345294"/>
	<node id="4616380715" lat="53.5523801" lon="9.9342842"/>
	<node id="4616380716" lat="53.5523567" lon="9.9343074"/>
	<node id="4616380717" lat="53.5524158" lon="9.9344604"/>
	<node id="4616380719" lat="53.5523822" lon="9.9344427"/>
	<node id="4616380721" lat="53.5524047" lon="9.934692"/>
	<node id="4616380722" lat="53.5523966" lon="9.9345494"/>
	<node id="4616380723" lat="53.5525452" lon="9.9343073"/>
	<node id="4616380730" lat="53.5526098" lon="9.9343232"/>
	<node id="4616380731" lat="53.5522324" lon="9.9348014"/>
	<node id="4616380732" lat="53.5521723" lon="9.9348036"/>
	<node id="4616380734" lat="53.5522849" lon="9.9347506"/>
	<node id="4616380735" lat="53.5523332" lon="9.9347504"/>
	<node id="4616380736" lat="53.5523531" lon="9.9347173"/>
	<node id="4616380738" lat="53.5524439" lon="9.9346719"/>
	<node id="4616380739" lat="53.5524362" lon="9.9345445"/>
	<node id="4616380740" lat="53.5523557" lon="9.9345568"/>
	<node id="4616380742" lat="53.5523442" lon="9.9344747"/>
	<node id="4616380743" lat="53.5522872" lon="9.9345748"/>
	<node id="4616380744" lat="53.5522156" lon="9.9345985"/>
	<node id="4616380745" lat="53.5522765" lon="9.9345532"/>
	<node id="4616380746" lat="53.5522732" lon="9.9344935"/>
	<node id="4616380750" lat="53.5522526" lon="9.9342937"/>
	<node id="4616380751" lat="53.5523213" lon="9.9342847"/>
	<node id="4616380753" lat="53.5524157" lon="9.9343115"/>
	<node id="4616380754" lat="53.5524216" lon="9.9344368"/>
	<node id="4616380755" lat="53.5523432" lon="9.9344524"/>
	<node id="4616380756" lat="53.5522691" lon="9.9344707"/>
	<node id="4616380757" lat="53.5522053" lon="9.9344916"/>
	<node id="4616380758" lat="53.5523105" lon="9.9343098"/>
	<node id="4616380759" lat="53.5522525" lon="9.9343195"/>
	<node id="4616380760" lat="53.5521854" lon="9.9343354"/>
	<node id="4973014835" lat="53.5560284" lon="9.9345948"/>
	<node id="4973014836" lat="53.5560339" lon="9.9346116"/>
	<node id="5236560538" lat="53.5527369" lon="9.9346205"/>
	<node id="5236560539" lat="53.5528974" lon="9.9345965"/>
	<node id="5236560541" lat="53.5565274" lon="9.9345022"/>
	<node id="5236560542" lat="53.5569797" lon="9.9342457"/>
	<node id="5236560543" lat="53.5553191" lon="9.9346396"/>
	<node id="5236560544" lat="53.5551925" lon="9.9346499"/>
	<node id="5236560546" lat="53.5562829" lon="9.9340514"/>
	<node id="5236560547" lat="53.5558068" lon="9.9343665"/>
	<node id="5236560548" lat="53.5554287" lon="9.9345547"/>
	<node id="5236560549" lat="53.5555159" lon="9.9344866"/>
	<node id="5236560550" lat="53.5555154" lon="9.9344969"/>
	<node id="5236560552" lat="53.5556283" lon="9.9344605"/>
	<node id="5236560553" lat="53.5551447" lon="9.9345189"/>
	<node id="5236560554" lat="53.5551292" lon="9.9344994"/>
	<node id="5236560555" lat="53.5548068" lon="9.9345673"/>
	<node id="5236560556" lat="53.5550173" lon="9.9347078"/>
	<node id="5236560558" lat="53.5539642" lon="9.9346634"/>
	<node id="5236560559" lat="53.553965" lon="9.9345907"/>
	<node id="5236560560" lat="53.5539652" lon="9.9345229"/>
	<node id="5236560562" lat="53.5537885" lon="9.9346234"/>
	<node id="5236560563" lat="53.5537884" lon="9.9345556"/>
	<node id="5236560564" lat="53.5530556" lon="9.934508"/>
	<node id="5247373618" lat="53.554044" lon="9.9346771"/>
	<node id="5247373619" lat="53.5534969" lon="9.9346591"/>
	<node id="5247374521" lat="53.5537229" lon="9.9344745"/>
	<node id="5247374522" lat="53.5548539" lon="9.9345154"/>
	<node id="5247374524" lat="53.5544383" lon="9.9345743"/>
	<node id="5247614182" lat="53.5523215" lon="9.9345645"/>
	<node id="5247624926" lat="53.5529539" lon="9.9344139"/>
	<node id="5247624927" lat="53.5528665" lon="9.9343987"/>
	<node id="5247642346" lat="53.552078" lon="9.9348409"/>
	<node id="5247642347" lat="53.5518807" lon="9.9349089"/>
	<node id="5247659225" lat="53.551376" lon="9.9350208"/>
	<node id="5247659226" lat="53.5515995" lon="9.9349873"/>
	<node id="5247659227" lat="53.5515972" lon="9.9350173"/>
	<node id="5247659228" lat="53.5517709" lon="9.9349748"/>
	<node id="5247687748" lat="53.5515922" lon="9.9344811"/>
	<node id="5247687750" lat="53.5508661" lon="9.9348476"/>
	<node id="5247687751" lat="53.551015" lon="9.9348715"/>
	<node id="5247687752" lat="53.5505507" lon="9.9349606"/>
	<node id="5247687754" lat="53.5509453" lon="9.9349651"/>
	<node id="5247687755" lat="53.550875" lon="9.9350729"/>
	<node id="5247687756" lat="53.551008" lon="9.934987"/>
	<node id="5247792681" lat="53.5540781" lon="9.9358359"/>
	<node id="5247792682" lat="53.5535679" lon="9.9357619"/>
	<node id="5247792692" lat="53.5527162" lon="9.9356189"/>
	<node id="5247888094" lat="53.5524878" lon="9.935583"/>
	<node id="5247888095" lat="53.5525073" lon="9.9355839"/>
	<node id="5247888108" lat="53.5562164" lon="9.9343096"/>
	<node id="5247888223" lat="53.5561425" lon="9.9358273"/>
	<node id="5247888224" lat="53.5563423" lon="9.9357929"/>
	<node id="5247888229" lat="53.5570307" lon="9.9358046"/>
	<node id="5247888249" lat="53.556699" lon="9.935199"/>
	<node id="5247888250" lat="53.5565907" lon="9.9349815"/>
	<node id="5247888251" lat="53.5558171" lon="9.9350595"/>
	<node id="5247888252" lat="53.5552824" lon="9.935031"/>
	<node id="5247888253" lat="53.5551359" lon="9.9349949"/>
	<node id="5496219204" lat="53.5517581" lon="9.9348123">
		<tag k="name" v="Bf. Altona"/>
		<tag k="public_transport" v="stop_position"/>
		<tag k="bus" v="yes"/>
	</node>
	<node id="5496219205" lat="53.5517642" lon="9.9343544">
		<tag k="name" v="Bf. Altona"/>
		<tag k="public_transport" v="stop_position"/>
		<tag k="bus" v="yes"/>
	</node>
	<node id="5496219206" lat="53.5517708" lon="9.9338668">
		<tag k="name" v="Bf. Altona"/>
		<tag k="public_transport" v="stop_position"/>
		<tag k="bus" v="yes"/>
	</node>
	<node id="5496219209" lat="53.5516347" lon="9.9352703">
		<tag k="name" v="Bf. Altona"/>
		<tag k="public_transport" v="stop_position"/>
		<tag k="bus" v="yes"/>
	</node>
	<node id="5583764930" lat="53.5515803" lon="9.934812">
		<tag k="name" v="Bf. Altona"/>
		<tag k="public_transport" v="platform"/>
		<tag k="highway" v="bus_stop"/>
		<tag k="level" v="0"/>
		<tag k="loc_name" v="Bf. Altona Bereich A"/>
		<tag k="bench" v="yes"/>
		<tag k="bin" v="yes"/>
		<tag k="tactile_paving" v="no"/>
		<tag k="passenger_information_display" v="yes"/>
		<tag k="loc_ref" v="A"/>
		<tag k="last_check" v="2019-03-05"/>
	</node>
	<node id="5928826245" lat="53.556336" lon="9.9356555"/>
	<node id="5928826250" lat="53.5564538" lon="9.9351681"/>
	<node id="6018887157" lat="53.5566104" lon="9.9349234"/>
	<node id="6140117261" lat="53.5517142" lon="9.9343557">
		<tag k="name" v="Bf. Altona"/>
		<tag k="public_transport" v="platform"/>
		<tag k="highway" v="bus_stop"/>
		<tag k="loc_name" v="Bf. Altona Bereich D"/>
		<tag k="bench" v="yes"/>
		<tag k="bin" v="yes"/>
		<tag k="tactile_paving" v="no"/>
		<tag k="passenger_information_display" v="yes"/>
		<tag k="loc_ref" v="D"/>
	</node>
	<node id="6140117262" lat="53.551722" lon="9.9338682">
		<tag k="name" v="Bf. Altona"/>
		<tag k="public_transport" v="platform"/>
		<tag k="highway" v="bus_stop"/>
		<tag k="level" v="0"/>
		<tag k="loc_name" v="Bf. Altona Bereich C"/>
		<tag k="bench" v="yes"/>
		<tag k="bin" v="yes"/>
		<tag k="tactile_paving" v="no"/>
		<tag k="passenger_information_display" v="yes"/>
		<tag k="loc_ref" v="C"/>
	</node>
	<node id="6140117263" lat="53.551588" lon="9.9335635">
		<tag k="name" v="Bf. Altona"/>
		<tag k="public_transport" v="platform"/>
		<tag k="highway" v="bus_stop"/>
		<tag k="level" v="0"/>
		<tag k="loc_name" v="Bf. Altona Bereich B"/>
		<tag k="bench" v="yes"/>
		<tag k="bin" v="yes"/>
		<tag k="tactile_paving" v="no"/>
		<tag k="passenger_information_display" v="yes"/>
		<tag k="loc_ref" v="B"/>
	</node>
	<node id="6140117267" lat="53.5517081" lon="9.9348078">
		<tag k="name" v="Bf. Altona"/>
		<tag k="public_transport" v="platform"/>
		<tag k="highway" v="bus_stop"/>
		<tag k="loc_name" v="Bf. Altona Bereich E"/>
		<tag k="bench" v="yes"/>
		<tag k="bin" v="yes"/>
		<tag k="tactile_paving" v="no"/>
		<tag k="passenger_information_display" v="yes"/>
		<tag k="loc_ref" v="E"/>
	</node>
	<node id="6140117271" lat="53.5516496" lon="9.9351087">
		<tag k="name" v="Bf. Altona"/>
		<tag k="public_transport" v="platform"/>
		<tag k="highway" v="bus_stop"/>
		<tag k="level" v="0"/>
		<tag k="loc_name" v="Bf. Altona Bereich F"/>
		<tag k="bench" v="yes"/>
		<tag k="bin" v="yes"/>
		<tag k="tactile_paving" v="no"/>
		<tag k="passenger_information_display" v="yes"/>
		<tag k="loc_ref" v="F"/>
	</node>
	<node id="6140117892" lat="53.5515805" lon="9.9341297">
		<tag k="name" v="Bf. Altona"/>
		<tag k="public_transport" v="platform"/>
		<tag k="highway" v="bus_stop"/>
		<tag k="level" v="0"/>
		<tag k="loc_name" v="Bf. Altona Ankunftsbereich"/>
		<tag k="bench" v="yes"/>
		<tag k="bin" v="yes"/>
		<tag k="tactile_paving" v="no"/>
	</node>
	<node id="6140117893" lat="53.5515346" lon="9.9348125">
		<tag k="name" v="Bf. Altona"/>
		<tag k="public_transport" v="stop_position"/>
		<tag k="bus" v="yes"/>
	</node>
	<node id="6205052816" lat="53.5527357" lon="9.9355938"/>
	<node id="6205052817" lat="53.5525607" lon="9.935473"/>
	<node id="6205052818" lat="53.5525614" lon="9.9351185"/>
	<node id="6205052819" lat="53.5525638" lon="9.9349671"/>
	<node id="6205052820" lat="53.5525654" lon="9.934849"/>
	<node id="6205052821" lat="53.5525543" lon="9.9347097"/>
	<node id="6205052822" lat="53.5541117" lon="9.9351833">
		<tag k="ref" v="C"/>
		<tag k="railway:platform:section" v="C"/>
	</node>
	<node id="6205052823" lat="53.5541069" lon="9.9350319">
		<tag k="ref" v="C"/>
		<tag k="railway:platform:section" v="C"/>
	</node>
	<node id="6205052824" lat="53.5553864" lon="9.935735">
		<tag k="railway" v="milestone"/>
	</node>
	<node id="6205052825" lat="53.5553991" lon="9.9355659">
		<tag k="railway" v="milestone"/>
	</node>
	<node id="6205052826" lat="53.5551769" lon="9.9356996">
		<tag k="ref" v="A"/>
		<tag k="railway:platform:section" v="A"/>
	</node>
	<node id="6205052827" lat="53.5551777" lon="9.9355836">
		<tag k="ref" v="A"/>
		<tag k="railway:platform:section" v="A"/>
	</node>
	<node id="6205052828" lat="53.554643" lon="9.9356764">
		<tag k="ref" v="B"/>
		<tag k="railway:platform:section" v="B"/>
	</node>
	<node id="6205052829" lat="53.5546443" lon="9.9355613">
		<tag k="ref" v="B"/>
		<tag k="railway:platform:section" v="B"/>
	</node>
	<node id="6205052830" lat="53.5551805" lon="9.935464">
		<tag k="ref" v="A"/>
		<tag k="railway:platform:section" v="A"/>
	</node>
	<node id="6205052831" lat="53.5551813" lon="9.9353639">
		<tag k="ref" v="A"/>
		<tag k="railway:platform:section" v="A"/>
	</node>
	<node id="6205052832" lat="53.5554445" lon="9.9350638">
		<tag k="railway" v="milestone"/>
	</node>
	<node id="6205052833" lat="53.555184" lon="9.9351895">
		<tag k="ref" v="A"/>
		<tag k="railway:platform:section" v="A"/>
	</node>
	<node id="6205052834" lat="53.5546518" lon="9.9350567">
		<tag k="ref" v="B"/>
		<tag k="railway:platform:section" v="B"/>
	</node>
	<node id="6205052835" lat="53.5546423" lon="9.9354432">
		<tag k="ref" v="B"/>
		<tag k="railway:platform:section" v="B"/>
	</node>
	<node id="6205052836" lat="53.5546432" lon="9.9353405">
		<tag k="ref" v="B"/>
		<tag k="railway:platform:section" v="B"/>
	</node>
	<node id="6205052837" lat="53.5525554" lon="9.935235"/>
	<node id="6205052838" lat="53.5525565" lon="9.9353629"/>
	<node id="6205052839" lat="53.5540981" lon="9.9354223">
		<tag k="ref" v="C"/>
		<tag k="railway:platform:section" v="C"/>
	</node>
	<node id="6205052840" lat="53.554099" lon="9.9353012">
		<tag k="ref" v="C"/>
		<tag k="railway:platform:section" v="C"/>
	</node>
	<node id="6741828035" lat="53.5525609" lon="9.9354464"/>
	<node id="6741828036" lat="53.5525616" lon="9.935385"/>
	<node id="6741828037" lat="53.5525664" lon="9.9349387"/>
	<node id="6741828038" lat="53.5525677" lon="9.9348761"/>
	<node id="7060683013" lat="53.5556866" lon="9.9358198"/>
	<node id="7060683014" lat="53.5551714" lon="9.9358076"/>
	<node id="7257372615" lat="53.5567752" lon="9.9360511"/>
	<way id="4841532">
		<nd ref="1686600812"/>
		<nd ref="4126318178"/>
		<nd ref="4126319890"/>
		<nd ref="4081693842"/>
		<nd ref="2991308528"/>
		<nd ref="3705279403"/>
		<nd ref="3705279404"/>
		<nd ref="890438546"/>
		<nd ref="3705279408"/>
		<nd ref="4107429585"/>
		<nd ref="3705279411"/>
		<nd ref="3705279415"/>
		<nd ref="3705279418"/>
		<nd ref="3038826838"/>
		<nd ref="890438438"/>
		<tag k="name" v="Verbindungsbahn"/>
		<tag k="railway" v="rail"/>
		<tag k="ref" v="6100"/>
		<tag k="railway:traffic_mode" v="passenger"/>
		<tag k="railway:track_ref" v="6"/>
		<tag k="usage" v="main"/>
		<tag k="level" v="0"/>
	</way>
	<way id="6138684">
		<nd ref="1686600814"/>
		<nd ref="4126318184"/>
		<nd ref="2991308521"/>
		<nd ref="50792021"/>
		<nd ref="6205052824"/>
		<nd ref="1144110314"/>
		<nd ref="3705279417"/>
		<nd ref="3695388861"/>
		<nd ref="890463535"/>
		<tag k="railway" v="rail"/>
		<tag k="ref" v="1220"/>
		<tag k="railway:traffic_mode" v="passenger"/>
		<tag k="railway:track_ref" v="12"/>
		<tag k="usage" v="main"/>
		<tag k="level" v="0"/>
	</way>
	<way id="6270944">
		<nd ref="52643939"/>
		<nd ref="3702655389"/>
		<nd ref="6205052825"/>
		<nd ref="3705310840"/>
		<nd ref="3705310837"/>
		<nd ref="2991308523"/>
		<nd ref="4126318185"/>
		<nd ref="4126318173"/>
		<nd ref="1686600807"/>
		<tag k="name" v="Verbindungsbahn"/>
		<tag k="railway" v="rail"/>
		<tag k="ref" v="6100"/>
		<tag k="railway:traffic_mode" v="passenger"/>
		<tag k="railway:track_ref" v="11"/>
		<tag k="usage" v="main"/>
		<tag k="level" v="0"/>
	</way>
	<way id="6271257">
		<nd ref="1686600809"/>
		<nd ref="4126318175"/>
		<nd ref="4126318187"/>
		<nd ref="2991308524"/>
		<nd ref="4126319901"/>
		<nd ref="4126319902"/>
		<nd ref="1240260149"/>
		<nd ref="4126319911"/>
		<nd ref="3705279402"/>
		<nd ref="4107429574"/>
		<nd ref="890475510"/>
		<tag k="railway" v="rail"/>
		<tag k="railway:traffic_mode" v="passenger"/>
		<tag k="service" v="siding"/>
		<tag k="railway:track_ref" v="9"/>
		<tag k="level" v="0"/>
	</way>
	<way id="6271262">
		<nd ref="890768054"/>
		<nd ref="1144110532"/>
		<nd ref="890082686"/>
		<nd ref="52649221"/>
		<tag k="railway" v="rail"/>
		<tag k="service" v="yard"/>
	</way>
	<way id="27403371">
		<nd ref="26600604"/>
		<nd ref="249420043"/>
		<nd ref="3663269142"/>
		<nd ref="52701749"/>
		<tag k="name" v="City-S-Bahn"/>
		<tag k="railway" v="light_rail"/>
		<tag k="ref" v="1270"/>
		<tag k="lines" v="S11;S31"/>
		<tag k="ref:La" v="407"/>
		<tag k="usage" v="main"/>
	</way>
	<way id="27403475">
		<nd ref="206180777"/>
		<nd ref="3396952648"/>
		<nd ref="4616380709"/>
		<nd ref="3158071952"/>
		<tag k="name" v="City-S-Bahn"/>
		<tag k="railway" v="light_rail"/>
		<tag k="ref" v="1270"/>
		<tag k="railway:traffic_mode" v="passenger"/>
		<tag k="lines" v="S11;S31"/>
		<tag k="ref:La" v="407"/>
		<tag k="usage" v="main"/>
		<tag k="level" v="-1"/>
	</way>
	<way id="27403616">
		<nd ref="26600603"/>
		<nd ref="3396952649"/>
		<nd ref="4616380712"/>
		<nd ref="3158071954"/>
		<tag k="name" v="Altona-Blankeneser Eisenbahn"/>
		<tag k="railway" v="light_rail"/>
		<tag k="ref" v="1224"/>
		<tag k="commuting" v="yes"/>
		<tag k="railway:traffic_mode" v="passenger"/>
		<tag k="lines" v="S11;S31"/>
		<tag k="usage" v="branch"/>
		<tag k="level" v="-1"/>
	</way>
	<way id="27403634">
		<nd ref="206180777"/>
		<nd ref="3396952653"/>
		<nd ref="5247373619"/>
		<nd ref="747674116"/>
		<nd ref="3396952659"/>
		<nd ref="206180776"/>
		<nd ref="536400525"/>
		<nd ref="535951189"/>
		<nd ref="535951199"/>
		<nd ref="3396952664"/>
		<nd ref="1240254600"/>
		<tag k="name" v="City-S-Bahn"/>
		<tag k="railway" v="light_rail"/>
		<tag k="ref" v="1270"/>
		<tag k="railway:traffic_mode" v="passenger"/>
		<tag k="lines" v="S11;S31"/>
		<tag k="ref:La" v="407"/>
		<tag k="usage" v="main"/>
	</way>
	<way id="42836970">
		<nd ref="535951197"/>
		<nd ref="535951160"/>
		<nd ref="535951167"/>
		<tag k="name" v="Altona-Blankeneser Eisenbahn"/>
		<tag k="railway" v="light_rail"/>
		<tag k="ref" v="1224"/>
		<tag k="commuting" v="yes"/>
		<tag k="usage" v="branch"/>
	</way>
	<way id="42836974">
		<nd ref="26600603"/>
		<nd ref="3396952652"/>
		<nd ref="3365707268"/>
		<nd ref="747674126"/>
		<nd ref="747674123"/>
		<nd ref="3396952657"/>
		<nd ref="747674118"/>
		<nd ref="747674121"/>
		<tag k="name" v="Altona-Blankeneser Eisenbahn"/>
		<tag k="railway" v="light_rail"/>
		<tag k="ref" v="1224"/>
		<tag k="commuting" v="yes"/>
		<tag k="railway:traffic_mode" v="passenger"/>
		<tag k="lines" v="S11;S31"/>
		<tag k="usage" v="branch"/>
	</way>
	<way id="42836975">
		<nd ref="535951148"/>
		<nd ref="536400522"/>
		<nd ref="52702815"/>
		<tag k="name" v="Altona-Blankeneser Eisenbahn"/>
		<tag k="railway" v="light_rail"/>
		<tag k="ref" v="1224"/>
		<tag k="commuting" v="yes"/>
		<tag k="railway:traffic_mode" v="passenger"/>
		<tag k="lines" v="S11;S31"/>
		<tag k="usage" v="branch"/>
	</way>
	<way id="42836976">
		<nd ref="535951145"/>
		<nd ref="3396952655"/>
		<nd ref="3365707269"/>
		<nd ref="747674124"/>
		<nd ref="3038826837"/>
		<nd ref="3396952658"/>
		<nd ref="1686600816"/>
		<nd ref="5247374522"/>
		<nd ref="5236560554"/>
		<nd ref="26600604"/>
		<tag k="name" v="City-S-Bahn"/>
		<tag k="railway" v="light_rail"/>
		<tag k="ref" v="1270"/>
		<tag k="railway:traffic_mode" v="passenger"/>
		<tag k="lines" v="S11;S31"/>
		<tag k="ref:La" v="407"/>
		<tag k="usage" v="main"/>
	</way>
	<way id="42836977">
		<nd ref="3158071955"/>
		<nd ref="4616380723"/>
		<nd ref="4616380730"/>
		<nd ref="5247624927"/>
		<nd ref="5247624926"/>
		<nd ref="535951145"/>
		<tag k="name" v="City-S-Bahn"/>
		<tag k="railway" v="light_rail"/>
		<tag k="ref" v="1270"/>
		<tag k="railway:traffic_mode" v="passenger"/>
		<tag k="lines" v="S11;S31"/>
		<tag k="ref:La" v="407"/>
		<tag k="usage" v="main"/>
		<tag k="level" v="-1"/>
	</way>
	<way id="42836978">
		<nd ref="535951138"/>
		<nd ref="5247687748"/>
		<nd ref="3477282443"/>
		<nd ref="2961708334"/>
		<tag k="name" v="City-S-Bahn"/>
		<tag k="railway" v="light_rail"/>
		<tag k="ref" v="1270"/>
		<tag k="railway:traffic_mode" v="passenger"/>
		<tag k="ref:La" v="407"/>
		<tag k="usage" v="main"/>
		<tag k="level" v="-2"/>
	</way>
	<way id="42836980">
		<nd ref="535951147"/>
		<nd ref="3396952654"/>
		<nd ref="3365707267"/>
		<nd ref="747674117"/>
		<nd ref="747674125"/>
		<nd ref="3396952656"/>
		<nd ref="747674119"/>
		<tag k="name" v="Altona-Blankeneser Eisenbahn"/>
		<tag k="railway" v="light_rail"/>
		<tag k="ref" v="1224"/>
		<tag k="commuting" v="yes"/>
		<tag k="railway:traffic_mode" v="passenger"/>
		<tag k="lines" v="S11;S31"/>
		<tag k="usage" v="branch"/>
	</way>
	<way id="42836981">
		<nd ref="535951147"/>
		<nd ref="3396952647"/>
		<nd ref="3158071953"/>
		<tag k="name" v="Altona-Blankeneser Eisenbahn"/>
		<tag k="railway" v="light_rail"/>
		<tag k="ref" v="1224"/>
		<tag k="commuting" v="yes"/>
		<tag k="railway:traffic_mode" v="passenger"/>
		<tag k="lines" v="S11;S31"/>
		<tag k="usage" v="branch"/>
		<tag k="level" v="-1"/>
	</way>
	<way id="42836985">
		<nd ref="535951176"/>
		<nd ref="2132758971"/>
		<nd ref="535951182"/>
		<nd ref="3617808880"/>
		<nd ref="535951207"/>
		<nd ref="-20858278"/>
		<tag k="name" v="Altona-Blankeneser Eisenbahn"/>
		<tag k="railway" v="light_rail"/>
		<tag k="ref" v="1224"/>
		<tag k="commuting" v="yes"/>
		<tag k="lines" v="S11;S31"/>
		<tag k="usage" v="branch"/>
	</way>
	<way id="42836986">
		<nd ref="535951176"/>
		<nd ref="535951164"/>
		<tag k="name" v="Altona-Blankeneser Eisenbahn"/>
		<tag k="railway" v="light_rail"/>
		<tag k="ref" v="1224"/>
		<tag k="commuting" v="yes"/>
		<tag k="lines" v="S11;S31"/>
		<tag k="usage" v="branch"/>
	</way>
	<way id="42836987">
		<nd ref="52702815"/>
		<nd ref="5236560549"/>
		<nd ref="5236560547"/>
		<nd ref="3663269143"/>
		<nd ref="535951164"/>
		<tag k="name" v="Altona-Blankeneser Eisenbahn"/>
		<tag k="railway" v="light_rail"/>
		<tag k="ref" v="1224"/>
		<tag k="commuting" v="yes"/>
		<tag k="lines" v="S11;S31"/>
		<tag k="usage" v="branch"/>
	</way>
	<way id="42836988">
		<nd ref="52701749"/>
		<nd ref="5236560546"/>
		<nd ref="535951164"/>
		<tag k="railway" v="light_rail"/>
		<tag k="ref" v="1207"/>
		<tag k="service" v="crossover"/>
		<tag k="lines" v="S11;S31"/>
		<tag k="ref:La" v="407"/>
	</way>
	<way id="42836989">
		<nd ref="52701749"/>
		<nd ref="1686600849"/>
		<nd ref="3617809302"/>
		<nd ref="535951180"/>
		<tag k="name" v="City-S-Bahn"/>
		<tag k="railway" v="light_rail"/>
		<tag k="ref" v="1270"/>
		<tag k="lines" v="S11;S31"/>
		<tag k="ref:La" v="407"/>
		<tag k="usage" v="main"/>
	</way>
	<way id="42836991">
		<nd ref="52702815"/>
		<nd ref="5236560550"/>
		<nd ref="5236560552"/>
		<nd ref="1686600831"/>
		<nd ref="3319091877"/>
		<tag k="name" v="Verbindungsbahn"/>
		<tag k="railway" v="light_rail"/>
		<tag k="ref" v="1240"/>
		<tag k="commuting" v="yes"/>
		<tag k="lines" v="S11;S31"/>
		<tag k="usage" v="main"/>
	</way>
	<way id="42836999">
		<nd ref="535951191"/>
		<nd ref="4973014835"/>
		<nd ref="535951200"/>
		<nd ref="3953416077"/>
		<nd ref="535951154"/>
		<nd ref="536400535"/>
		<nd ref="535951166"/>
		<nd ref="535951184"/>
		<tag k="name" v="Verbindungsbahn"/>
		<tag k="railway" v="light_rail"/>
		<tag k="ref" v="1240"/>
		<tag k="commuting" v="yes"/>
		<tag k="lines" v="S11;S31"/>
		<tag k="usage" v="main"/>
	</way>
	<way id="42837000">
		<nd ref="535951191"/>
		<nd ref="4973014836"/>
		<nd ref="535951198"/>
		<nd ref="3396952663"/>
		<nd ref="535951197"/>
		<tag k="name" v="Altona-Blankeneser Eisenbahn"/>
		<tag k="railway" v="light_rail"/>
		<tag k="ref" v="1224"/>
		<tag k="commuting" v="yes"/>
		<tag k="usage" v="branch"/>
	</way>
	<way id="42837001">
		<nd ref="535951193"/>
		<nd ref="5236560542"/>
		<nd ref="535951167"/>
		<tag k="railway" v="light_rail"/>
		<tag k="commuting" v="yes"/>
		<tag k="service" v="crossover"/>
	</way>
	<way id="42837002">
		<nd ref="1240254600"/>
		<nd ref="535951193"/>
		<tag k="railway" v="light_rail"/>
		<tag k="commuting" v="yes"/>
		<tag k="service" v="crossover"/>
		<tag k="lines" v="S1"/>
	</way>
	<way id="42837003">
		<nd ref="535951167"/>
		<nd ref="3953416078"/>
		<nd ref="535951162"/>
		<nd ref="535951173"/>
		<nd ref="536400548"/>
		<nd ref="-20858393"/>
		<tag k="name" v="Altona-Blankeneser Eisenbahn"/>
		<tag k="railway" v="light_rail"/>
		<tag k="ref" v="1224"/>
		<tag k="commuting" v="yes"/>
		<tag k="usage" v="branch"/>
	</way>
	<way id="42837004">
		<nd ref="535951140"/>
		<nd ref="3477282442"/>
		<nd ref="3477282439"/>
		<nd ref="535951143"/>
		<tag k="name" v="Altona-Blankeneser Eisenbahn"/>
		<tag k="railway" v="light_rail"/>
		<tag k="ref" v="1224"/>
		<tag k="commuting" v="yes"/>
		<tag k="railway:traffic_mode" v="passenger"/>
		<tag k="usage" v="branch"/>
		<tag k="level" v="-2"/>
	</way>
	<way id="42838504">
		<nd ref="1236211791"/>
		<nd ref="4616380753"/>
		<nd ref="4616380716"/>
		<nd ref="4616380758"/>
		<nd ref="4616380759"/>
		<nd ref="4616380760"/>
		<nd ref="4034103682"/>
		<nd ref="4107429529"/>
		<nd ref="1236211795"/>
		<nd ref="535982109"/>
		<nd ref="4034103598"/>
		<nd ref="4107429531"/>
		<nd ref="4034103690"/>
		<nd ref="4616380757"/>
		<nd ref="4616380756"/>
		<nd ref="4616380755"/>
		<nd ref="4616380719"/>
		<nd ref="4616380754"/>
		<nd ref="535982119"/>
		<nd ref="1236211791"/>
		<tag k="railway" v="platform"/>
		<tag k="public_transport" v="platform"/>
		<tag k="level" v="-2"/>
		<tag k="bench" v="yes"/>
		<tag k="train" v="yes"/>
		<tag k="bin" v="yes"/>
		<tag k="area" v="yes"/>
		<tag k="indoor" v="yes"/>
	</way>
	<way id="42838505">
		<nd ref="4034103692"/>
		<nd ref="5247642347"/>
		<nd ref="4107429552"/>
		<nd ref="5247642346"/>
		<nd ref="4616380732"/>
		<nd ref="4616380734"/>
		<nd ref="4616380736"/>
		<nd ref="4616380721"/>
		<nd ref="4616380738"/>
		<nd ref="1236211793"/>
		<nd ref="535982120"/>
		<nd ref="4616380739"/>
		<nd ref="4616380722"/>
		<nd ref="4616380740"/>
		<nd ref="5247614182"/>
		<nd ref="4616380743"/>
		<nd ref="4616380744"/>
		<nd ref="4107429550"/>
		<nd ref="4034103683"/>
		<nd ref="4034103592"/>
		<nd ref="535982110"/>
		<nd ref="1236211789"/>
		<nd ref="5247659225"/>
		<nd ref="5247659226"/>
		<nd ref="4034103692"/>
		<tag k="railway" v="platform"/>
		<tag k="public_transport" v="platform"/>
		<tag k="level" v="-2"/>
		<tag k="bench" v="yes"/>
		<tag k="train" v="yes"/>
		<tag k="bin" v="yes"/>
		<tag k="area" v="yes"/>
		<tag k="indoor" v="yes"/>
	</way>
	<way id="42857251">
		<nd ref="536400522"/>
		<nd ref="5236560548"/>
		<nd ref="536400559"/>
		<nd ref="536400555"/>
		<nd ref="3396952662"/>
		<nd ref="536400561"/>
		<nd ref="536400539"/>
		<nd ref="3617808877"/>
		<tag k="railway" v="light_rail"/>
		<tag k="commuting" v="yes"/>
		<tag k="service" v="yard"/>
		<tag k="lines" v="S11;S31"/>
		<tag k="railway:track_ref" v="15"/>
	</way>
	<way id="42857252">
		<nd ref="536400523"/>
		<nd ref="5236560544"/>
		<nd ref="5236560543"/>
		<nd ref="3319091871"/>
		<nd ref="1686600825"/>
		<nd ref="536400559"/>
		<nd ref="536400556"/>
		<nd ref="3396952661"/>
		<nd ref="5247888108"/>
		<nd ref="536400532"/>
		<nd ref="536400546"/>
		<nd ref="3617809317"/>
		<tag k="railway" v="light_rail"/>
		<tag k="commuting" v="yes"/>
		<tag k="service" v="yard"/>
		<tag k="lines" v="S11;S31"/>
		<tag k="railway:track_ref" v="14"/>
	</way>
	<way id="42857254">
		<nd ref="536400525"/>
		<nd ref="536400558"/>
		<nd ref="1686600827"/>
		<nd ref="536400565"/>
		<nd ref="536400566"/>
		<nd ref="1686600841"/>
		<nd ref="536400574"/>
		<nd ref="3396952667"/>
		<nd ref="536400576"/>
		<nd ref="536400586"/>
		<nd ref="536400587"/>
		<nd ref="536400542"/>
		<nd ref="536400551"/>
		<nd ref="-20858306"/>
		<tag k="railway" v="light_rail"/>
		<tag k="commuting" v="yes"/>
		<tag k="service" v="yard"/>
	</way>
	<way id="42857256">
		<nd ref="536400563"/>
		<nd ref="536400571"/>
		<nd ref="3396952665"/>
		<nd ref="536400577"/>
		<nd ref="3639361803"/>
		<nd ref="536400533"/>
		<nd ref="536400553"/>
		<nd ref="1240254605"/>
		<nd ref="536400550"/>
		<nd ref="3617809318"/>
		<tag k="railway" v="light_rail"/>
		<tag k="commuting" v="yes"/>
		<tag k="railway:traffic_mode" v="passenger"/>
		<tag k="service" v="yard"/>
		<tag k="railway:track_ref" v="25"/>
	</way>
	<way id="42857257">
		<nd ref="536400565"/>
		<nd ref="536400568"/>
		<nd ref="536400573"/>
		<nd ref="536400580"/>
		<nd ref="3396952669"/>
		<nd ref="536400579"/>
		<nd ref="536400589"/>
		<nd ref="3639361806"/>
		<nd ref="536400588"/>
		<nd ref="1240250282"/>
		<nd ref="536400554"/>
		<nd ref="3617808886"/>
		<tag k="railway" v="light_rail"/>
		<tag k="commuting" v="yes"/>
		<tag k="railway:traffic_mode" v="passenger"/>
		<tag k="service" v="yard"/>
		<tag k="railway:track_ref" v="28"/>
	</way>
	<way id="42857258">
		<nd ref="536400563"/>
		<nd ref="536400572"/>
		<nd ref="536400570"/>
		<nd ref="3396952666"/>
		<nd ref="1686600844"/>
		<nd ref="536400582"/>
		<nd ref="3639361796"/>
		<nd ref="536400534"/>
		<nd ref="536400544"/>
		<nd ref="3617808879"/>
		<tag k="railway" v="light_rail"/>
		<tag k="commuting" v="yes"/>
		<tag k="railway:traffic_mode" v="passenger"/>
		<tag k="service" v="yard"/>
		<tag k="railway:track_ref" v="26"/>
	</way>
	<way id="42857260">
		<nd ref="536400573"/>
		<nd ref="536400584"/>
		<nd ref="3396952668"/>
		<nd ref="3639361798"/>
		<nd ref="536400545"/>
		<nd ref="3617808878"/>
		<tag k="railway" v="light_rail"/>
		<tag k="commuting" v="yes"/>
		<tag k="railway:traffic_mode" v="passenger"/>
		<tag k="service" v="yard"/>
		<tag k="railway:track_ref" v="27"/>
	</way>
	<way id="42873615">
		<nd ref="4107429565"/>
		<nd ref="4107429587"/>
		<nd ref="4027489510"/>
		<nd ref="4107441494"/>
		<nd ref="4027489514"/>
		<nd ref="4107441502"/>
		<nd ref="4107441504"/>
		<nd ref="536705550"/>
		<nd ref="6018887157"/>
		<nd ref="4027489517"/>
		<nd ref="4107441503"/>
		<nd ref="4107441501"/>
		<nd ref="4107441491"/>
		<nd ref="4107429588"/>
		<nd ref="4107429579"/>
		<nd ref="4107429564"/>
		<nd ref="6205052821"/>
		<nd ref="536705552"/>
		<nd ref="4107429559"/>
		<nd ref="4027489494"/>
		<nd ref="6205052820"/>
		<nd ref="4107429565"/>
		<tag k="railway" v="platform"/>
		<tag k="ref" v="5;6"/>
		<tag k="public_transport" v="platform"/>
		<tag k="level" v="0"/>
		<tag k="loc_name" v="Bahnhof Altona"/>
		<tag k="bench" v="yes"/>
		<tag k="train" v="yes"/>
		<tag k="bin" v="yes"/>
		<tag k="area" v="yes"/>
	</way>
	<way id="42873617">
		<nd ref="6205052839"/>
		<nd ref="6205052835"/>
		<nd ref="6205052830"/>
		<nd ref="4107441500"/>
		<nd ref="536705554"/>
		<nd ref="4027489516"/>
		<nd ref="4027489512"/>
		<nd ref="1686600832"/>
		<nd ref="1686600824"/>
		<nd ref="6205052831"/>
		<nd ref="4107429573"/>
		<nd ref="6205052836"/>
		<nd ref="4107429569"/>
		<nd ref="6205052840"/>
		<nd ref="4107429566"/>
		<nd ref="6205052837"/>
		<nd ref="4027489492"/>
		<nd ref="4107429556"/>
		<nd ref="4027489490"/>
		<nd ref="6205052838"/>
		<nd ref="6205052839"/>
		<tag k="railway" v="platform"/>
		<tag k="ref" v="9;10"/>
		<tag k="public_transport" v="platform"/>
		<tag k="level" v="0"/>
		<tag k="loc_name" v="Bahnhof Altona"/>
		<tag k="bench" v="yes"/>
		<tag k="train" v="yes"/>
		<tag k="bin" v="yes"/>
		<tag k="area" v="yes"/>
		<tag k="tactile_paving" v="no"/>
	</way>
	<way id="51398796">
		<nd ref="656184167"/>
		<nd ref="7257372615"/>
		<nd ref="651980434"/>
		<nd ref="651980433"/>
		<nd ref="651980432"/>
		<nd ref="651980431"/>
		<nd ref="656184167"/>
		<tag k="name" v="Altona Af"/>
		<tag k="alt_name" v="Fernbahnstellwerk Altona Af"/>
		<tag k="railway" v="signal_box"/>
		<tag k="railway:ref" v="Af"/>
		<tag k="start_date" v="1995-03-13"/>
	</way>
	<way id="52829062">
		<nd ref="-20859741"/>
		<nd ref="3705280929"/>
		<nd ref="3705280928"/>
		<nd ref="1144110329"/>
		<nd ref="1686600850"/>
		<nd ref="3641000721"/>
		<nd ref="890082686"/>
		<tag k="railway" v="rail"/>
		<tag k="service" v="yard"/>
	</way>
	<way id="55951187">
		<nd ref="702367662"/>
		<nd ref="1577952129"/>
		<nd ref="1577952127"/>
		<nd ref="702367661"/>
		<nd ref="1577952128"/>
		<nd ref="702367660"/>
		<nd ref="702367663"/>
		<nd ref="702367662"/>
		<tag k="addr:street" v="Barnerstrae"/>
		<tag k="addr:postcode" v="22765"/>
		<tag k="name" v="Stellwerk Altona As"/>
		<tag k="alt_name" v="S-Bahnstellwerk Altona As"/>
		<tag k="railway" v="signal_box"/>
		<tag k="addr:housenumber" v="4c"/>
		<tag k="addr:city" v="Hamburg"/>
		<tag k="railway:ref" v="As"/>
		<tag k="addr:country" v="DE"/>
	</way>
	<way id="60195765">
		<nd ref="747674117"/>
		<nd ref="5236560562"/>
		<nd ref="5236560558"/>
		<nd ref="5247373618"/>
		<nd ref="747674116"/>
		<tag k="railway" v="light_rail"/>
		<tag k="commuting" v="yes"/>
		<tag k="railway:traffic_mode" v="passenger"/>
		<tag k="service" v="crossover"/>
		<tag k="lines" v="S11;S31"/>
	</way>
	<way id="60195766">
		<nd ref="747674119"/>
		<nd ref="5247374524"/>
		<nd ref="747674118"/>
		<tag k="railway" v="light_rail"/>
		<tag k="commuting" v="yes"/>
		<tag k="railway:traffic_mode" v="passenger"/>
		<tag k="service" v="crossover"/>
	</way>
	<way id="60195767">
		<nd ref="747674119"/>
		<nd ref="5236560556"/>
		<nd ref="206180776"/>
		<tag k="railway" v="light_rail"/>
		<tag k="commuting" v="yes"/>
		<tag k="railway:traffic_mode" v="passenger"/>
		<tag k="service" v="crossover"/>
		<tag k="lines" v="S11;S31"/>
	</way>
	<way id="60195769">
		<nd ref="747674121"/>
		<nd ref="5236560555"/>
		<nd ref="5236560553"/>
		<nd ref="26600604"/>
		<tag k="railway" v="light_rail"/>
		<tag k="ref" v="1207"/>
		<tag k="railway:traffic_mode" v="passenger"/>
		<tag k="ref:La" v="407"/>
	</way>
	<way id="60195770">
		<nd ref="747674124"/>
		<nd ref="5247374521"/>
		<nd ref="5236560560"/>
		<nd ref="747674123"/>
		<tag k="railway" v="light_rail"/>
		<tag k="commuting" v="yes"/>
		<tag k="railway:traffic_mode" v="passenger"/>
		<tag k="service" v="crossover"/>
		<tag k="lines" v="S11;S31"/>
	</way>
	<way id="60195771">
		<nd ref="747674126"/>
		<nd ref="5236560563"/>
		<nd ref="5236560559"/>
		<nd ref="747674125"/>
		<tag k="railway" v="light_rail"/>
		<tag k="commuting" v="yes"/>
		<tag k="railway:traffic_mode" v="passenger"/>
		<tag k="service" v="crossover"/>
		<tag k="lines" v="S11;S31"/>
	</way>
	<way id="75378230">
		<nd ref="890071055"/>
		<nd ref="-20859694"/>
		<tag k="railway" v="rail"/>
		<tag k="service" v="yard"/>
		<tag k="railway:track_ref" v="461"/>
	</way>
	<way id="75378469">
		<nd ref="-20859842"/>
		<nd ref="890071055"/>
		<tag k="railway" v="rail"/>
		<tag k="service" v="yard"/>
	</way>
	<way id="75378570">
		<nd ref="3639361807"/>
		<nd ref="3639361805"/>
		<nd ref="890074746"/>
		<tag k="railway" v="disused"/>
		<tag k="service" v="yard"/>
		<tag k="railway:track_ref" v="460"/>
		<tag k="disused:railway" v="rail"/>
	</way>
	<way id="75378904">
		<nd ref="52649223"/>
		<nd ref="890457184"/>
		<tag k="railway" v="rail"/>
		<tag k="service" v="yard"/>
	</way>
	<way id="75378938">
		<nd ref="890074746"/>
		<nd ref="890075565"/>
		<tag k="railway" v="disused"/>
		<tag k="service" v="yard"/>
		<tag k="disused:railway" v="rail"/>
	</way>
	<way id="75379063">
		<nd ref="890071055"/>
		<nd ref="1240250433"/>
		<nd ref="3705280925"/>
		<nd ref="52649221"/>
		<tag k="railway" v="rail"/>
		<tag k="service" v="yard"/>
	</way>
	<way id="75408265">
		<nd ref="52648960"/>
		<nd ref="3640991791"/>
		<nd ref="1686600847"/>
		<nd ref="890466399"/>
		<nd ref="1240250414"/>
		<nd ref="890434420"/>
		<tag k="railway" v="rail"/>
		<tag k="service" v="crossover"/>
	</way>
	<way id="75408279">
		<nd ref="31167170"/>
		<nd ref="5247888250"/>
		<nd ref="1240250405"/>
		<nd ref="890466399"/>
		<nd ref="3641079637"/>
		<nd ref="890434036"/>
		<tag k="railway" v="rail"/>
		<tag k="service" v="crossover"/>
	</way>
	<way id="75408304">
		<nd ref="1686600811"/>
		<nd ref="4126318177"/>
		<nd ref="4126319889"/>
		<nd ref="4081693843"/>
		<nd ref="2991308526"/>
		<nd ref="4081693844"/>
		<nd ref="3705279399"/>
		<nd ref="3705279401"/>
		<nd ref="3705279405"/>
		<nd ref="6205052832"/>
		<nd ref="890438505"/>
		<nd ref="3705279409"/>
		<nd ref="3705279410"/>
		<nd ref="890438461"/>
		<tag k="railway" v="rail"/>
		<tag k="ref" v="1231"/>
		<tag k="railway:traffic_mode" v="passenger"/>
		<tag k="railway:track_ref" v="7"/>
		<tag k="usage" v="main"/>
		<tag k="level" v="0"/>
	</way>
	<way id="75408342">
		<nd ref="890438461"/>
		<nd ref="5247888251"/>
		<nd ref="890438438"/>
		<tag k="railway" v="rail"/>
		<tag k="railway:traffic_mode" v="passenger"/>
		<tag k="service" v="crossover"/>
	</way>
	<way id="75408344">
		<nd ref="890438546"/>
		<nd ref="5247888253"/>
		<nd ref="5247888252"/>
		<nd ref="890438505"/>
		<tag k="railway" v="rail"/>
		<tag k="railway:traffic_mode" v="passenger"/>
		<tag k="service" v="crossover"/>
	</way>
	<way id="75408368">
		<nd ref="890440541"/>
		<nd ref="5247888249"/>
		<nd ref="1240250327"/>
		<nd ref="890441020"/>
		<nd ref="3705279424"/>
		<nd ref="52649221"/>
		<tag k="railway" v="rail"/>
		<tag k="service" v="yard"/>
	</way>
	<way id="75408659">
		<nd ref="52648960"/>
		<nd ref="1686600848"/>
		<nd ref="3640992004"/>
		<nd ref="890466537"/>
		<nd ref="890434036"/>
		<nd ref="52648958"/>
		<nd ref="1240250368"/>
		<nd ref="52648957"/>
		<nd ref="1240250425"/>
		<nd ref="890445944"/>
		<tag k="railway" v="rail"/>
		<tag k="ref" v="1220"/>
		<tag k="usage" v="main"/>
	</way>
	<way id="75410058">
		<nd ref="1240250288"/>
		<nd ref="31167171"/>
		<tag k="railway" v="rail"/>
		<tag k="service" v="crossover"/>
	</way>
	<way id="75412109">
		<nd ref="890464586"/>
		<nd ref="52643939"/>
		<tag k="railway" v="rail"/>
		<tag k="service" v="crossover"/>
	</way>
	<way id="75412157">
		<nd ref="890465093"/>
		<nd ref="2238302779"/>
		<nd ref="52649185"/>
		<tag k="railway" v="rail"/>
		<tag k="service" v="crossover"/>
	</way>
	<way id="75412691">
		<nd ref="1686600808"/>
		<nd ref="4126318174"/>
		<nd ref="4126318186"/>
		<nd ref="2991308522"/>
		<nd ref="3705310838"/>
		<nd ref="3705310842"/>
		<nd ref="3705310843"/>
		<nd ref="3702655388"/>
		<nd ref="3705279413"/>
		<nd ref="890464586"/>
		<tag k="railway" v="rail"/>
		<tag k="ref" v="1231"/>
		<tag k="railway:traffic_mode" v="passenger"/>
		<tag k="railway:track_ref" v="10"/>
		<tag k="usage" v="main"/>
		<tag k="level" v="0"/>
	</way>
	<way id="75412903">
		<nd ref="52643939"/>
		<nd ref="3695388862"/>
		<nd ref="2238302775"/>
		<nd ref="50792022"/>
		<tag k="railway" v="rail"/>
		<tag k="service" v="crossover"/>
	</way>
	<way id="75413031">
		<nd ref="52643696"/>
		<nd ref="1238568574"/>
		<tag k="railway" v="rail"/>
		<tag k="service" v="yard"/>
	</way>
	<way id="75413171">
		<nd ref="890464855"/>
		<nd ref="2238302779"/>
		<nd ref="890464449"/>
		<tag k="railway" v="rail"/>
		<tag k="service" v="crossover"/>
	</way>
	<way id="75413326">
		<nd ref="890463535"/>
		<nd ref="2238302775"/>
		<nd ref="52649185"/>
		<tag k="railway" v="rail"/>
		<tag k="service" v="crossover"/>
	</way>
	<way id="75413374">
		<nd ref="890465378"/>
		<nd ref="52649006"/>
		<tag k="railway" v="rail"/>
		<tag k="service" v="crossover"/>
	</way>
	<way id="75414105">
		<nd ref="890470462"/>
		<nd ref="890470459"/>
		<nd ref="3695388860"/>
		<nd ref="50792021"/>
		<tag k="railway" v="rail"/>
		<tag k="ref" v="130"/>
		<tag k="service" v="yard"/>
		<tag k="railway:track_ref" v="130"/>
	</way>
	<way id="75414228">
		<nd ref="890475329"/>
		<nd ref="2238244043"/>
		<nd ref="890475181"/>
		<tag k="railway" v="rail"/>
		<tag k="railway:traffic_mode" v="passenger"/>
		<tag k="service" v="crossover"/>
	</way>
	<way id="75414230">
		<nd ref="890475429"/>
		<nd ref="890475510"/>
		<tag k="railway" v="rail"/>
		<tag k="railway:traffic_mode" v="passenger"/>
		<tag k="service" v="crossover"/>
	</way>
	<way id="75414283">
		<nd ref="890440541"/>
		<nd ref="1240250436"/>
		<nd ref="1144110451"/>
		<nd ref="1240250431"/>
		<nd ref="890440629"/>
		<tag k="railway" v="rail"/>
		<tag k="service" v="siding"/>
	</way>
	<way id="75414303">
		<nd ref="890440628"/>
		<nd ref="1240250436"/>
		<nd ref="890441020"/>
		<tag k="railway" v="rail"/>
		<tag k="service" v="yard"/>
	</way>
	<way id="75414443">
		<nd ref="-20859751"/>
		<nd ref="890483904"/>
		<tag k="railway" v="rail"/>
		<tag k="service" v="yard"/>
		<tag k="railway:track_ref" v="482"/>
	</way>
	<way id="75414450">
		<nd ref="890465093"/>
		<nd ref="890807582"/>
		<nd ref="890807305"/>
		<nd ref="-20859749"/>
		<tag k="railway" v="rail"/>
		<tag k="service" v="yard"/>
	</way>
	<way id="75414483">
		<nd ref="890465093"/>
		<nd ref="890483904"/>
		<tag k="railway" v="rail"/>
		<tag k="ref" v="1231"/>
		<tag k="usage" v="main"/>
	</way>
	<way id="75414495">
		<nd ref="890483904"/>
		<nd ref="52652096"/>
		<nd ref="-20859747"/>
		<tag k="railway" v="rail"/>
		<tag k="ref" v="1231"/>
		<tag k="railway:track_ref" v="484"/>
		<tag k="usage" v="main"/>
	</way>
	<way id="75446181">
		<nd ref="1238568574"/>
		<nd ref="1144110530"/>
		<nd ref="3705280926"/>
		<nd ref="3705310844"/>
		<nd ref="890819867"/>
		<tag k="railway" v="rail"/>
		<tag k="service" v="yard"/>
	</way>
	<way id="75446326">
		<nd ref="890475429"/>
		<nd ref="3705279400"/>
		<nd ref="1686600822"/>
		<nd ref="3705279406"/>
		<nd ref="3705279412"/>
		<nd ref="2238244040"/>
		<nd ref="3705279419"/>
		<nd ref="890475181"/>
		<tag k="railway" v="rail"/>
		<tag k="railway:traffic_mode" v="passenger"/>
		<tag k="service" v="siding"/>
		<tag k="railway:track_ref" v="8"/>
	</way>
	<way id="75446402">
		<nd ref="52649221"/>
		<nd ref="3639424413"/>
		<nd ref="52649223"/>
		<nd ref="890452381"/>
		<tag k="railway" v="rail"/>
		<tag k="service" v="yard"/>
	</way>
	<way id="75451143">
		<nd ref="-20859714"/>
		<nd ref="3702655394"/>
		<nd ref="890807582"/>
		<tag k="railway" v="rail"/>
		<tag k="service" v="yard"/>
		<tag k="railway:track_ref" v="481"/>
	</way>
	<way id="75451952">
		<nd ref="890819867"/>
		<nd ref="3705310845"/>
		<nd ref="1245550145"/>
		<nd ref="-20859704"/>
		<tag k="railway" v="rail"/>
		<tag k="service" v="yard"/>
		<tag k="railway:track_ref" v="462"/>
	</way>
	<way id="77339546">
		<nd ref="890464449"/>
		<nd ref="890465093"/>
		<tag k="railway" v="rail"/>
		<tag k="ref" v="1231"/>
		<tag k="usage" v="main"/>
	</way>
	<way id="77339553">
		<nd ref="890475429"/>
		<nd ref="3705310841"/>
		<nd ref="3705310839"/>
		<nd ref="2991308525"/>
		<nd ref="4126318188"/>
		<nd ref="4126318176"/>
		<nd ref="1686600810"/>
		<tag k="railway" v="rail"/>
		<tag k="railway:traffic_mode" v="passenger"/>
		<tag k="service" v="siding"/>
		<tag k="railway:track_ref" v="8"/>
		<tag k="level" v="0"/>
	</way>
	<way id="77339556">
		<nd ref="3640992006"/>
		<nd ref="3038826840"/>
		<nd ref="3705279422"/>
		<nd ref="52643696"/>
		<nd ref="3705279414"/>
		<nd ref="3641079636"/>
		<nd ref="890475329"/>
		<tag k="railway" v="rail"/>
		<tag k="railway:traffic_mode" v="passenger"/>
		<tag k="service" v="siding"/>
		<tag k="railway:track_ref" v="9"/>
	</way>
	<way id="86434058">
		<nd ref="-20859718"/>
		<nd ref="3702655395"/>
		<nd ref="1144110294"/>
		<nd ref="890465378"/>
		<tag k="railway" v="rail"/>
		<tag k="ref" v="1220"/>
		<tag k="railway:track_ref" v="492"/>
		<tag k="usage" v="main"/>
	</way>
	<way id="98895543">
		<nd ref="1144110530"/>
		<nd ref="1144110486"/>
		<nd ref="3705280927"/>
		<nd ref="2238302773"/>
		<nd ref="1144110317"/>
		<tag k="railway" v="rail"/>
		<tag k="service" v="yard"/>
		<tag k="railway:track_ref" v="72"/>
	</way>
	<way id="108591083">
		<nd ref="1238568574"/>
		<nd ref="52649220"/>
		<nd ref="52649183"/>
		<nd ref="2238302781"/>
		<nd ref="1144110317"/>
		<tag k="railway" v="rail"/>
		<tag k="ref" v="463"/>
		<tag k="service" v="yard"/>
	</way>
	<way id="121380696">
		<nd ref="-20858282"/>
		<nd ref="535951171"/>
		<nd ref="535951169"/>
		<nd ref="535951158"/>
		<nd ref="1240254603"/>
		<nd ref="5236560541"/>
		<nd ref="1240254600"/>
		<tag k="name" v="City-S-Bahn"/>
		<tag k="railway" v="light_rail"/>
		<tag k="ref" v="1270"/>
		<tag k="ref:La" v="407"/>
		<tag k="usage" v="main"/>
	</way>
	<way id="133130813">
		<nd ref="890464449"/>
		<nd ref="3695388863"/>
		<nd ref="3705279421"/>
		<nd ref="890464586"/>
		<tag k="railway" v="rail"/>
		<tag k="ref" v="1231"/>
		<tag k="usage" v="main"/>
	</way>
	<way id="133130814">
		<nd ref="890464855"/>
		<nd ref="52649006"/>
		<tag k="name" v="Verbindungsbahn"/>
		<tag k="railway" v="rail"/>
		<tag k="ref" v="6100"/>
		<tag k="usage" v="main"/>
	</way>
	<way id="145689821">
		<nd ref="-20859682"/>
		<nd ref="1590594545"/>
		<nd ref="52649006"/>
		<tag k="name" v="Verbindungsbahn"/>
		<tag k="railway" v="rail"/>
		<tag k="ref" v="6100"/>
		<tag k="railway:track_ref" v="490"/>
		<tag k="usage" v="main"/>
		<tag k="tracks" v="2"/>
		<tag k="passenger_lines" v="2"/>
	</way>
	<way id="156416550">
		<nd ref="1686600827"/>
		<nd ref="1686600834"/>
		<tag k="railway" v="rail"/>
		<tag k="service" v="crossover"/>
	</way>
	<way id="206513855">
		<nd ref="5247888229"/>
		<nd ref="2165248088"/>
		<nd ref="5247888224"/>
		<nd ref="5247888223"/>
		<nd ref="2165248090"/>
		<nd ref="7060683013"/>
		<nd ref="2165248085"/>
		<nd ref="3702655387"/>
		<nd ref="7060683014"/>
		<nd ref="2165248081"/>
		<nd ref="2165248083"/>
		<nd ref="5247792681"/>
		<nd ref="2165248082"/>
		<nd ref="2165248084"/>
		<nd ref="2165225465"/>
		<nd ref="5247792682"/>
		<nd ref="3646676591"/>
		<nd ref="282330113"/>
		<tag k="name" v="Altonaer Hafenbahn"/>
		<tag k="railway" v="disused"/>
	</way>
	<way id="214220438">
		<nd ref="52648960"/>
		<nd ref="1686600834"/>
		<tag k="railway" v="rail"/>
		<tag k="ref" v="1220"/>
		<tag k="railway:traffic_mode" v="passenger"/>
		<tag k="usage" v="main"/>
	</way>
	<way id="214243325">
		<nd ref="3639361799"/>
		<nd ref="890768194"/>
		<nd ref="3705279423"/>
		<nd ref="890768054"/>
		<tag k="railway" v="disused"/>
		<tag k="service" v="yard"/>
		<tag k="railway:track_ref" v="400"/>
	</way>
	<way id="214250400">
		<nd ref="1686600813"/>
		<nd ref="4126318179"/>
		<nd ref="4126319891"/>
		<nd ref="2991308527"/>
		<nd ref="3705279416"/>
		<nd ref="3038826839"/>
		<nd ref="1686600834"/>
		<tag k="railway" v="rail"/>
		<tag k="ref" v="1220"/>
		<tag k="railway:traffic_mode" v="passenger"/>
		<tag k="railway:track_ref" v="5"/>
		<tag k="usage" v="main"/>
		<tag k="level" v="0"/>
	</way>
	<way id="292634009">
		<nd ref="300810293"/>
		<nd ref="3477282441"/>
		<nd ref="300809500"/>
		<tag k="name" v="Altona-Blankeneser Eisenbahn"/>
		<tag k="railway" v="light_rail"/>
		<tag k="ref" v="1224"/>
		<tag k="commuting" v="yes"/>
		<tag k="railway:traffic_mode" v="passenger"/>
		<tag k="usage" v="branch"/>
		<tag k="level" v="-2"/>
	</way>
	<way id="292634013">
		<nd ref="300810299"/>
		<nd ref="3477282440"/>
		<nd ref="5247659227"/>
		<nd ref="5247659228"/>
		<nd ref="300809530"/>
		<tag k="name" v="City-S-Bahn"/>
		<tag k="railway" v="light_rail"/>
		<tag k="ref" v="1270"/>
		<tag k="railway:traffic_mode" v="passenger"/>
		<tag k="ref:La" v="407"/>
		<tag k="usage" v="main"/>
		<tag k="level" v="-2"/>
	</way>
	<way id="292634027">
		<nd ref="-20850409"/>
		<nd ref="2961708351"/>
		<nd ref="2961708347"/>
		<nd ref="2961708334"/>
		<tag k="name" v="City-S-Bahn"/>
		<tag k="railway" v="light_rail"/>
		<tag k="ref" v="1270"/>
		<tag k="railway:traffic_mode" v="passenger"/>
		<tag k="ref:La" v="407"/>
		<tag k="usage" v="main"/>
		<tag k="level" v="-2"/>
	</way>
	<way id="292634031">
		<nd ref="300810299"/>
		<nd ref="2961708349"/>
		<nd ref="2961708353"/>
		<nd ref="-20850411"/>
		<tag k="name" v="City-S-Bahn"/>
		<tag k="railway" v="light_rail"/>
		<tag k="ref" v="1270"/>
		<tag k="railway:traffic_mode" v="passenger"/>
		<tag k="ref:La" v="407"/>
		<tag k="usage" v="main"/>
		<tag k="level" v="-2"/>
	</way>
	<way id="292634033">
		<nd ref="2961708347"/>
		<nd ref="5247687750"/>
		<nd ref="5247687751"/>
		<nd ref="2961708346"/>
		<nd ref="300810293"/>
		<tag k="name" v="Altona-Blankeneser Eisenbahn"/>
		<tag k="railway" v="light_rail"/>
		<tag k="ref" v="1224"/>
		<tag k="railway:traffic_mode" v="passenger"/>
		<tag k="usage" v="branch"/>
		<tag k="level" v="-2"/>
	</way>
	<way id="292634037">
		<nd ref="535951143"/>
		<nd ref="2961708348"/>
		<nd ref="5247687756"/>
		<nd ref="5247687755"/>
		<nd ref="2961708349"/>
		<tag k="name" v="Altona-Blankeneser Eisenbahn"/>
		<tag k="railway" v="light_rail"/>
		<tag k="ref" v="1224"/>
		<tag k="railway:traffic_mode" v="passenger"/>
		<tag k="usage" v="branch"/>
		<tag k="level" v="-2"/>
	</way>
	<way id="292634039">
		<nd ref="2961708350"/>
		<nd ref="5247687754"/>
		<nd ref="2961708348"/>
		<tag k="railway" v="light_rail"/>
		<tag k="railway:traffic_mode" v="passenger"/>
		<tag k="service" v="yard"/>
		<tag k="level" v="-2"/>
	</way>
	<way id="292634042">
		<nd ref="2961708352"/>
		<nd ref="2961708353"/>
		<tag k="railway" v="light_rail"/>
		<tag k="railway:traffic_mode" v="passenger"/>
		<tag k="service" v="crossover"/>
		<tag k="level" v="-2"/>
	</way>
	<way id="292634045">
		<nd ref="2961708352"/>
		<nd ref="-20850407"/>
		<tag k="railway" v="light_rail"/>
		<tag k="railway:traffic_mode" v="passenger"/>
		<tag k="service" v="yard"/>
		<tag k="level" v="-2"/>
	</way>
	<way id="292634050">
		<nd ref="2961708346"/>
		<nd ref="2961708350"/>
		<tag k="railway" v="light_rail"/>
		<tag k="railway:traffic_mode" v="passenger"/>
		<tag k="service" v="yard"/>
		<tag k="level" v="-2"/>
	</way>
	<way id="325239885">
		<nd ref="3319091871"/>
		<nd ref="3396952660"/>
		<nd ref="3319091873"/>
		<nd ref="3319091874"/>
		<nd ref="3319091875"/>
		<nd ref="3319091876"/>
		<nd ref="3319091878"/>
		<tag k="railway" v="light_rail"/>
		<tag k="service" v="yard"/>
		<tag k="lines" v="S11;S31"/>
		<tag k="railway:track_ref" v="16"/>
	</way>
	<way id="325239886">
		<nd ref="3319091877"/>
		<nd ref="52702813"/>
		<nd ref="52702811"/>
		<nd ref="4781477213"/>
		<nd ref="4781477212"/>
		<nd ref="4781477211"/>
		<nd ref="52702809"/>
		<tag k="name" v="Verbindungsbahn"/>
		<tag k="railway" v="light_rail"/>
		<tag k="ref" v="1240"/>
		<tag k="commuting" v="yes"/>
		<tag k="lines" v="S11;S31"/>
		<tag k="usage" v="main"/>
	</way>
	<way id="332548439">
		<nd ref="3396952654"/>
		<nd ref="3396952650"/>
		<tag k="railway" v="light_rail"/>
		<tag k="commuting" v="yes"/>
		<tag k="railway:traffic_mode" v="passenger"/>
		<tag k="service" v="crossover"/>
		<tag k="lines" v="S11;S31"/>
	</way>
	<way id="332548440">
		<nd ref="5236560564"/>
		<nd ref="3396952647"/>
		<tag k="railway" v="light_rail"/>
		<tag k="commuting" v="yes"/>
		<tag k="railway:traffic_mode" v="passenger"/>
		<tag k="service" v="crossover"/>
		<tag k="lines" v="S11;S31"/>
		<tag k="level" v="-1"/>
	</way>
	<way id="332548441">
		<nd ref="3396952655"/>
		<nd ref="3396952651"/>
		<tag k="railway" v="light_rail"/>
		<tag k="commuting" v="yes"/>
		<tag k="railway:traffic_mode" v="passenger"/>
		<tag k="service" v="crossover"/>
		<tag k="lines" v="S11;S31"/>
	</way>
	<way id="332548442">
		<nd ref="3396952650"/>
		<nd ref="5236560539"/>
		<nd ref="5236560538"/>
		<nd ref="4616380709"/>
		<tag k="railway" v="light_rail"/>
		<tag k="commuting" v="yes"/>
		<tag k="railway:traffic_mode" v="passenger"/>
		<tag k="service" v="crossover"/>
		<tag k="lines" v="S11;S31"/>
		<tag k="level" v="-1"/>
	</way>
	<way id="332548443">
		<nd ref="3396952651"/>
		<nd ref="3396952649"/>
		<tag k="railway" v="light_rail"/>
		<tag k="commuting" v="yes"/>
		<tag k="railway:traffic_mode" v="passenger"/>
		<tag k="service" v="crossover"/>
		<tag k="lines" v="S11;S31"/>
		<tag k="level" v="-1"/>
	</way>
	<way id="359373372">
		<nd ref="52643939"/>
		<nd ref="52649185"/>
		<tag k="name" v="Verbindungsbahn"/>
		<tag k="railway" v="rail"/>
		<tag k="ref" v="6100"/>
		<tag k="railway:traffic_mode" v="passenger"/>
		<tag k="usage" v="main"/>
	</way>
	<way id="359373373">
		<nd ref="3640992006"/>
		<nd ref="890464449"/>
		<tag k="railway" v="rail"/>
		<tag k="railway:traffic_mode" v="passenger"/>
		<tag k="service" v="siding"/>
	</way>
	<way id="359373375">
		<nd ref="890465378"/>
		<nd ref="50792022"/>
		<nd ref="3702655391"/>
		<nd ref="3702655390"/>
		<nd ref="890463535"/>
		<tag k="railway" v="rail"/>
		<tag k="ref" v="1220"/>
		<tag k="railway:traffic_mode" v="passenger"/>
		<tag k="usage" v="main"/>
	</way>
	<way id="359373376">
		<nd ref="890440628"/>
		<nd ref="1144110410"/>
		<nd ref="2238244042"/>
		<nd ref="3639361800"/>
		<nd ref="1240250357"/>
		<nd ref="890440629"/>
		<tag k="railway" v="rail"/>
		<tag k="ref" v="1231"/>
		<tag k="railway:traffic_mode" v="passenger"/>
		<tag k="usage" v="main"/>
	</way>
	<way id="359373378">
		<nd ref="890438438"/>
		<nd ref="31167170"/>
		<nd ref="1686600846"/>
		<nd ref="890437110"/>
		<nd ref="1240250302"/>
		<nd ref="1240250359"/>
		<nd ref="890434420"/>
		<tag k="name" v="Verbindungsbahn"/>
		<tag k="railway" v="rail"/>
		<tag k="ref" v="6100"/>
		<tag k="railway:traffic_mode" v="passenger"/>
		<tag k="usage" v="main"/>
	</way>
	<way id="359374721">
		<nd ref="890801503"/>
		<nd ref="890819867"/>
		<tag k="railway" v="rail"/>
		<tag k="service" v="yard"/>
	</way>
	<way id="359374722">
		<nd ref="1144110530"/>
		<nd ref="890768054"/>
		<tag k="railway" v="rail"/>
		<tag k="service" v="yard"/>
	</way>
	<way id="366291135">
		<nd ref="50792022"/>
		<nd ref="3702655392"/>
		<nd ref="3702655393"/>
		<tag k="railway" v="rail"/>
		<tag k="service" v="yard"/>
	</way>
	<way id="366535372">
		<nd ref="536400563"/>
		<nd ref="536400558"/>
		<tag k="railway" v="light_rail"/>
		<tag k="commuting" v="yes"/>
		<tag k="railway:traffic_mode" v="passenger"/>
		<tag k="service" v="yard"/>
	</way>
	<way id="366538832">
		<nd ref="3639424413"/>
		<nd ref="3639424412"/>
		<nd ref="890074746"/>
		<tag k="railway" v="disused"/>
		<tag k="service" v="yard"/>
		<tag k="disused:railway" v="rail"/>
	</way>
	<way id="400912908">
		<nd ref="4034103668"/>
		<nd ref="4034103670"/>
		<nd ref="4034103677"/>
		<nd ref="4034103678"/>
		<nd ref="4034103626"/>
		<nd ref="4034103627"/>
		<nd ref="4034103668"/>
		<tag k="opening_hours" v="Mo-Fr 10:00-18:00"/>
		<tag k="name" v="HVV Service Center"/>
		<tag k="public_transport" v="service_center"/>
		<tag k="level" v="-1"/>
		<tag k="shop" v="ticket"/>
		<tag k="indoor" v="room"/>
		<tag k="ticket:public_transport" v="yes"/>
	</way>
	<way id="415383436">
		<nd ref="52649185"/>
		<nd ref="890464855"/>
		<tag k="name" v="Verbindungsbahn"/>
		<tag k="railway" v="rail"/>
		<tag k="ref" v="6100"/>
		<tag k="railway:traffic_mode" v="passenger"/>
		<tag k="usage" v="main"/>
	</way>
	<way id="415383440">
		<nd ref="890438461"/>
		<nd ref="4107441490"/>
		<nd ref="3705279420"/>
		<nd ref="890440628"/>
		<tag k="railway" v="rail"/>
		<tag k="ref" v="1231"/>
		<tag k="railway:traffic_mode" v="passenger"/>
		<tag k="railway:track_ref" v="7"/>
		<tag k="usage" v="main"/>
	</way>
	<way id="416499770">
		<nd ref="890440629"/>
		<nd ref="1240250288"/>
		<tag k="railway" v="rail"/>
		<tag k="ref" v="1231"/>
		<tag k="railway:traffic_mode" v="passenger"/>
		<tag k="usage" v="main"/>
	</way>
	<way id="424522567">
		<nd ref="890434420"/>
		<nd ref="31167171"/>
		<tag k="name" v="Verbindungsbahn"/>
		<tag k="railway" v="rail"/>
		<tag k="ref" v="6100"/>
		<tag k="railway:traffic_mode" v="passenger"/>
		<tag k="usage" v="main"/>
	</way>
	<way id="456111450">
		<nd ref="2961708350"/>
		<nd ref="5247687752"/>
		<nd ref="2961708351"/>
		<tag k="railway" v="light_rail"/>
		<tag k="railway:traffic_mode" v="passenger"/>
		<tag k="service" v="crossover"/>
		<tag k="level" v="-2"/>
	</way>
	<way id="464143969">
		<nd ref="890440541"/>
		<nd ref="2238244035"/>
		<nd ref="4107441498"/>
		<nd ref="890475181"/>
		<tag k="railway" v="rail"/>
		<tag k="railway:traffic_mode" v="passenger"/>
		<tag k="service" v="siding"/>
		<tag k="railway:track_ref" v="8"/>
	</way>
	<way id="464143970">
		<nd ref="890475329"/>
		<nd ref="3705279407"/>
		<nd ref="890475510"/>
		<tag k="railway" v="rail"/>
		<tag k="railway:traffic_mode" v="passenger"/>
		<tag k="service" v="siding"/>
		<tag k="railway:track_ref" v="9"/>
	</way>
	<way id="466940236">
		<nd ref="300809530"/>
		<nd ref="4616380731"/>
		<nd ref="4616380735"/>
		<nd ref="3158071952"/>
		<tag k="name" v="City-S-Bahn"/>
		<tag k="railway" v="light_rail"/>
		<tag k="ref" v="1270"/>
		<tag k="railway:traffic_mode" v="passenger"/>
		<tag k="lines" v="S11;S31"/>
		<tag k="ref:La" v="407"/>
		<tag k="usage" v="main"/>
		<tag k="level" v="-2"/>
	</way>
	<way id="466940237">
		<nd ref="3158071953"/>
		<nd ref="4616380714"/>
		<nd ref="4616380745"/>
		<nd ref="535951140"/>
		<tag k="name" v="Altona-Blankeneser Eisenbahn"/>
		<tag k="railway" v="light_rail"/>
		<tag k="ref" v="1224"/>
		<tag k="commuting" v="yes"/>
		<tag k="railway:traffic_mode" v="passenger"/>
		<tag k="lines" v="S11;S31"/>
		<tag k="usage" v="branch"/>
		<tag k="level" v="-2"/>
	</way>
	<way id="466940238">
		<nd ref="3158071954"/>
		<nd ref="4616380717"/>
		<nd ref="4616380742"/>
		<nd ref="4616380746"/>
		<nd ref="300809500"/>
		<tag k="name" v="Altona-Blankeneser Eisenbahn"/>
		<tag k="railway" v="light_rail"/>
		<tag k="ref" v="1224"/>
		<tag k="commuting" v="yes"/>
		<tag k="railway:traffic_mode" v="passenger"/>
		<tag k="lines" v="S11;S31"/>
		<tag k="usage" v="branch"/>
		<tag k="level" v="-2"/>
	</way>
	<way id="466940240">
		<nd ref="3158071955"/>
		<nd ref="4616380715"/>
		<nd ref="4616380751"/>
		<nd ref="4616380750"/>
		<nd ref="535951138"/>
		<tag k="name" v="City-S-Bahn"/>
		<tag k="railway" v="light_rail"/>
		<tag k="ref" v="1270"/>
		<tag k="railway:traffic_mode" v="passenger"/>
		<tag k="lines" v="S11;S31"/>
		<tag k="ref:La" v="407"/>
		<tag k="usage" v="main"/>
		<tag k="level" v="-2"/>
	</way>
	<way id="541552414">
		<nd ref="747674119"/>
		<nd ref="536400523"/>
		<nd ref="535951150"/>
		<nd ref="535951187"/>
		<nd ref="535951191"/>
		<tag k="name" v="Altona-Blankeneser Eisenbahn"/>
		<tag k="railway" v="light_rail"/>
		<tag k="ref" v="1224"/>
		<tag k="commuting" v="yes"/>
		<tag k="railway:traffic_mode" v="passenger"/>
		<tag k="lines" v="S11;S31"/>
		<tag k="usage" v="branch"/>
	</way>
	<way id="541552415">
		<nd ref="2961708350"/>
		<nd ref="2961708352"/>
		<tag k="railway" v="light_rail"/>
		<tag k="railway:traffic_mode" v="passenger"/>
		<tag k="service" v="yard"/>
		<tag k="level" v="-2"/>
	</way>
	<way id="541552416">
		<nd ref="747674121"/>
		<nd ref="535951148"/>
		<tag k="name" v="Altona-Blankeneser Eisenbahn"/>
		<tag k="railway" v="light_rail"/>
		<tag k="ref" v="1224"/>
		<tag k="commuting" v="yes"/>
		<tag k="railway:traffic_mode" v="passenger"/>
		<tag k="lines" v="S11;S31"/>
		<tag k="usage" v="branch"/>
	</way>
	<way id="541552417">
		<nd ref="3396952652"/>
		<nd ref="5236560564"/>
		<tag k="railway" v="light_rail"/>
		<tag k="commuting" v="yes"/>
		<tag k="railway:traffic_mode" v="passenger"/>
		<tag k="service" v="crossover"/>
		<tag k="lines" v="S11;S31"/>
	</way>
	<way id="628028612">
		<nd ref="1686600814"/>
		<nd ref="50792016"/>
		<nd ref="5247792692"/>
		<tag k="railway" v="rail"/>
		<tag k="ref" v="1220"/>
		<tag k="railway:traffic_mode" v="passenger"/>
		<tag k="railway:track_ref" v="12"/>
		<tag k="usage" v="main"/>
		<tag k="level" v="0"/>
	</way>
	<way id="628028614">
		<nd ref="890439784"/>
		<nd ref="1686600810"/>
		<tag k="railway" v="rail"/>
		<tag k="railway:traffic_mode" v="passenger"/>
		<tag k="service" v="siding"/>
		<tag k="railway:track_ref" v="8"/>
		<tag k="level" v="0"/>
	</way>
	<way id="638451288">
		<nd ref="656590415"/>
		<nd ref="4126318163"/>
		<nd ref="4126318170"/>
		<nd ref="4126318171"/>
		<nd ref="1686600809"/>
		<tag k="railway" v="rail"/>
		<tag k="railway:traffic_mode" v="passenger"/>
		<tag k="service" v="siding"/>
		<tag k="railway:track_ref" v="9"/>
		<tag k="level" v="0"/>
	</way>
	<way id="638668139">
		<nd ref="31167162"/>
		<nd ref="6741828038"/>
		<nd ref="3755862321"/>
		<nd ref="4126318172"/>
		<nd ref="1686600812"/>
		<tag k="name" v="Verbindungsbahn"/>
		<tag k="railway" v="rail"/>
		<tag k="ref" v="6100"/>
		<tag k="railway:traffic_mode" v="passenger"/>
		<tag k="railway:track_ref" v="6"/>
		<tag k="usage" v="main"/>
		<tag k="level" v="0"/>
	</way>
	<way id="638668145">
		<nd ref="1686600813"/>
		<nd ref="52648964"/>
		<tag k="railway" v="rail"/>
		<tag k="ref" v="1220"/>
		<tag k="railway:traffic_mode" v="passenger"/>
		<tag k="railway:track_ref" v="5"/>
		<tag k="usage" v="main"/>
		<tag k="level" v="0"/>
	</way>
	<way id="639357907">
		<nd ref="1686600808"/>
		<nd ref="4126318164"/>
		<nd ref="6741828036"/>
		<nd ref="890464448"/>
		<tag k="railway" v="rail"/>
		<tag k="ref" v="1231"/>
		<tag k="railway:traffic_mode" v="passenger"/>
		<tag k="railway:track_ref" v="10"/>
		<tag k="usage" v="main"/>
		<tag k="level" v="0"/>
	</way>
	<way id="639366296">
		<nd ref="52643938"/>
		<nd ref="6741828035"/>
		<nd ref="1686600807"/>
		<tag k="name" v="Verbindungsbahn"/>
		<tag k="railway" v="rail"/>
		<tag k="ref" v="6100"/>
		<tag k="railway:traffic_mode" v="passenger"/>
		<tag k="railway:track_ref" v="11"/>
		<tag k="usage" v="main"/>
		<tag k="level" v="0"/>
	</way>
	<way id="655325342">
		<nd ref="890437541"/>
		<nd ref="6741828037"/>
		<nd ref="4081693841"/>
		<nd ref="4126318168"/>
		<nd ref="4126318169"/>
		<nd ref="3705279397"/>
		<nd ref="3705279398"/>
		<nd ref="1686600811"/>
		<tag k="railway" v="rail"/>
		<tag k="ref" v="1231"/>
		<tag k="railway:traffic_mode" v="passenger"/>
		<tag k="railway:track_ref" v="7"/>
		<tag k="usage" v="main"/>
		<tag k="level" v="0"/>
	</way>
	<way id="662729031">
		<nd ref="6205052822"/>
		<nd ref="4107429568"/>
		<nd ref="4027489504"/>
		<nd ref="4107429575"/>
		<nd ref="4107429580"/>
		<nd ref="6205052833"/>
		<nd ref="4107429584"/>
		<nd ref="4027489511"/>
		<nd ref="4107441493"/>
		<nd ref="4027489515"/>
		<nd ref="5928826250"/>
		<nd ref="536705548"/>
		<nd ref="4107441495"/>
		<nd ref="4107441489"/>
		<nd ref="4107429581"/>
		<nd ref="4107429577"/>
		<nd ref="4107429571"/>
		<nd ref="6205052834"/>
		<nd ref="4107429570"/>
		<nd ref="6205052823"/>
		<nd ref="6205052819"/>
		<nd ref="4027489493"/>
		<nd ref="4107429558"/>
		<nd ref="4027489491"/>
		<nd ref="6205052818"/>
		<nd ref="4107429562"/>
		<nd ref="6205052822"/>
		<tag k="railway" v="platform"/>
		<tag k="ref" v="7;8"/>
		<tag k="public_transport" v="platform"/>
		<tag k="level" v="0"/>
		<tag k="loc_name" v="Bahnhof Altona"/>
		<tag k="bench" v="yes"/>
		<tag k="train" v="yes"/>
		<tag k="bin" v="yes"/>
		<tag k="area" v="yes"/>
	</way>
	<way id="662729032">
		<nd ref="6205052828"/>
		<nd ref="6205052826"/>
		<nd ref="4107429583"/>
		<nd ref="536705546"/>
		<nd ref="4107441492"/>
		<nd ref="4027489513"/>
		<nd ref="5928826245"/>
		<nd ref="1686600829"/>
		<nd ref="4107429586"/>
		<nd ref="6205052827"/>
		<nd ref="4107429578"/>
		<nd ref="6205052829"/>
		<nd ref="6205052817"/>
		<nd ref="4027489489"/>
		<nd ref="4107429557"/>
		<nd ref="4027487387"/>
		<nd ref="5247888094"/>
		<nd ref="5247888095"/>
		<nd ref="6205052816"/>
		<nd ref="6205052828"/>
		<tag k="railway" v="platform"/>
		<tag k="ref" v="11;12"/>
		<tag k="public_transport" v="platform"/>
		<tag k="level" v="0"/>
		<tag k="surface" v="paving_stones"/>
		<tag k="loc_name" v="Bahnhof Altona"/>
		<tag k="bench" v="yes"/>
		<tag k="train" v="yes"/>
		<tag k="bin" v="yes"/>
		<tag k="area" v="yes"/>
		<tag k="tactile_paving" v="no"/>
	</way>
	<way id="662834900">
		<nd ref="6205052816"/>
		<nd ref="6205052828"/>
		<nd ref="6205052826"/>
		<nd ref="4107429583"/>
		<nd ref="536705546"/>
		<nd ref="4027489513"/>
		<tag k="railway" v="platform_edge"/>
		<tag k="ref" v="12"/>
		<tag k="tactile_paving" v="no"/>
	</way>
	<way id="662834901">
		<nd ref="1686600829"/>
		<nd ref="4107429586"/>
		<nd ref="6205052827"/>
		<nd ref="6205052829"/>
		<nd ref="6205052817"/>
		<tag k="railway" v="platform_edge"/>
		<tag k="ref" v="11"/>
		<tag k="tactile_paving" v="no"/>
	</way>
	<way id="662834902">
		<nd ref="6205052818"/>
		<nd ref="6205052822"/>
		<nd ref="4107429568"/>
		<nd ref="4027489504"/>
		<nd ref="4107429580"/>
		<nd ref="6205052833"/>
		<nd ref="4027489511"/>
		<nd ref="4107441493"/>
		<nd ref="4027489515"/>
		<tag k="railway" v="platform_edge"/>
		<tag k="ref" v="8"/>
		<tag k="tactile_paving" v="no"/>
	</way>
	<way id="662834903">
		<nd ref="536705548"/>
		<nd ref="4107441495"/>
		<nd ref="4107441489"/>
		<nd ref="4107429581"/>
		<nd ref="6205052834"/>
		<nd ref="6205052823"/>
		<nd ref="6205052819"/>
		<tag k="railway" v="platform_edge"/>
		<tag k="ref" v="7"/>
		<tag k="tactile_paving" v="no"/>
	</way>
	<way id="662834904">
		<nd ref="6205052820"/>
		<nd ref="4107429587"/>
		<nd ref="4107441494"/>
		<nd ref="4027489514"/>
		<nd ref="4107441504"/>
		<nd ref="536705550"/>
		<tag k="railway" v="platform_edge"/>
		<tag k="ref" v="6"/>
	</way>
	<way id="662834905">
		<nd ref="6205052821"/>
		<nd ref="4107441501"/>
		<nd ref="4027489517"/>
		<tag k="railway" v="platform_edge"/>
		<tag k="ref" v="5"/>
	</way>
	<way id="662834906">
		<nd ref="4027489516"/>
		<nd ref="4027489512"/>
		<nd ref="1686600832"/>
		<nd ref="1686600824"/>
		<nd ref="6205052831"/>
		<nd ref="4107429573"/>
		<nd ref="6205052836"/>
		<nd ref="4107429569"/>
		<nd ref="6205052840"/>
		<nd ref="6205052837"/>
		<tag k="railway" v="platform_edge"/>
		<tag k="ref" v="9"/>
		<tag k="tactile_paving" v="no"/>
	</way>
	<way id="662834907">
		<nd ref="6205052838"/>
		<nd ref="6205052839"/>
		<nd ref="6205052835"/>
		<nd ref="6205052830"/>
		<nd ref="4107441500"/>
		<nd ref="536705554"/>
		<tag k="railway" v="platform_edge"/>
		<tag k="ref" v="10"/>
		<tag k="tactile_paving" v="no"/>
	</way>
	<way id="842481505">
		<nd ref="-20858288"/>
		<nd ref="890451459"/>
		<nd ref="1240250429"/>
		<nd ref="1240250288"/>
		<tag k="railway" v="rail"/>
		<tag k="ref" v="1231"/>
		<tag k="railway:track_ref" v="64"/>
		<tag k="usage" v="main"/>
	</way>
	<relation id="61612">
		<member type="way" ref="55884101" role=""/>
		<member type="way" ref="4874562" role=""/>
		<member type="way" ref="42836990" role=""/>
		<member type="way" ref="466940240" role=""/>
		<member type="way" ref="42838504" role="platform"/>
		<member type="way" ref="27403305" role=""/>
		<member type="way" ref="42836977" role=""/>
		<member type="way" ref="42836976" role=""/>
		<member type="way" ref="22904343" role=""/>
		<member type="way" ref="673912474" role=""/>
		<member type="node" ref="535951138" role="stop"/>
		<member type="way" ref="55884110" role=""/>
		<member type="way" ref="143710430" role=""/>
		<member type="node" ref="3472680897" role="stop"/>
		<member type="way" ref="42836989" role=""/>
		<member type="way" ref="27403371" role=""/>
		<tag k="name" v="S3: Pinneberg =&#62; Stade"/>
		<tag k="ref" v="S3"/>
		<tag k="type" v="route"/>
		<tag k="from" v="Pinneberg"/>
		<tag k="public_transport:version" v="2"/>
		<tag k="colour" v="#5D1D81"/>
		<tag k="text_colour" v="indigo"/>
		<tag k="route" v="light_rail"/>
		<tag k="to" v="Stade"/>
	</relation>
	<relation id="158487">
		<member type="way" ref="42836975" role=""/>
		<member type="way" ref="42836974" role=""/>
		<member type="way" ref="23253022" role=""/>
		<member type="node" ref="1412279570" role="stop"/>
		<member type="way" ref="23253024" role=""/>
		<member type="way" ref="7979353" role=""/>
		<member type="way" ref="325239886" role=""/>
		<member type="way" ref="7979355" role=""/>
		<member type="way" ref="27403616" role=""/>
		<member type="way" ref="42836985" role=""/>
		<member type="way" ref="42836984" role=""/>
		<member type="way" ref="42836987" role=""/>
		<member type="way" ref="42836986" role=""/>
		<member type="way" ref="42838504" role="platform"/>
		<member type="way" ref="466940238" role=""/>
		<member type="node" ref="300809500" role="stop"/>
		<member type="way" ref="42836991" role=""/>
		<member type="way" ref="30908783" role=""/>
		<member type="way" ref="7979364" role=""/>
		<member type="way" ref="42836997" role=""/>
		<member type="way" ref="6274224" role=""/>
		<member type="way" ref="27403334" role=""/>
		<member type="way" ref="38322888" role=""/>
		<member type="way" ref="27403264" role=""/>
		<member type="way" ref="42836964" role=""/>
		<member type="way" ref="541552416" role=""/>
		<member type="way" ref="6273974" role=""/>
		<tag k="name" v="S11: Blankenese =&#62; Poppenbttel"/>
		<tag k="ref" v="S11"/>
		<tag k="type" v="route"/>
		<tag k="from" v="Blankenese"/>
		<tag k="public_transport:version" v="2"/>
		<tag k="colour" v="#44A325"/>
		<tag k="text_colour" v="green"/>
		<tag k="route" v="light_rail"/>
		<tag k="to" v="Poppenbttel"/>
	</relation>
	<relation id="228077">
		<member type="node" ref="3183841635" role=""/>
		<member type="node" ref="1686600807" role="stop"/>
		<member type="node" ref="1686600808" role="stop"/>
		<member type="node" ref="1686600809" role="stop"/>
		<member type="way" ref="42873615" role="platform"/>
		<member type="node" ref="1686600810" role="stop"/>
		<member type="node" ref="1686600811" role="stop"/>
		<member type="way" ref="42873617" role="platform"/>
		<member type="node" ref="1686600812" role="stop"/>
		<member type="node" ref="1686600813" role="stop"/>
		<member type="node" ref="1686600814" role="stop"/>
		<member type="way" ref="662729031" role="platform"/>
		<member type="way" ref="662729032" role="platform"/>
		<tag k="name" v="Hamburg-Altona"/>
		<tag k="railway" v="facility"/>
		<tag k="type" v="public_transport"/>
		<tag k="uic_name" v="Hamburg-Altona"/>
		<tag k="light_rail" v="yes"/>
		<tag k="uic_ref" v="8002553"/>
		<tag k="public_transport" v="stop_area"/>
		<tag k="train" v="yes"/>
		<tag k="bus" v="yes"/>
	</relation>
	<relation id="297201">
		<member type="way" ref="42838504" role="platform_entry_only"/>
		<member type="node" ref="3480061011" role="stop"/>
		<member type="way" ref="292634027" role=""/>
		<member type="way" ref="42836978" role=""/>
		<member type="way" ref="234743809" role=""/>
		<member type="way" ref="234743353" role=""/>
		<member type="node" ref="535951138" role="stop_entry_only"/>
		<member type="way" ref="292634015" role=""/>
		<member type="way" ref="43114780" role="platform"/>
		<member type="node" ref="3480114466" role="stop"/>
		<tag k="name" v="S2: Altona =&#62; Bergedorf"/>
		<tag k="ref" v="S2"/>
		<tag k="type" v="route"/>
		<tag k="service" v="commuter"/>
		<tag k="description:de" v="verkehrt nur in der Hauptverkehrszeit"/>
		<tag k="from" v="Altona"/>
		<tag k="public_transport:version" v="2"/>
		<tag k="colour" v="#A70F47"/>
		<tag k="text_colour" v="purple"/>
		<tag k="route" v="light_rail"/>
		<tag k="to" v="Bergedorf"/>
	</relation>
	<relation id="1083201">
		<member type="way" ref="256200949" role=""/>
		<member type="way" ref="6270944" role=""/>
		<member type="node" ref="1686600807" role="stop"/>
		<member type="way" ref="359373372" role=""/>
		<member type="way" ref="6229963" role=""/>
		<member type="way" ref="133130814" role=""/>
		<member type="way" ref="145689821" role=""/>
		<member type="way" ref="6230032" role=""/>
		<member type="way" ref="23253068" role=""/>
		<member type="way" ref="6230016" role=""/>
		<member type="way" ref="6236665" role=""/>
		<member type="way" ref="41081855" role=""/>
		<member type="way" ref="30908782" role=""/>
		<member type="way" ref="662729032" role="platform"/>
		<member type="way" ref="415383436" role=""/>
		<member type="way" ref="256200946" role=""/>
		<tag k="name" v="ICE 20: Hamburg =&#62; Frankfurt =&#62; Basel"/>
		<tag k="ref" v="ICE 20"/>
		<tag k="type" v="route"/>
		<tag k="service" v="high_speed"/>
		<tag k="fee" v="yes"/>
		<tag k="from" v="Hamburg Altona"/>
		<tag k="public_transport:version" v="2"/>
		<tag k="route" v="train"/>
		<tag k="to" v="Basel Bad Bf"/>
		<tag k="comment" v="some trains go not all the way to Basel, route north of Karlsruhe based on ICE 1171"/>
	</relation>
	<relation id="1175046">
		<member type="way" ref="75414483" role=""/>
		<member type="way" ref="359373373" role=""/>
		<member type="way" ref="77339546" role=""/>
		<member type="way" ref="143710300" role=""/>
		<member type="way" ref="55884102" role=""/>
		<member type="way" ref="22732488" role=""/>
		<member type="node" ref="1686600809" role="stop_entry_only"/>
		<member type="way" ref="42873617" role="platform_entry_only"/>
		<member type="way" ref="6271257" role=""/>
		<member type="way" ref="77339552" role=""/>
		<member type="way" ref="464143970" role=""/>
		<member type="way" ref="77339556" role=""/>
		<member type="way" ref="75414495" role=""/>
		<member type="way" ref="59708704" role=""/>
		<member type="way" ref="55884112" role=""/>
		<tag k="name" v="RE6: Hamburg =&#62; Westerland"/>
		<tag k="ref" v="RE6"/>
		<tag k="type" v="route"/>
		<tag k="from" v="Hamburg-Altona"/>
		<tag k="public_transport:version" v="2"/>
		<tag k="colour" v="#009641"/>
		<tag k="route" v="train"/>
		<tag k="to" v="Westerland (Sylt)"/>
	</relation>
	<relation id="1540437">
		<member type="way" ref="466940240" role=""/>
		<member type="way" ref="42838504" role="platform"/>
		<member type="way" ref="42836977" role=""/>
		<member type="way" ref="42836976" role=""/>
		<member type="node" ref="535951138" role="stop"/>
		<member type="way" ref="42836985" role=""/>
		<member type="way" ref="42836984" role=""/>
		<member type="way" ref="42836986" role=""/>
		<member type="way" ref="42836988" role=""/>
		<member type="way" ref="27403371" role=""/>
		<tag k="name" v="S1: Wedel =&#62; Poppenbttel"/>
		<tag k="ref" v="S1"/>
		<tag k="type" v="route"/>
		<tag k="from" v="Wedel"/>
		<tag k="public_transport:version" v="2"/>
		<tag k="colour" v="#33b540"/>
		<tag k="route" v="light_rail"/>
		<tag k="to" v="Poppenbttel"/>
	</relation>
	<relation id="1660618">
		<member type="way" ref="42838505" role="platform"/>
		<member type="way" ref="27403475" role=""/>
		<member type="way" ref="42836992" role=""/>
		<member type="node" ref="300809530" role="stop"/>
		<member type="way" ref="27403634" role=""/>
		<member type="way" ref="42837001" role=""/>
		<member type="way" ref="42837003" role=""/>
		<member type="way" ref="42837002" role=""/>
		<member type="way" ref="466940236" role=""/>
		<member type="way" ref="42836971" role=""/>
		<tag k="name" v="S1: Hamburg Airport (Flughafen) =&#62; Wedel"/>
		<tag k="ref" v="S1"/>
		<tag k="type" v="route"/>
		<tag k="from" v="Hamburg Airport (Flughafen)"/>
		<tag k="public_transport:version" v="2"/>
		<tag k="colour" v="#33b540"/>
		<tag k="route" v="light_rail"/>
		<tag k="to" v="Wedel"/>
	</relation>
	<relation id="1660619">
		<member type="way" ref="466940240" role=""/>
		<member type="way" ref="42838504" role="platform"/>
		<member type="way" ref="42836977" role=""/>
		<member type="way" ref="42836976" role=""/>
		<member type="node" ref="535951138" role="stop"/>
		<member type="way" ref="42836985" role=""/>
		<member type="way" ref="42836984" role=""/>
		<member type="way" ref="42836986" role=""/>
		<member type="way" ref="42836988" role=""/>
		<member type="way" ref="27403371" role=""/>
		<tag k="name" v="S1: Wedel =&#62; Airport (Flughafen)"/>
		<tag k="ref" v="S1"/>
		<tag k="type" v="route"/>
		<tag k="from" v="Wedel"/>
		<tag k="public_transport:version" v="2"/>
		<tag k="colour" v="#33b540"/>
		<tag k="route" v="light_rail"/>
		<tag k="to" v="Airport (Flughafen)"/>
	</relation>
	<relation id="1660621">
		<member type="way" ref="42838505" role="platform"/>
		<member type="way" ref="27403475" role=""/>
		<member type="way" ref="42836992" role=""/>
		<member type="node" ref="300809530" role="stop"/>
		<member type="way" ref="27403634" role=""/>
		<member type="way" ref="42837001" role=""/>
		<member type="way" ref="42837003" role=""/>
		<member type="way" ref="42837002" role=""/>
		<member type="way" ref="466940236" role=""/>
		<member type="way" ref="42836971" role=""/>
		<tag k="name" v="S1: Poppenbttel =&#62; Wedel"/>
		<tag k="ref" v="S1"/>
		<tag k="type" v="route"/>
		<tag k="from" v="Poppenbttel"/>
		<tag k="public_transport:version" v="2"/>
		<tag k="colour" v="#33b540"/>
		<tag k="route" v="light_rail"/>
		<tag k="to" v="Wedel"/>
	</relation>
	<relation id="1727350">
		<member type="way" ref="42836975" role=""/>
		<member type="way" ref="42836974" role=""/>
		<member type="way" ref="23253022" role=""/>
		<member type="node" ref="1412279570" role="stop"/>
		<member type="way" ref="23253024" role=""/>
		<member type="way" ref="7979353" role=""/>
		<member type="way" ref="325239886" role=""/>
		<member type="way" ref="7979355" role=""/>
		<member type="way" ref="27403616" role=""/>
		<member type="way" ref="42838504" role="platform_entry_only"/>
		<member type="way" ref="466940238" role=""/>
		<member type="node" ref="300809500" role="stop_entry_only"/>
		<member type="way" ref="42836991" role=""/>
		<member type="way" ref="30908783" role=""/>
		<member type="way" ref="7979364" role=""/>
		<member type="way" ref="6274224" role=""/>
		<member type="way" ref="42836997" role=""/>
		<member type="way" ref="27403334" role=""/>
		<member type="way" ref="38322888" role=""/>
		<member type="way" ref="27403264" role=""/>
		<member type="way" ref="42836964" role=""/>
		<member type="way" ref="541552416" role=""/>
		<member type="way" ref="6273974" role=""/>
		<tag k="name" v="S31: Altona =&#62; Harburg Rathaus"/>
		<tag k="ref" v="S31"/>
		<tag k="type" v="route"/>
		<tag k="from" v="Altona"/>
		<tag k="public_transport:version" v="2"/>
		<tag k="colour" v="#5D1D81"/>
		<tag k="route" v="light_rail"/>
		<tag k="to" v="Harburg Rathaus"/>
	</relation>
	<relation id="1727351">
		<member type="way" ref="23253025" role=""/>
		<member type="way" ref="6236655" role=""/>
		<member type="way" ref="42836981" role=""/>
		<member type="way" ref="42836980" role=""/>
		<member type="way" ref="4841093" role=""/>
		<member type="node" ref="300240508" role="stop"/>
		<member type="way" ref="466940237" role=""/>
		<member type="way" ref="42838505" role="platform_exit_only"/>
		<member type="way" ref="4841094" role=""/>
		<member type="way" ref="42836953" role=""/>
		<member type="way" ref="42836957" role=""/>
		<member type="way" ref="42836956" role=""/>
		<member type="way" ref="42836959" role=""/>
		<member type="way" ref="42836958" role=""/>
		<member type="way" ref="42836960" role=""/>
		<member type="way" ref="42836999" role=""/>
		<member type="way" ref="42836998" role=""/>
		<member type="way" ref="541552414" role=""/>
		<member type="way" ref="42836965" role=""/>
		<member type="way" ref="42836966" role=""/>
		<member type="way" ref="42836968" role=""/>
		<member type="node" ref="535951140" role="stop_exit_only"/>
		<member type="way" ref="6236719" role=""/>
		<tag k="name" v="S31: Berliner Tor =&#62; Altona"/>
		<tag k="ref" v="S31"/>
		<tag k="type" v="route"/>
		<tag k="from" v="Berliner Tor"/>
		<tag k="public_transport:version" v="2"/>
		<tag k="colour" v="#5D1D81"/>
		<tag k="route" v="light_rail"/>
		<tag k="to" v="Altona"/>
	</relation>
	<relation id="1727352">
		<member type="way" ref="23253025" role=""/>
		<member type="way" ref="6236655" role=""/>
		<member type="way" ref="42836981" role=""/>
		<member type="way" ref="42836980" role=""/>
		<member type="way" ref="4841093" role=""/>
		<member type="node" ref="300240508" role="stop"/>
		<member type="way" ref="466940237" role=""/>
		<member type="way" ref="42838505" role="platform_exit_only"/>
		<member type="way" ref="4841094" role=""/>
		<member type="way" ref="42836953" role=""/>
		<member type="way" ref="42836957" role=""/>
		<member type="way" ref="42836956" role=""/>
		<member type="way" ref="42836959" role=""/>
		<member type="way" ref="42836958" role=""/>
		<member type="way" ref="42836960" role=""/>
		<member type="way" ref="42836999" role=""/>
		<member type="way" ref="42836998" role=""/>
		<member type="way" ref="541552414" role=""/>
		<member type="way" ref="42836965" role=""/>
		<member type="way" ref="42836966" role=""/>
		<member type="way" ref="42836968" role=""/>
		<member type="node" ref="535951140" role="stop_exit_only"/>
		<member type="way" ref="6236719" role=""/>
		<tag k="name" v="S31: Harburg Rathaus =&#62; Altona"/>
		<tag k="ref" v="S31"/>
		<tag k="type" v="route"/>
		<tag k="from" v="Harburg Rathaus"/>
		<tag k="public_transport:version" v="2"/>
		<tag k="colour" v="#5D1D81"/>
		<tag k="route" v="light_rail"/>
		<tag k="to" v="Altona"/>
	</relation>
	<relation id="1727353">
		<member type="way" ref="42836975" role=""/>
		<member type="way" ref="42836974" role=""/>
		<member type="way" ref="23253022" role=""/>
		<member type="node" ref="1412279570" role="stop"/>
		<member type="way" ref="23253024" role=""/>
		<member type="way" ref="7979353" role=""/>
		<member type="way" ref="325239886" role=""/>
		<member type="way" ref="7979355" role=""/>
		<member type="way" ref="27403616" role=""/>
		<member type="way" ref="42838504" role="platform_entry_only"/>
		<member type="way" ref="466940238" role=""/>
		<member type="node" ref="300809500" role="stop_entry_only"/>
		<member type="way" ref="42836991" role=""/>
		<member type="way" ref="30908783" role=""/>
		<member type="way" ref="7979364" role=""/>
		<member type="way" ref="6274224" role=""/>
		<member type="way" ref="42836997" role=""/>
		<member type="way" ref="27403334" role=""/>
		<member type="way" ref="38322888" role=""/>
		<member type="way" ref="27403264" role=""/>
		<member type="way" ref="42836964" role=""/>
		<member type="way" ref="541552416" role=""/>
		<member type="way" ref="6273974" role=""/>
		<tag k="name" v="S31: Altona =&#62; Berliner Tor"/>
		<tag k="ref" v="S31"/>
		<tag k="type" v="route"/>
		<tag k="from" v="Altona"/>
		<tag k="public_transport:version" v="2"/>
		<tag k="colour" v="#5D1D81"/>
		<tag k="route" v="light_rail"/>
		<tag k="to" v="Berliner Tor"/>
	</relation>
	<relation id="1727354">
		<member type="way" ref="42836975" role=""/>
		<member type="way" ref="42836974" role=""/>
		<member type="way" ref="23253022" role=""/>
		<member type="node" ref="1412279570" role="stop"/>
		<member type="way" ref="23253024" role=""/>
		<member type="way" ref="7979353" role=""/>
		<member type="way" ref="325239886" role=""/>
		<member type="way" ref="7979355" role=""/>
		<member type="way" ref="27403616" role=""/>
		<member type="way" ref="42838504" role="platform_entry_only"/>
		<member type="way" ref="466940238" role=""/>
		<member type="node" ref="300809500" role="stop_entry_only"/>
		<member type="way" ref="42836991" role=""/>
		<member type="way" ref="30908783" role=""/>
		<member type="way" ref="7979364" role=""/>
		<member type="way" ref="6274224" role=""/>
		<member type="way" ref="42836997" role=""/>
		<member type="way" ref="27403334" role=""/>
		<member type="way" ref="38322888" role=""/>
		<member type="way" ref="27403264" role=""/>
		<member type="way" ref="42836964" role=""/>
		<member type="way" ref="541552416" role=""/>
		<member type="way" ref="6273974" role=""/>
		<tag k="name" v="S31: Altona =&#62; Neugraben"/>
		<tag k="ref" v="S31"/>
		<tag k="type" v="route"/>
		<tag k="from" v="Altona"/>
		<tag k="public_transport:version" v="2"/>
		<tag k="colour" v="#5D1D81"/>
		<tag k="route" v="light_rail"/>
		<tag k="to" v="Neugraben"/>
	</relation>
	<relation id="1727355">
		<member type="way" ref="23253025" role=""/>
		<member type="way" ref="6236655" role=""/>
		<member type="way" ref="42836981" role=""/>
		<member type="way" ref="42836980" role=""/>
		<member type="way" ref="4841093" role=""/>
		<member type="node" ref="300240508" role="stop"/>
		<member type="way" ref="466940237" role=""/>
		<member type="way" ref="42838505" role="platform_exit_only"/>
		<member type="way" ref="4841094" role=""/>
		<member type="way" ref="42836953" role=""/>
		<member type="way" ref="42836957" role=""/>
		<member type="way" ref="42836956" role=""/>
		<member type="way" ref="42836959" role=""/>
		<member type="way" ref="42836958" role=""/>
		<member type="way" ref="42836960" role=""/>
		<member type="way" ref="42836999" role=""/>
		<member type="way" ref="42836998" role=""/>
		<member type="way" ref="541552414" role=""/>
		<member type="way" ref="42836965" role=""/>
		<member type="way" ref="42836966" role=""/>
		<member type="way" ref="42836968" role=""/>
		<member type="node" ref="535951140" role="stop_exit_only"/>
		<member type="way" ref="6236719" role=""/>
		<tag k="name" v="S31: Neugraben =&#62; Altona"/>
		<tag k="ref" v="S31"/>
		<tag k="type" v="route"/>
		<tag k="from" v="Neugraben"/>
		<tag k="public_transport:version" v="2"/>
		<tag k="colour" v="#5D1D81"/>
		<tag k="route" v="light_rail"/>
		<tag k="to" v="Altona"/>
	</relation>
	<relation id="1788865">
		<member type="way" ref="673912486" role=""/>
		<member type="way" ref="4841532" role=""/>
		<member type="way" ref="46897223" role=""/>
		<member type="way" ref="213868196" role=""/>
		<member type="way" ref="6274007" role=""/>
		<member type="way" ref="7998962" role=""/>
		<member type="way" ref="23253013" role=""/>
		<member type="way" ref="42873615" role="platform"/>
		<member type="node" ref="1686600812" role="stop"/>
		<member type="way" ref="392068730" role=""/>
		<member type="way" ref="359373378" role=""/>
		<member type="way" ref="7998968" role=""/>
		<member type="way" ref="23103112" role=""/>
		<member type="way" ref="424522567" role=""/>
		<member type="way" ref="46897218" role=""/>
		<member type="way" ref="7998959" role=""/>
		<tag k="name" v="ICE 25: Mnchen =&#62; Ingolstadt =&#62; Hamburg-Altona"/>
		<tag k="ref" v="ICE 25"/>
		<tag k="type" v="route"/>
		<tag k="service" v="high_speed"/>
		<tag k="from" v="Mnchen Hbf"/>
		<tag k="public_transport:version" v="2"/>
		<tag k="route" v="train"/>
		<tag k="to" v="Hamburg-Altona"/>
		<tag k="ref_trips" v="ICE 582;ICE 586;ICE 588;ICE 706;ICE 784;ICE 788;ICE 880;ICE 886;ICE 888;ICE 1180"/>
	</relation>
	<relation id="1856647">
		<member type="way" ref="673912486" role=""/>
		<member type="way" ref="46897223" role=""/>
		<member type="way" ref="213868196" role=""/>
		<member type="way" ref="6274007" role=""/>
		<member type="way" ref="7998962" role=""/>
		<member type="way" ref="23253013" role=""/>
		<member type="node" ref="1686600811" role="stop"/>
		<member type="way" ref="392068730" role=""/>
		<member type="way" ref="359373378" role=""/>
		<member type="way" ref="662729031" role="platform"/>
		<member type="way" ref="7998968" role=""/>
		<member type="way" ref="23103112" role=""/>
		<member type="way" ref="424522567" role=""/>
		<member type="way" ref="75408304" role=""/>
		<member type="way" ref="75408342" role=""/>
		<member type="way" ref="46897218" role=""/>
		<member type="way" ref="7998959" role=""/>
		<tag k="name" v="ICE 20: Basel =&#62; Frankfurt =&#62; Hamburg"/>
		<tag k="ref" v="ICE 20"/>
		<tag k="type" v="route"/>
		<tag k="service" v="high_speed"/>
		<tag k="fee" v="yes"/>
		<tag k="from" v="Basel Bad Bf"/>
		<tag k="public_transport:version" v="2"/>
		<tag k="route" v="train"/>
		<tag k="to" v="Hamburg Altona"/>
		<tag k="comment" v="hlt nicht in Fulda und Hanau"/>
	</relation>
	<relation id="2095512">
		<member type="way" ref="23253025" role=""/>
		<member type="way" ref="6236655" role=""/>
		<member type="way" ref="42836981" role=""/>
		<member type="way" ref="42836980" role=""/>
		<member type="way" ref="4841093" role=""/>
		<member type="node" ref="300240508" role="stop"/>
		<member type="way" ref="466940237" role=""/>
		<member type="way" ref="42838505" role="platform"/>
		<member type="way" ref="4841094" role=""/>
		<member type="way" ref="42836953" role=""/>
		<member type="way" ref="42836957" role=""/>
		<member type="way" ref="42836992" role=""/>
		<member type="way" ref="42836956" role=""/>
		<member type="way" ref="42836959" role=""/>
		<member type="way" ref="42836958" role=""/>
		<member type="way" ref="42836960" role=""/>
		<member type="way" ref="42836999" role=""/>
		<member type="way" ref="42836998" role=""/>
		<member type="way" ref="541552414" role=""/>
		<member type="way" ref="42836965" role=""/>
		<member type="way" ref="42837000" role=""/>
		<member type="way" ref="42837003" role=""/>
		<member type="way" ref="42836966" role=""/>
		<member type="way" ref="42836968" role=""/>
		<member type="node" ref="535951140" role="stop"/>
		<member type="way" ref="6236719" role=""/>
		<member type="way" ref="42836971" role=""/>
		<member type="way" ref="42836970" role=""/>
		<tag k="name" v="S11: Poppenbttel =&#62; Blankenese"/>
		<tag k="ref" v="S11"/>
		<tag k="type" v="route"/>
		<tag k="from" v="Poppenbttel"/>
		<tag k="public_transport:version" v="2"/>
		<tag k="colour" v="#44A325"/>
		<tag k="text_colour" v="green"/>
		<tag k="route" v="light_rail"/>
		<tag k="to" v="Blankenese"/>
	</relation>
	<relation id="2178679">
		<member type="way" ref="256200949" role=""/>
		<member type="node" ref="1686600808" role="stop"/>
		<member type="way" ref="133130813" role=""/>
		<member type="way" ref="6229963" role=""/>
		<member type="way" ref="42873617" role="platform"/>
		<member type="way" ref="133130814" role=""/>
		<member type="way" ref="145689821" role=""/>
		<member type="way" ref="6230032" role=""/>
		<member type="way" ref="75412691" role=""/>
		<member type="way" ref="23253068" role=""/>
		<member type="way" ref="6230016" role=""/>
		<member type="way" ref="6236665" role=""/>
		<member type="way" ref="41081855" role=""/>
		<member type="way" ref="30908782" role=""/>
		<member type="way" ref="75413171" role=""/>
		<member type="way" ref="256200946" role=""/>
		<tag k="name" v="ICE 25: Hamburg-Altona =&#62; Ingolstadt =&#62; Mnchen"/>
		<tag k="ref" v="ICE 25"/>
		<tag k="type" v="route"/>
		<tag k="service" v="high_speed"/>
		<tag k="from" v="Hamburg-Altona"/>
		<tag k="public_transport:version" v="2"/>
		<tag k="route" v="train"/>
		<tag k="to" v="Mnchen Hbf"/>
	</relation>
	<relation id="3134320">
		<member type="way" ref="256200949" role=""/>
		<member type="way" ref="75413326" role=""/>
		<member type="way" ref="6138684" role=""/>
		<member type="way" ref="6229963" role=""/>
		<member type="way" ref="133130814" role=""/>
		<member type="way" ref="145689821" role=""/>
		<member type="way" ref="6230032" role=""/>
		<member type="node" ref="1686600814" role="stop"/>
		<member type="way" ref="23253068" role=""/>
		<member type="way" ref="6230016" role=""/>
		<member type="way" ref="6236665" role=""/>
		<member type="way" ref="41081855" role=""/>
		<member type="way" ref="30908782" role=""/>
		<member type="way" ref="415383436" role=""/>
		<member type="way" ref="256200946" role=""/>
		<tag k="name" v="ICE 26: Hamburg-Altona =&#62; Oberstdorf"/>
		<tag k="ref" v="ICE 26"/>
		<tag k="type" v="route"/>
		<tag k="service" v="high_speed"/>
		<tag k="from" v="Hamburg-Altona"/>
		<tag k="public_transport:version" v="2"/>
		<tag k="route" v="train"/>
		<tag k="to" v="Oberstdorf"/>
	</relation>
	<relation id="3229345">
		<member type="way" ref="673912486" role=""/>
		<member type="way" ref="46897223" role=""/>
		<member type="way" ref="213868196" role=""/>
		<member type="way" ref="6274007" role=""/>
		<member type="way" ref="7998962" role=""/>
		<member type="way" ref="23253013" role=""/>
		<member type="way" ref="75408265" role=""/>
		<member type="way" ref="42873615" role="platform"/>
		<member type="way" ref="214220438" role=""/>
		<member type="node" ref="1686600813" role="stop"/>
		<member type="way" ref="392068730" role=""/>
		<member type="way" ref="7998968" role=""/>
		<member type="way" ref="23103112" role=""/>
		<member type="way" ref="424522567" role=""/>
		<member type="way" ref="214250400" role=""/>
		<member type="way" ref="46897218" role=""/>
		<member type="way" ref="7998959" role=""/>
		<tag k="name" v="EC 8: Zrich =&#62; Hamburg"/>
		<tag k="ref" v="EC 8"/>
		<tag k="type" v="route"/>
		<tag k="service" v="long_distance"/>
		<tag k="fee" v="yes"/>
		<tag k="from" v="Zrich Hauptbahnhof"/>
		<tag k="public_transport:version" v="2"/>
		<tag k="route" v="train"/>
		<tag k="to" v="Hamburg Altona"/>
		<tag k="headway" v="1440"/>
	</relation>
	<relation id="3310117">
		<member type="way" ref="133130814" role=""/>
		<member type="way" ref="6230032" role=""/>
		<member type="way" ref="77339556" role=""/>
		<member type="way" ref="23253068" role=""/>
		<member type="way" ref="6229963" role=""/>
		<member type="way" ref="42873617" role="platform"/>
		<member type="way" ref="41081855" role=""/>
		<member type="way" ref="6271257" role=""/>
		<member type="way" ref="6236665" role=""/>
		<member type="way" ref="30908782" role=""/>
		<member type="node" ref="1686600809" role="stop"/>
		<member type="way" ref="464143970" role=""/>
		<member type="way" ref="145689821" role=""/>
		<member type="way" ref="75413171" role=""/>
		<member type="way" ref="359373373" role=""/>
		<member type="way" ref="6230016" role=""/>
		<member type="way" ref="256200946" role=""/>
		<member type="way" ref="256200949" role=""/>
		<tag k="name" v="EC 7: Hamburg =&#62; Interlaken Ost"/>
		<tag k="ref" v="EC 7"/>
		<tag k="type" v="route"/>
		<tag k="service" v="long_distance"/>
		<tag k="fee" v="yes"/>
		<tag k="from" v="Hamburg-Altona"/>
		<tag k="public_transport:version" v="2"/>
		<tag k="route" v="train"/>
		<tag k="to" v="Interlaken Ost"/>
		<tag k="headway" v="1440"/>
	</relation>
	<relation id="3431945">
		<member type="way" ref="256200949" role=""/>
		<member type="way" ref="6270944" role=""/>
		<member type="node" ref="1686600807" role="stop"/>
		<member type="way" ref="359373372" role=""/>
		<member type="way" ref="6229963" role=""/>
		<member type="way" ref="133130814" role=""/>
		<member type="way" ref="145689821" role=""/>
		<member type="way" ref="6230032" role=""/>
		<member type="way" ref="23253068" role=""/>
		<member type="way" ref="6230016" role=""/>
		<member type="way" ref="6236665" role=""/>
		<member type="way" ref="41081855" role=""/>
		<member type="way" ref="30908782" role=""/>
		<member type="way" ref="662729032" role="platform"/>
		<member type="way" ref="415383436" role=""/>
		<member type="way" ref="256200946" role=""/>
		<tag k="name" v="ICE 22: Hamburg-Altona =&#62; Stuttgart"/>
		<tag k="ref" v="ICE 22"/>
		<tag k="type" v="route"/>
		<tag k="service" v="high_speed"/>
		<tag k="from" v="Hamburg-Altona"/>
		<tag k="public_transport:version" v="2"/>
		<tag k="route" v="train"/>
		<tag k="to" v="Stuttgart"/>
		<tag k="state" v="connection"/>
		<tag k="brand" v="InterCityExpress"/>
	</relation>
	<relation id="3779840">
		<member type="way" ref="256200949" role=""/>
		<member type="way" ref="6138684" role=""/>
		<member type="way" ref="359373375" role=""/>
		<member type="way" ref="6229963" role=""/>
		<member type="way" ref="145689821" role=""/>
		<member type="way" ref="6230032" role=""/>
		<member type="node" ref="1686600814" role="stop"/>
		<member type="way" ref="23253068" role=""/>
		<member type="way" ref="6230016" role=""/>
		<member type="way" ref="6236665" role=""/>
		<member type="way" ref="41081855" role=""/>
		<member type="way" ref="30908782" role=""/>
		<member type="way" ref="662729032" role="platform"/>
		<member type="way" ref="75413374" role=""/>
		<member type="way" ref="256200946" role=""/>
		<tag k="name" v="EC 173: Hamburg =&#62; Budapest"/>
		<tag k="ref" v="EC 173"/>
		<tag k="type" v="route"/>
		<tag k="service" v="long_distance"/>
		<tag k="from" v="Hamburg-Altona"/>
		<tag k="public_transport:version" v="2"/>
		<tag k="colour" v="#9D9D9D"/>
		<tag k="route" v="train"/>
		<tag k="to" v="Budapest-Keleti pu."/>
	</relation>
	<relation id="3779841">
		<member type="way" ref="673912486" role=""/>
		<member type="way" ref="46897223" role=""/>
		<member type="way" ref="213868196" role=""/>
		<member type="way" ref="6274007" role=""/>
		<member type="way" ref="7998962" role=""/>
		<member type="way" ref="23253013" role=""/>
		<member type="way" ref="75408265" role=""/>
		<member type="way" ref="42873615" role="platform"/>
		<member type="way" ref="214220438" role=""/>
		<member type="node" ref="1686600813" role="stop"/>
		<member type="way" ref="392068730" role=""/>
		<member type="way" ref="7998968" role=""/>
		<member type="way" ref="23103112" role=""/>
		<member type="way" ref="424522567" role=""/>
		<member type="way" ref="214250400" role=""/>
		<member type="way" ref="46897218" role=""/>
		<member type="way" ref="7998959" role=""/>
		<tag k="name" v="EC 172: Budapest =&#62; Hamburg"/>
		<tag k="ref" v="EC 172"/>
		<tag k="type" v="route"/>
		<tag k="service" v="long_distance"/>
		<tag k="from" v="Budapest-Keleti pu."/>
		<tag k="public_transport:version" v="2"/>
		<tag k="colour" v="#9D9D9D"/>
		<tag k="route" v="train"/>
		<tag k="to" v="Hamburg-Altona"/>
	</relation>
	<relation id="3898004">
		<member type="way" ref="673912486" role=""/>
		<member type="way" ref="46897223" role=""/>
		<member type="way" ref="213868196" role=""/>
		<member type="way" ref="6274007" role=""/>
		<member type="way" ref="7998962" role=""/>
		<member type="way" ref="23253013" role=""/>
		<member type="way" ref="75408265" role=""/>
		<member type="way" ref="42873615" role="platform"/>
		<member type="way" ref="214220438" role=""/>
		<member type="node" ref="1686600813" role="stop"/>
		<member type="way" ref="392068730" role=""/>
		<member type="way" ref="7998968" role=""/>
		<member type="way" ref="23103112" role=""/>
		<member type="way" ref="424522567" role=""/>
		<member type="way" ref="214250400" role=""/>
		<member type="way" ref="46897218" role=""/>
		<member type="way" ref="7998959" role=""/>
		<tag k="name" v="EC 6: Interlaken Ost =&#62; Hamburg"/>
		<tag k="ref" v="EC 6"/>
		<tag k="type" v="route"/>
		<tag k="service" v="long_distance"/>
		<tag k="fee" v="yes"/>
		<tag k="from" v="Interlaken Ost"/>
		<tag k="public_transport:version" v="2"/>
		<tag k="route" v="train"/>
		<tag k="to" v="Hamburg Altona"/>
		<tag k="headway" v="1440"/>
	</relation>
	<relation id="4005850">
		<member type="way" ref="51398796" role=""/>
		<tag k="name" v="Stellwerk Altona Af"/>
		<tag k="railway" v="interlocking"/>
		<tag k="type" v="railway"/>
		<tag k="railway:ref" v="Af"/>
		<tag k="fixme" v="weitere Betriebsstellen erfassen / Blocksignale ergnzen"/>
	</relation>
	<relation id="4458238">
		<member type="way" ref="673912486" role=""/>
		<member type="way" ref="4841532" role=""/>
		<member type="way" ref="46897223" role=""/>
		<member type="way" ref="213868196" role=""/>
		<member type="way" ref="6274007" role=""/>
		<member type="way" ref="7998962" role=""/>
		<member type="way" ref="23253013" role=""/>
		<member type="way" ref="42873615" role="platform"/>
		<member type="node" ref="1686600812" role="stop"/>
		<member type="way" ref="392068730" role=""/>
		<member type="way" ref="359373378" role=""/>
		<member type="way" ref="7998968" role=""/>
		<member type="way" ref="23103112" role=""/>
		<member type="way" ref="424522567" role=""/>
		<member type="way" ref="46897218" role=""/>
		<member type="way" ref="7998959" role=""/>
		<tag k="name" v="IC 31: Frankfurt =&#62; Koblenz =&#62; Hamburg"/>
		<tag k="ref" v="IC 31"/>
		<tag k="type" v="route"/>
		<tag k="service" v="long_distance"/>
		<tag k="from" v="Frankfurt (Main) Hauptbahnhof"/>
		<tag k="public_transport:version" v="2"/>
		<tag k="route" v="train"/>
		<tag k="to" v="Hamburg-Altona"/>
	</relation>
	<relation id="4458993">
		<member type="way" ref="673912486" role=""/>
		<member type="way" ref="4841532" role=""/>
		<member type="way" ref="46897223" role=""/>
		<member type="way" ref="213868196" role=""/>
		<member type="way" ref="6274007" role=""/>
		<member type="way" ref="7998962" role=""/>
		<member type="way" ref="23253013" role=""/>
		<member type="way" ref="42873615" role="platform"/>
		<member type="node" ref="1686600812" role="stop"/>
		<member type="way" ref="392068730" role=""/>
		<member type="way" ref="359373378" role=""/>
		<member type="way" ref="7998968" role=""/>
		<member type="way" ref="23103112" role=""/>
		<member type="way" ref="424522567" role=""/>
		<member type="way" ref="46897218" role=""/>
		<member type="way" ref="7998959" role=""/>
		<tag k="name" v="FLX 20: Kln =&#62; Hamburg"/>
		<tag k="ref" v="FLX 20"/>
		<tag k="type" v="route"/>
		<tag k="service" v="long_distance"/>
		<tag k="from" v="Kln"/>
		<tag k="public_transport:version" v="2"/>
		<tag k="colour" v="green"/>
		<tag k="route" v="train"/>
		<tag k="to" v="Hamburg"/>
	</relation>
	<relation id="5453603">
		<member type="way" ref="42838505" role="platform_exit_only"/>
		<member type="way" ref="466940242" role=""/>
		<member type="node" ref="300809530" role="stop_exit_only"/>
		<member type="node" ref="300811113" role="stop"/>
		<member type="way" ref="292634013" role=""/>
		<member type="way" ref="292634031" role=""/>
		<member type="way" ref="43114780" role="platform"/>
		<member type="way" ref="292712151" role=""/>
		<member type="way" ref="292634020" role=""/>
		<tag k="name" v="S2: Bergedorf =&#62; Altona"/>
		<tag k="ref" v="S2"/>
		<tag k="type" v="route"/>
		<tag k="service" v="commuter"/>
		<tag k="description:de" v="verkehrt nur in der Hauptverkehrszeit"/>
		<tag k="from" v="Bergedorf"/>
		<tag k="public_transport:version" v="2"/>
		<tag k="colour" v="#A70F47"/>
		<tag k="text_colour" v="purple"/>
		<tag k="route" v="light_rail"/>
		<tag k="to" v="Altona"/>
	</relation>
	<relation id="5454170">
		<member type="way" ref="42838505" role="platform"/>
		<member type="way" ref="121380696" role=""/>
		<member type="way" ref="27403475" role=""/>
		<member type="way" ref="42836961" role=""/>
		<member type="node" ref="300809530" role="stop"/>
		<member type="way" ref="42836962" role=""/>
		<member type="way" ref="55884106" role=""/>
		<member type="way" ref="27403634" role=""/>
		<member type="way" ref="466940236" role=""/>
		<member type="way" ref="55884096" role=""/>
		<tag k="name" v="S3: Stade =&#62; Pinneberg"/>
		<tag k="ref" v="S3"/>
		<tag k="type" v="route"/>
		<tag k="from" v="Stade"/>
		<tag k="public_transport:version" v="2"/>
		<tag k="colour" v="#5D1D81"/>
		<tag k="text_colour" v="indigo"/>
		<tag k="route" v="light_rail"/>
		<tag k="to" v="Pinneberg"/>
	</relation>
	<relation id="5454292">
		<member type="way" ref="673912486" role=""/>
		<member type="way" ref="46897223" role=""/>
		<member type="way" ref="213868196" role=""/>
		<member type="way" ref="6274007" role=""/>
		<member type="way" ref="7998962" role=""/>
		<member type="way" ref="23253013" role=""/>
		<member type="way" ref="75408265" role=""/>
		<member type="way" ref="42873615" role="platform"/>
		<member type="way" ref="214220438" role=""/>
		<member type="node" ref="1686600813" role="stop"/>
		<member type="way" ref="392068730" role=""/>
		<member type="way" ref="7998968" role=""/>
		<member type="way" ref="23103112" role=""/>
		<member type="way" ref="424522567" role=""/>
		<member type="way" ref="214250400" role=""/>
		<member type="way" ref="46897218" role=""/>
		<member type="way" ref="7998959" role=""/>
		<tag k="name" v="EC 27: Decin =&#62; Dresden =&#62; Hamburg"/>
		<tag k="ref" v="EC 27"/>
		<tag k="type" v="route"/>
		<tag k="service" v="long_distance"/>
		<tag k="from" v="Decin"/>
		<tag k="public_transport:version" v="2"/>
		<tag k="route" v="train"/>
		<tag k="to" v="Hamburg Altona"/>
	</relation>
	<relation id="5455739">
		<member type="way" ref="256200949" role=""/>
		<member type="way" ref="6270944" role=""/>
		<member type="node" ref="1686600807" role="stop"/>
		<member type="way" ref="359373372" role=""/>
		<member type="way" ref="6229963" role=""/>
		<member type="way" ref="133130814" role=""/>
		<member type="way" ref="145689821" role=""/>
		<member type="way" ref="6230032" role=""/>
		<member type="way" ref="23253068" role=""/>
		<member type="way" ref="6230016" role=""/>
		<member type="way" ref="6236665" role=""/>
		<member type="way" ref="41081855" role=""/>
		<member type="way" ref="30908782" role=""/>
		<member type="way" ref="662729032" role="platform"/>
		<member type="way" ref="415383436" role=""/>
		<member type="way" ref="256200946" role=""/>
		<tag k="name" v="EC 27: Hamburg =&#62; Dresden =&#62; Decin"/>
		<tag k="ref" v="EC 27"/>
		<tag k="type" v="route"/>
		<tag k="service" v="international"/>
		<tag k="from" v="Hamburg Altona"/>
		<tag k="public_transport:version" v="2"/>
		<tag k="route" v="train"/>
		<tag k="to" v="Decin"/>
	</relation>
	<relation id="5515482">
		<member type="way" ref="673912486" role=""/>
		<member type="way" ref="4841532" role=""/>
		<member type="way" ref="46897223" role=""/>
		<member type="way" ref="213868196" role=""/>
		<member type="way" ref="6274007" role=""/>
		<member type="way" ref="7998962" role=""/>
		<member type="way" ref="23253013" role=""/>
		<member type="way" ref="42873615" role="platform"/>
		<member type="node" ref="1686600812" role="stop"/>
		<member type="way" ref="392068730" role=""/>
		<member type="way" ref="359373378" role=""/>
		<member type="way" ref="7998968" role=""/>
		<member type="way" ref="23103112" role=""/>
		<member type="way" ref="424522567" role=""/>
		<member type="way" ref="46897218" role=""/>
		<member type="way" ref="7998959" role=""/>
		<tag k="name" v="ICE 22: Stuttgart =&#62; Hamburg-Altona"/>
		<tag k="ref" v="ICE 22"/>
		<tag k="type" v="route"/>
		<tag k="service" v="high_speed"/>
		<tag k="from" v="Stuttgart"/>
		<tag k="public_transport:version" v="2"/>
		<tag k="route" v="train"/>
		<tag k="to" v="Hamburg-Altona"/>
		<tag k="brand" v="InterCityExpress"/>
	</relation>
	<relation id="6059534">
		<member type="way" ref="75408665" role=""/>
		<member type="way" ref="60919316" role=""/>
		<member type="way" ref="60919320" role=""/>
		<member type="way" ref="75408304" role=""/>
		<member type="way" ref="22732481" role=""/>
		<member type="way" ref="842481505" role=""/>
		<member type="way" ref="22732480" role=""/>
		<member type="way" ref="662729031" role="platform_exit_only"/>
		<member type="way" ref="60919333" role=""/>
		<member type="way" ref="359380723" role=""/>
		<member type="way" ref="415383440" role=""/>
		<member type="way" ref="59708694" role=""/>
		<member type="way" ref="19789986" role=""/>
		<member type="way" ref="416499770" role=""/>
		<member type="way" ref="360820693" role=""/>
		<member type="way" ref="416499664" role=""/>
		<member type="node" ref="1686600811" role="stop_exit_only"/>
		<member type="way" ref="8153647" role=""/>
		<member type="way" ref="359373376" role=""/>
		<tag k="name" v="RE6: Westerland =&#62; Hamburg"/>
		<tag k="ref" v="RE6"/>
		<tag k="type" v="route"/>
		<tag k="from" v="Westerland (Sylt)"/>
		<tag k="public_transport:version" v="2"/>
		<tag k="colour" v="#009641"/>
		<tag k="route" v="train"/>
		<tag k="to" v="Hamburg-Altona"/>
	</relation>
	<relation id="6146516">
		<member type="way" ref="42838505" role="platform"/>
		<member type="node" ref="347513371" role=""/>
		<member type="way" ref="42838504" role="platform"/>
		<member type="node" ref="300809530" role="stop"/>
		<member type="node" ref="300809500" role="stop"/>
		<member type="node" ref="535951138" role="stop"/>
		<member type="node" ref="535951140" role="stop"/>
		<member type="node" ref="344364268" role=""/>
		<member type="node" ref="3357946758" role=""/>
		<member type="node" ref="344364273" role=""/>
		<tag k="name" v="Altona"/>
		<tag k="railway" v="facility"/>
		<tag k="type" v="public_transport"/>
		<tag k="uic_name" v="Hamburg-Altona(S)"/>
		<tag k="railway:ref" v="AAS"/>
		<tag k="light_rail" v="yes"/>
		<tag k="uic_ref" v="8098553"/>
		<tag k="public_transport" v="stop_area"/>
		<tag k="train" v="no"/>
		<tag k="tram" v="no"/>
		<tag k="subway" v="no"/>
	</relation>
	<relation id="6146519">
		<member type="way" ref="55951187" role=""/>
		<tag k="name" v="Stellwerk Altona As"/>
		<tag k="railway" v="interlocking"/>
		<tag k="type" v="railway"/>
		<tag k="railway:ref" v="As"/>
	</relation>
	<relation id="6188944">
		<member type="way" ref="256200949" role=""/>
		<member type="way" ref="6270944" role=""/>
		<member type="node" ref="1686600807" role="stop"/>
		<member type="way" ref="359373372" role=""/>
		<member type="way" ref="6229963" role=""/>
		<member type="way" ref="133130814" role=""/>
		<member type="way" ref="145689821" role=""/>
		<member type="way" ref="6230032" role=""/>
		<member type="way" ref="23253068" role=""/>
		<member type="way" ref="6230016" role=""/>
		<member type="way" ref="6236665" role=""/>
		<member type="way" ref="41081855" role=""/>
		<member type="way" ref="30908782" role=""/>
		<member type="way" ref="662729032" role="platform"/>
		<member type="way" ref="415383436" role=""/>
		<member type="way" ref="256200946" role=""/>
		<tag k="name" v="ICE 1: Hamburg =&#62; Kln"/>
		<tag k="alt_name" v="ICE Sprinter Hamburg - Kln"/>
		<tag k="ref" v="ICE 1"/>
		<tag k="type" v="route"/>
		<tag k="service" v="high_speed"/>
		<tag k="from" v="Hamburg-Altona"/>
		<tag k="public_transport:version" v="2"/>
		<tag k="route" v="train"/>
		<tag k="to" v="Kln Hbf"/>
		<tag k="fixme" v="Durchfahrgleise geraten"/>
	</relation>
	<relation id="6188945">
		<member type="way" ref="673912486" role=""/>
		<member type="way" ref="4841532" role=""/>
		<member type="way" ref="46897223" role=""/>
		<member type="way" ref="213868196" role=""/>
		<member type="way" ref="6274007" role=""/>
		<member type="way" ref="7998962" role=""/>
		<member type="way" ref="23253013" role=""/>
		<member type="way" ref="42873615" role="platform"/>
		<member type="node" ref="1686600812" role="stop"/>
		<member type="way" ref="392068730" role=""/>
		<member type="way" ref="359373378" role=""/>
		<member type="way" ref="7998968" role=""/>
		<member type="way" ref="23103112" role=""/>
		<member type="way" ref="424522567" role=""/>
		<member type="way" ref="46897218" role=""/>
		<member type="way" ref="7998959" role=""/>
		<tag k="name" v="ICE 1: Kln =&#62; Hamburg"/>
		<tag k="alt_name" v="ICE Sprinter Kln - Hamburg"/>
		<tag k="ref" v="ICE 1"/>
		<tag k="type" v="route"/>
		<tag k="service" v="high_speed"/>
		<tag k="from" v="Kln Hbf"/>
		<tag k="public_transport:version" v="2"/>
		<tag k="route" v="train"/>
		<tag k="to" v="Hamburg-Altona"/>
		<tag k="fixme" v="Durchfahrgleise geraten"/>
	</relation>
	<relation id="6188946">
		<member type="way" ref="673912486" role=""/>
		<member type="way" ref="46897223" role=""/>
		<member type="way" ref="213868196" role=""/>
		<member type="way" ref="6274007" role=""/>
		<member type="way" ref="7998962" role=""/>
		<member type="way" ref="23253013" role=""/>
		<member type="node" ref="1686600811" role="stop"/>
		<member type="way" ref="392068730" role=""/>
		<member type="way" ref="359373378" role=""/>
		<member type="way" ref="662729031" role="platform"/>
		<member type="way" ref="7998968" role=""/>
		<member type="way" ref="23103112" role=""/>
		<member type="way" ref="424522567" role=""/>
		<member type="way" ref="75408304" role=""/>
		<member type="way" ref="75408342" role=""/>
		<member type="way" ref="46897218" role=""/>
		<member type="way" ref="7998959" role=""/>
		<tag k="name" v="ICE 4: Frankfurt =&#62; Hamburg"/>
		<tag k="alt_name" v="ICE Sprinter Frankfurt - Hamburg"/>
		<tag k="ref" v="ICE 4"/>
		<tag k="type" v="route"/>
		<tag k="service" v="high_speed"/>
		<tag k="from" v="Frankfurt (Main) Hbf"/>
		<tag k="public_transport:version" v="2"/>
		<tag k="route" v="train"/>
		<tag k="to" v="Hamburg-Altona"/>
		<tag k="fixme" v="Nur Teilstrecke Hamburg-Harburg - Hamburg-Altona; Durchfahrgleise geraten"/>
	</relation>
	<relation id="6188947">
		<member type="way" ref="256200949" role=""/>
		<member type="way" ref="75413326" role=""/>
		<member type="way" ref="6138684" role=""/>
		<member type="way" ref="6229963" role=""/>
		<member type="way" ref="133130814" role=""/>
		<member type="way" ref="145689821" role=""/>
		<member type="way" ref="6230032" role=""/>
		<member type="node" ref="1686600814" role="stop"/>
		<member type="way" ref="23253068" role=""/>
		<member type="way" ref="6230016" role=""/>
		<member type="way" ref="6236665" role=""/>
		<member type="way" ref="41081855" role=""/>
		<member type="way" ref="30908782" role=""/>
		<member type="way" ref="662729032" role="platform"/>
		<member type="way" ref="415383436" role=""/>
		<member type="way" ref="256200946" role=""/>
		<tag k="name" v="ICE 4: Hamburg =&#62; Frankfurt"/>
		<tag k="alt_name" v="ICE Sprinter Hamburg - Frankfurt"/>
		<tag k="ref" v="ICE 4"/>
		<tag k="type" v="route"/>
		<tag k="service" v="high_speed"/>
		<tag k="from" v="Hamburg-Altona"/>
		<tag k="public_transport:version" v="2"/>
		<tag k="route" v="train"/>
		<tag k="to" v="Frankfurt (Main) Hbf"/>
		<tag k="fixme" v="Durchfahrgleise geraten"/>
	</relation>
	<relation id="6193557">
		<member type="way" ref="673912486" role=""/>
		<member type="way" ref="4841532" role=""/>
		<member type="way" ref="46897223" role=""/>
		<member type="way" ref="213868196" role=""/>
		<member type="way" ref="6274007" role=""/>
		<member type="way" ref="7998962" role=""/>
		<member type="way" ref="23253013" role=""/>
		<member type="way" ref="42873615" role="platform"/>
		<member type="node" ref="1686600812" role="stop"/>
		<member type="way" ref="392068730" role=""/>
		<member type="way" ref="359373378" role=""/>
		<member type="way" ref="7998968" role=""/>
		<member type="way" ref="23103112" role=""/>
		<member type="way" ref="424522567" role=""/>
		<member type="way" ref="46897218" role=""/>
		<member type="way" ref="7998959" role=""/>
		<tag k="name" v="ICE 26: Berchtesgaden =&#62; Hamburg-Altona"/>
		<tag k="ref" v="ICE 26"/>
		<tag k="type" v="route"/>
		<tag k="service" v="high_speed"/>
		<tag k="from" v="Berchtesgaden Hbf"/>
		<tag k="public_transport:version" v="2"/>
		<tag k="route" v="train"/>
		<tag k="to" v="Hamburg-Altona"/>
	</relation>
	<relation id="6193558">
		<member type="way" ref="256200949" role=""/>
		<member type="way" ref="75413326" role=""/>
		<member type="way" ref="6138684" role=""/>
		<member type="way" ref="6229963" role=""/>
		<member type="way" ref="133130814" role=""/>
		<member type="way" ref="145689821" role=""/>
		<member type="way" ref="6230032" role=""/>
		<member type="node" ref="1686600814" role="stop"/>
		<member type="way" ref="23253068" role=""/>
		<member type="way" ref="6230016" role=""/>
		<member type="way" ref="6236665" role=""/>
		<member type="way" ref="41081855" role=""/>
		<member type="way" ref="30908782" role=""/>
		<member type="way" ref="662729032" role="platform"/>
		<member type="way" ref="415383436" role=""/>
		<member type="way" ref="256200946" role=""/>
		<tag k="name" v="ICE 26: Hamburg-Altona =&#62; Berchtesgaden"/>
		<tag k="ref" v="ICE 26"/>
		<tag k="type" v="route"/>
		<tag k="service" v="high_speed"/>
		<tag k="from" v="Hamburg-Altona"/>
		<tag k="public_transport:version" v="2"/>
		<tag k="route" v="train"/>
		<tag k="to" v="Berchtesgaden Hbf"/>
	</relation>
	<relation id="6193559">
		<member type="way" ref="673912486" role=""/>
		<member type="way" ref="4841532" role=""/>
		<member type="way" ref="46897223" role=""/>
		<member type="way" ref="213868196" role=""/>
		<member type="way" ref="6274007" role=""/>
		<member type="way" ref="7998962" role=""/>
		<member type="way" ref="23253013" role=""/>
		<member type="way" ref="42873615" role="platform"/>
		<member type="node" ref="1686600812" role="stop"/>
		<member type="way" ref="392068730" role=""/>
		<member type="way" ref="359373378" role=""/>
		<member type="way" ref="7998968" role=""/>
		<member type="way" ref="23103112" role=""/>
		<member type="way" ref="424522567" role=""/>
		<member type="way" ref="46897218" role=""/>
		<member type="way" ref="7998959" role=""/>
		<tag k="name" v="ICE 26: Oberstdorf =&#62; Hamburg-Altona"/>
		<tag k="ref" v="ICE 26"/>
		<tag k="type" v="route"/>
		<tag k="service" v="high_speed"/>
		<tag k="from" v="Oberstdorf"/>
		<tag k="public_transport:version" v="2"/>
		<tag k="route" v="train"/>
		<tag k="to" v="Hamburg-Altona"/>
	</relation>
	<relation id="6309270">
		<member type="way" ref="256200949" role=""/>
		<member type="way" ref="75413326" role=""/>
		<member type="way" ref="6138684" role=""/>
		<member type="way" ref="6229963" role=""/>
		<member type="way" ref="133130814" role=""/>
		<member type="way" ref="145689821" role=""/>
		<member type="way" ref="6230032" role=""/>
		<member type="node" ref="1686600814" role="stop"/>
		<member type="way" ref="23253068" role=""/>
		<member type="way" ref="6230016" role=""/>
		<member type="way" ref="6236665" role=""/>
		<member type="way" ref="41081855" role=""/>
		<member type="way" ref="30908782" role=""/>
		<member type="way" ref="662729032" role="platform"/>
		<member type="way" ref="415383436" role=""/>
		<member type="way" ref="256200946" role=""/>
		<tag k="name" v="IC 31: Hamburg =&#62; Koblenz =&#62; Frankfurt (Main)"/>
		<tag k="ref" v="IC 31"/>
		<tag k="type" v="route"/>
		<tag k="service" v="long_distance"/>
		<tag k="from" v="Hamburg-Altona"/>
		<tag k="public_transport:version" v="2"/>
		<tag k="route" v="train"/>
		<tag k="to" v="Frankfurt (Main) Hauptbahnhof"/>
	</relation>
	<relation id="6421072">
		<member type="way" ref="673912486" role=""/>
		<member type="way" ref="4841532" role=""/>
		<member type="way" ref="46897223" role=""/>
		<member type="way" ref="213868196" role=""/>
		<member type="way" ref="6274007" role=""/>
		<member type="way" ref="7998962" role=""/>
		<member type="way" ref="23253013" role=""/>
		<member type="way" ref="42873615" role="platform"/>
		<member type="node" ref="1686600812" role="stop"/>
		<member type="way" ref="392068730" role=""/>
		<member type="way" ref="359373378" role=""/>
		<member type="way" ref="7998968" role=""/>
		<member type="way" ref="23103112" role=""/>
		<member type="way" ref="424522567" role=""/>
		<member type="way" ref="46897218" role=""/>
		<member type="way" ref="7998959" role=""/>
		<tag k="name" v="ICE 25: Garmisch-Partenkirchen =&#62; Hamburg-Altona"/>
		<tag k="ref" v="ICE 25"/>
		<tag k="type" v="route"/>
		<tag k="service" v="high_speed"/>
		<tag k="from" v="Garmisch-Partenkirchen"/>
		<tag k="public_transport:version" v="2"/>
		<tag k="route" v="train"/>
		<tag k="to" v="Hamburg-Altona"/>
	</relation>
	<relation id="6421073">
		<member type="way" ref="256200949" role=""/>
		<member type="node" ref="1686600808" role="stop"/>
		<member type="way" ref="133130813" role=""/>
		<member type="way" ref="6229963" role=""/>
		<member type="way" ref="42873617" role="platform"/>
		<member type="way" ref="133130814" role=""/>
		<member type="way" ref="145689821" role=""/>
		<member type="way" ref="6230032" role=""/>
		<member type="way" ref="75412691" role=""/>
		<member type="way" ref="23253068" role=""/>
		<member type="way" ref="6230016" role=""/>
		<member type="way" ref="6236665" role=""/>
		<member type="way" ref="41081855" role=""/>
		<member type="way" ref="30908782" role=""/>
		<member type="way" ref="75413171" role=""/>
		<member type="way" ref="256200946" role=""/>
		<tag k="name" v="ICE 25: Hamburg-Altona =&#62; Garmisch-Partenkirchen"/>
		<tag k="ref" v="ICE 25"/>
		<tag k="type" v="route"/>
		<tag k="service" v="high_speed"/>
		<tag k="from" v="Hamburg-Altona"/>
		<tag k="public_transport:version" v="2"/>
		<tag k="route" v="train"/>
		<tag k="to" v="Garmisch-Partenkirchen"/>
	</relation>
	<relation id="6820626">
		<member type="way" ref="75408665" role=""/>
		<member type="way" ref="60919316" role=""/>
		<member type="way" ref="60919320" role=""/>
		<member type="way" ref="77339553" role=""/>
		<member type="way" ref="22732481" role=""/>
		<member type="way" ref="842481505" role=""/>
		<member type="way" ref="22732480" role=""/>
		<member type="way" ref="662729031" role="platform_entry_only"/>
		<member type="way" ref="60919333" role=""/>
		<member type="way" ref="359380723" role=""/>
		<member type="way" ref="59708694" role=""/>
		<member type="way" ref="19789986" role=""/>
		<member type="way" ref="464143969" role=""/>
		<member type="way" ref="416499770" role=""/>
		<member type="way" ref="360820693" role=""/>
		<member type="node" ref="1686600810" role="stop_entry_only"/>
		<member type="way" ref="416499664" role=""/>
		<member type="way" ref="8153647" role=""/>
		<member type="way" ref="75414283" role=""/>
		<member type="way" ref="75446326" role=""/>
		<tag k="name" v="RB71: Hamburg-Altona =&#62; Wrist"/>
		<tag k="ref" v="RB71"/>
		<tag k="type" v="route"/>
		<tag k="from" v="Hamburg-Altona"/>
		<tag k="public_transport:version" v="2"/>
		<tag k="colour" v="#008BD2"/>
		<tag k="route" v="train"/>
		<tag k="to" v="Wrist"/>
	</relation>
	<relation id="6820725">
		<member type="way" ref="75408665" role=""/>
		<member type="way" ref="60919316" role=""/>
		<member type="way" ref="60919320" role=""/>
		<member type="way" ref="77339553" role=""/>
		<member type="way" ref="22732481" role=""/>
		<member type="way" ref="842481505" role=""/>
		<member type="way" ref="22732480" role=""/>
		<member type="way" ref="662729031" role="platform_exit_only"/>
		<member type="way" ref="60919333" role=""/>
		<member type="way" ref="359380723" role=""/>
		<member type="way" ref="59708694" role=""/>
		<member type="way" ref="19789986" role=""/>
		<member type="way" ref="416499770" role=""/>
		<member type="way" ref="464143969" role=""/>
		<member type="way" ref="360820693" role=""/>
		<member type="node" ref="1686600810" role="stop_exit_only"/>
		<member type="way" ref="416499664" role=""/>
		<member type="way" ref="8153647" role=""/>
		<member type="way" ref="75414283" role=""/>
		<member type="way" ref="75446326" role=""/>
		<tag k="name" v="RB71: Wrist =&#62; Hamburg"/>
		<tag k="ref" v="RB71"/>
		<tag k="type" v="route"/>
		<tag k="from" v="Wrist"/>
		<tag k="public_transport:version" v="2"/>
		<tag k="colour" v="#008BD2"/>
		<tag k="route" v="train"/>
		<tag k="to" v="Hamburg-Altona"/>
	</relation>
	<relation id="6854375">
		<member type="way" ref="75408665" role=""/>
		<member type="way" ref="60919316" role=""/>
		<member type="way" ref="60919320" role=""/>
		<member type="way" ref="22732481" role=""/>
		<member type="way" ref="42873617" role="platform_exit_only"/>
		<member type="way" ref="842481505" role=""/>
		<member type="way" ref="22732480" role=""/>
		<member type="way" ref="75414228" role=""/>
		<member type="way" ref="6271257" role=""/>
		<member type="way" ref="60919333" role=""/>
		<member type="way" ref="359380723" role=""/>
		<member type="way" ref="59708694" role=""/>
		<member type="way" ref="19789986" role=""/>
		<member type="way" ref="416499770" role=""/>
		<member type="way" ref="464143969" role=""/>
		<member type="way" ref="360820693" role=""/>
		<member type="node" ref="1686600809" role="stop_exit_only"/>
		<member type="way" ref="464143970" role=""/>
		<member type="way" ref="416499664" role=""/>
		<member type="way" ref="8153647" role=""/>
		<member type="way" ref="75414283" role=""/>
		<tag k="name" v="RB71: Itzehoe =&#62; Hamburg-Altona"/>
		<tag k="ref" v="RB71"/>
		<tag k="type" v="route"/>
		<tag k="from" v="Itzehoe"/>
		<tag k="public_transport:version" v="2"/>
		<tag k="colour" v="#008BD2"/>
		<tag k="route" v="train"/>
		<tag k="to" v="Hamburg-Altona"/>
	</relation>
	<relation id="6854376">
		<member type="way" ref="75408665" role=""/>
		<member type="way" ref="60919316" role=""/>
		<member type="way" ref="60919320" role=""/>
		<member type="way" ref="75408304" role=""/>
		<member type="way" ref="22732481" role=""/>
		<member type="way" ref="842481505" role=""/>
		<member type="way" ref="22732480" role=""/>
		<member type="way" ref="662729031" role="platform_entry_only"/>
		<member type="way" ref="60919333" role=""/>
		<member type="way" ref="415383440" role=""/>
		<member type="way" ref="359380723" role=""/>
		<member type="way" ref="59708694" role=""/>
		<member type="way" ref="19789986" role=""/>
		<member type="way" ref="416499770" role=""/>
		<member type="way" ref="360820693" role=""/>
		<member type="way" ref="416499664" role=""/>
		<member type="node" ref="1686600811" role="stop_entry_only"/>
		<member type="way" ref="8153647" role=""/>
		<member type="way" ref="359373376" role=""/>
		<tag k="name" v="RB71: Hamburg =&#62; Itzehoe"/>
		<tag k="ref" v="RB71"/>
		<tag k="type" v="route"/>
		<tag k="from" v="Hamburg-Altona"/>
		<tag k="public_transport:version" v="2"/>
		<tag k="colour" v="#008BD2"/>
		<tag k="route" v="train"/>
		<tag k="to" v="Itzehoe"/>
	</relation>
	<relation id="6864466">
		<member type="way" ref="256200949" role=""/>
		<member type="node" ref="1686600808" role="stop"/>
		<member type="way" ref="133130813" role=""/>
		<member type="way" ref="6229963" role=""/>
		<member type="way" ref="42873617" role="platform"/>
		<member type="way" ref="133130814" role=""/>
		<member type="way" ref="145689821" role=""/>
		<member type="way" ref="6230032" role=""/>
		<member type="way" ref="75412691" role=""/>
		<member type="way" ref="23253068" role=""/>
		<member type="way" ref="6230016" role=""/>
		<member type="way" ref="6236665" role=""/>
		<member type="way" ref="41081855" role=""/>
		<member type="way" ref="30908782" role=""/>
		<member type="way" ref="75413171" role=""/>
		<member type="way" ref="256200946" role=""/>
		<tag k="name" v="FLX 20: Hamburg =&#62; Kln"/>
		<tag k="ref" v="FLX 20"/>
		<tag k="type" v="route"/>
		<tag k="service" v="long_distance"/>
		<tag k="from" v="Hamburg-Altona"/>
		<tag k="public_transport:version" v="2"/>
		<tag k="colour" v="green"/>
		<tag k="route" v="train"/>
		<tag k="to" v="Kln"/>
	</relation>
	<relation id="7819672">
		<member type="way" ref="673912486" role=""/>
		<member type="way" ref="4841532" role=""/>
		<member type="way" ref="46897223" role=""/>
		<member type="way" ref="213868196" role=""/>
		<member type="way" ref="6274007" role=""/>
		<member type="way" ref="7998962" role=""/>
		<member type="way" ref="23253013" role=""/>
		<member type="way" ref="42873615" role="platform"/>
		<member type="node" ref="1686600812" role="stop"/>
		<member type="way" ref="392068730" role=""/>
		<member type="way" ref="359373378" role=""/>
		<member type="way" ref="7998968" role=""/>
		<member type="way" ref="23103112" role=""/>
		<member type="way" ref="424522567" role=""/>
		<member type="way" ref="46897218" role=""/>
		<member type="way" ref="7998959" role=""/>
		<tag k="name" v="ICE 26: Karlsruhe =&#62; Hamburg-Altona"/>
		<tag k="ref" v="ICE 26"/>
		<tag k="type" v="route"/>
		<tag k="service" v="high_speed"/>
		<tag k="from" v="Karlsruhe"/>
		<tag k="public_transport:version" v="2"/>
		<tag k="route" v="train"/>
		<tag k="to" v="Hamburg-Altona"/>
	</relation>
	<relation id="8865584">
		<member type="way" ref="256200949" role=""/>
		<member type="node" ref="1686600808" role="stop"/>
		<member type="way" ref="133130813" role=""/>
		<member type="way" ref="6229963" role=""/>
		<member type="way" ref="42873617" role="platform"/>
		<member type="way" ref="133130814" role=""/>
		<member type="way" ref="145689821" role=""/>
		<member type="way" ref="6230032" role=""/>
		<member type="way" ref="75412691" role=""/>
		<member type="way" ref="23253068" role=""/>
		<member type="way" ref="6230016" role=""/>
		<member type="way" ref="6236665" role=""/>
		<member type="way" ref="41081855" role=""/>
		<member type="way" ref="30908782" role=""/>
		<member type="way" ref="75413171" role=""/>
		<member type="way" ref="256200946" role=""/>
		<tag k="name" v="EC 9: Hamburg =&#62; Zrich"/>
		<tag k="ref" v="EC 9"/>
		<tag k="type" v="route"/>
		<tag k="service" v="long_distance"/>
		<tag k="fee" v="yes"/>
		<tag k="from" v="Hamburg-Altona"/>
		<tag k="public_transport:version" v="2"/>
		<tag k="route" v="train"/>
		<tag k="to" v="Zrich Hauptbahnhof"/>
		<tag k="headway" v="1440"/>
	</relation>
	<relation id="9345802">
		<member type="way" ref="55884101" role=""/>
		<member type="way" ref="4874562" role=""/>
		<member type="way" ref="42836990" role=""/>
		<member type="way" ref="466940240" role=""/>
		<member type="way" ref="42838504" role="platform"/>
		<member type="way" ref="27403305" role=""/>
		<member type="way" ref="42836977" role=""/>
		<member type="way" ref="42836976" role=""/>
		<member type="way" ref="22904343" role=""/>
		<member type="way" ref="673912474" role=""/>
		<member type="node" ref="535951138" role="stop"/>
		<member type="way" ref="55884110" role=""/>
		<member type="way" ref="143710430" role=""/>
		<member type="node" ref="3472680897" role="stop"/>
		<member type="way" ref="42836989" role=""/>
		<member type="way" ref="27403371" role=""/>
		<tag k="name" v="S3: Elbgaustrae =&#62; Buxtehude"/>
		<tag k="ref" v="S3"/>
		<tag k="type" v="route"/>
		<tag k="from" v="Elbgaustrae"/>
		<tag k="public_transport:version" v="2"/>
		<tag k="colour" v="#5D1D81"/>
		<tag k="text_colour" v="indigo"/>
		<tag k="route" v="train"/>
		<tag k="to" v="Buxtehude"/>
	</relation>
	<relation id="9345803">
		<member type="way" ref="42838505" role="platform"/>
		<member type="way" ref="121380696" role=""/>
		<member type="way" ref="27403475" role=""/>
		<member type="way" ref="42836961" role=""/>
		<member type="node" ref="300809530" role="stop"/>
		<member type="way" ref="42836962" role=""/>
		<member type="way" ref="55884106" role=""/>
		<member type="way" ref="27403634" role=""/>
		<member type="way" ref="466940236" role=""/>
		<member type="way" ref="55884096" role=""/>
		<tag k="name" v="S3: Buxtehude =&#62; Elbgaustrae"/>
		<tag k="ref" v="S3"/>
		<tag k="type" v="route"/>
		<tag k="from" v="Buxtehude"/>
		<tag k="public_transport:version" v="2"/>
		<tag k="colour" v="#5D1D81"/>
		<tag k="text_colour" v="indigo"/>
		<tag k="route" v="train"/>
		<tag k="to" v="Elbgaustrae"/>
	</relation>
	<relation id="9352200">
		<member type="way" ref="256200949" role=""/>
		<member type="way" ref="6270944" role=""/>
		<member type="node" ref="1686600807" role="stop_entry_only"/>
		<member type="way" ref="359373372" role=""/>
		<member type="way" ref="6229963" role=""/>
		<member type="way" ref="133130814" role=""/>
		<member type="way" ref="145689821" role=""/>
		<member type="way" ref="6230032" role=""/>
		<member type="way" ref="23253068" role=""/>
		<member type="way" ref="6230016" role=""/>
		<member type="way" ref="6236665" role=""/>
		<member type="way" ref="41081855" role=""/>
		<member type="way" ref="30908782" role=""/>
		<member type="way" ref="662729032" role="platform_entry_only"/>
		<member type="way" ref="415383436" role=""/>
		<member type="way" ref="256200946" role=""/>
		<tag k="name" v="ICE 26: Hamburg-Altona =&#62; Karlsruhe"/>
		<tag k="ref" v="ICE 26"/>
		<tag k="type" v="route"/>
		<tag k="service" v="high_speed"/>
		<tag k="from" v="Hamburg-Altona"/>
		<tag k="public_transport:version" v="2"/>
		<tag k="route" v="train"/>
		<tag k="to" v="Karlsruhe"/>
	</relation>
	<relation id="9477227">
		<member type="way" ref="256200949" role=""/>
		<member type="node" ref="1686600808" role="stop"/>
		<member type="way" ref="133130813" role=""/>
		<member type="way" ref="6229963" role=""/>
		<member type="way" ref="42873617" role="platform"/>
		<member type="way" ref="133130814" role=""/>
		<member type="way" ref="145689821" role=""/>
		<member type="way" ref="6230032" role=""/>
		<member type="way" ref="75412691" role=""/>
		<member type="way" ref="23253068" role=""/>
		<member type="way" ref="6230016" role=""/>
		<member type="way" ref="6236665" role=""/>
		<member type="way" ref="41081855" role=""/>
		<member type="way" ref="30908782" role=""/>
		<member type="way" ref="75413171" role=""/>
		<member type="way" ref="256200946" role=""/>
		<tag k="brand:wikidata" v="Q28127371"/>
		<tag k="name" v="NJ 491: Hamburg-Altona =&#62; Wien"/>
		<tag k="ref" v="NJ 491"/>
		<tag k="brand:wikipedia" v="de:BB Nightjet"/>
		<tag k="type" v="route"/>
		<tag k="service" v="night;motorail"/>
		<tag k="from" v="Hamburg-Altona"/>
		<tag k="public_transport:version" v="2"/>
		<tag k="route" v="train"/>
		<tag k="to" v="Wien Hbf Autoreisezug"/>
		<tag k="brand" v="BB Nightjet"/>
	</relation>
	<relation id="9477481">
		<member type="way" ref="256200949" role=""/>
		<member type="node" ref="1686600808" role="stop"/>
		<member type="way" ref="133130813" role=""/>
		<member type="way" ref="6229963" role=""/>
		<member type="way" ref="42873617" role="platform"/>
		<member type="way" ref="133130814" role=""/>
		<member type="way" ref="145689821" role=""/>
		<member type="way" ref="6230032" role=""/>
		<member type="way" ref="75412691" role=""/>
		<member type="way" ref="23253068" role=""/>
		<member type="way" ref="6230016" role=""/>
		<member type="way" ref="6236665" role=""/>
		<member type="way" ref="41081855" role=""/>
		<member type="way" ref="30908782" role=""/>
		<member type="way" ref="75413171" role=""/>
		<member type="way" ref="256200946" role=""/>
		<tag k="brand:wikidata" v="Q28127371"/>
		<tag k="name" v="NJ 40491: Hamburg-Altona =&#62; Innsbruck"/>
		<tag k="ref" v="NJ 40491"/>
		<tag k="brand:wikipedia" v="de:BB Nightjet"/>
		<tag k="type" v="route"/>
		<tag k="service" v="night;motorail"/>
		<tag k="from" v="Hamburg-Altona"/>
		<tag k="public_transport:version" v="2"/>
		<tag k="route" v="train"/>
		<tag k="to" v="Innsbruck Hbf"/>
		<tag k="brand" v="BB Nightjet"/>
	</relation>
	<relation id="9511959">
		<member type="way" ref="256200949" role=""/>
		<member type="node" ref="1686600808" role="stop"/>
		<member type="way" ref="133130813" role=""/>
		<member type="way" ref="6229963" role=""/>
		<member type="way" ref="42873617" role="platform"/>
		<member type="way" ref="133130814" role=""/>
		<member type="way" ref="145689821" role=""/>
		<member type="way" ref="6230032" role=""/>
		<member type="way" ref="75412691" role=""/>
		<member type="way" ref="23253068" role=""/>
		<member type="way" ref="6230016" role=""/>
		<member type="way" ref="6236665" role=""/>
		<member type="way" ref="41081855" role=""/>
		<member type="way" ref="30908782" role=""/>
		<member type="way" ref="75413171" role=""/>
		<member type="way" ref="256200946" role=""/>
		<tag k="name" v="ICE 25: Hamburg-Altona =&#62; Augsburg =&#62; Mnchen"/>
		<tag k="ref" v="ICE 25"/>
		<tag k="type" v="route"/>
		<tag k="service" v="high_speed"/>
		<tag k="from" v="Hamburg-Altona"/>
		<tag k="public_transport:version" v="2"/>
		<tag k="route" v="train"/>
		<tag k="to" v="Mnchen Hbf"/>
		<tag k="ref_trips" v="ICE 587"/>
	</relation>
</osm>
