<?xml version='1.0' encoding='UTF-8'?>
<!--
 SPDX-FileCopyrightText: OpenStreetMap contributors
 SPDX-License-Identifier: ODbL-1.0
-->
<osm version="0.6" generator="osmfilter 1.4.4">
	<bounds minlat="53.5468356" minlon="10.0003052" maxlat="53.556626" maxlon="10.0112915"/>
	<node id="25081442" lat="53.5515459" lon="10.0077511">
		<tag k="public_transport" v="stop_position"/>
		<tag k="local_ref" v="6A-C"/>
		<tag k="train" v="yes"/>
		<tag k="name" v="Hamburg Hauptbahnhof"/>
		<tag k="railway" v="stop"/>
		<tag k="level" v="-1"/>
	</node>
	<node id="25081449" lat="53.5503376" lon="10.0094301"/>
	<node id="31161158" lat="53.550522" lon="10.0093799">
		<tag k="ref" v="46"/>
	</node>
	<node id="52104039" lat="53.5538884" lon="10.0055221"/>
	<node id="52104870" lat="53.5530638" lon="10.0060313">
		<tag k="public_transport" v="stop_position"/>
		<tag k="local_ref" v="13D-F"/>
		<tag k="train" v="yes"/>
		<tag k="name" v="Hamburg Hauptbahnhof"/>
		<tag k="railway" v="stop"/>
		<tag k="level" v="-1"/>
	</node>
	<node id="52104885" lat="53.5516674" lon="10.0066776"/>
	<node id="52104889" lat="53.5505726" lon="10.0069047"/>
	<node id="53123251" lat="53.5532748" lon="10.0068867"/>
	<node id="53123252" lat="53.5538329" lon="10.0065496"/>
	<node id="53123759" lat="53.5542605" lon="10.0064222"/>
	<node id="53123944" lat="53.5522083" lon="10.0073903">
		<tag k="ref" v="O6"/>
		<tag k="level" v="-1"/>
	</node>
	<node id="170616001" lat="53.5539465" lon="10.0097537"/>
	<node id="170616006" lat="53.5540631" lon="10.0093019"/>
	<node id="206128483" lat="53.5532927" lon="10.005236">
		<tag k="name" v="Hauptbahnhof Nord"/>
		<tag k="railway" v="subway_entrance"/>
	</node>
	<node id="206128693" lat="53.5537959" lon="10.0076668">
		<tag k="name" v="Heidi-Kabel-Platz"/>
		<tag k="railway" v="subway_entrance"/>
	</node>
	<node id="220450603" lat="53.5505844" lon="10.0094558"/>
	<node id="258196025" lat="53.554154" lon="10.0087987"/>
	<node id="258576519" lat="53.5521608" lon="10.0093336">
		<tag k="public_transport" v="station"/>
		<tag k="subway" v="yes"/>
		<tag k="station" v="subway"/>
		<tag k="hha_ref" v="HB"/>
		<tag k="name" v="Hauptbahnhof Süd"/>
		<tag k="railway" v="station"/>
	</node>
	<node id="287927785" lat="53.5506023" lon="10.0067591">
		<tag k="level" v="-1"/>
	</node>
	<node id="288309711" lat="53.5517321" lon="10.0066076">
		<tag k="public_transport" v="platform"/>
		<tag k="bus" v="yes"/>
		<tag k="highway" v="bus_stop"/>
		<tag k="name" v="Hauptbahnhof/Steintorwall"/>
		<tag k="level" v="0"/>
	</node>
	<node id="300802945" lat="53.5516329" lon="10.0081183"/>
	<node id="300802971" lat="53.5540201" lon="10.0068072"/>
	<node id="303497269" lat="53.5505788" lon="10.0069983"/>
	<node id="315220200" lat="53.5521112" lon="10.0079217"/>
	<node id="315220202" lat="53.5538633" lon="10.0067186"/>
	<node id="315220206" lat="53.5521946" lon="10.0072931">
		<tag k="ref" v="O7"/>
		<tag k="level" v="-1"/>
	</node>
	<node id="315220212" lat="53.5537929" lon="10.0064062"/>
	<node id="315220224" lat="53.5503103" lon="10.0092597">
		<tag k="ref" v="311"/>
	</node>
	<node id="315220225" lat="53.5514719" lon="10.0074795"/>
	<node id="315220227" lat="53.5521637" lon="10.0070958">
		<tag k="ref" v="O8;S8"/>
		<tag k="level" v="-1"/>
	</node>
	<node id="315220228" lat="53.5532207" lon="10.0065878"/>
	<node id="315220229" lat="53.5537663" lon="10.0062197"/>
	<node id="315220232" lat="53.5509075" lon="10.0079819"/>
	<node id="315220233" lat="53.5512755" lon="10.0075409"/>
	<node id="315220237" lat="53.5532074" lon="10.0064954"/>
	<node id="315220239" lat="53.5537386" lon="10.0061139"/>
	<node id="315220248" lat="53.553695" lon="10.0059293"/>
	<node id="315220249" lat="53.5531736" lon="10.0062922"/>
	<node id="315220252" lat="53.5517121" lon="10.0070108"/>
	<node id="315220266" lat="53.5518287" lon="10.0070858">
		<tag k="level" v="-1"/>
	</node>
	<node id="315220271" lat="53.5531926" lon="10.0063906"/>
	<node id="315220273" lat="53.5537183" lon="10.0060193">
		<tag k="ref" v="T10"/>
		<tag k="level" v="-1"/>
	</node>
	<node id="315220274" lat="53.5538739" lon="10.0058814">
		<tag k="ref" v="402"/>
		<tag k="level" v="-1"/>
	</node>
	<node id="315220281" lat="53.5537722" lon="10.0062387"/>
	<node id="315220283" lat="53.5521662" lon="10.0071157"/>
	<node id="315220284" lat="53.5520685" lon="10.0071627"/>
	<node id="315220285" lat="53.5522091" lon="10.007408"/>
	<node id="315220287" lat="53.5521054" lon="10.0074607"/>
	<node id="315220288" lat="53.5538344" lon="10.0065703"/>
	<node id="315220289" lat="53.5524413" lon="10.0077765"/>
	<node id="315220293" lat="53.5520762" lon="10.0063482"/>
	<node id="315220295" lat="53.5516474" lon="10.0065059"/>
	<node id="315220296" lat="53.5533964" lon="10.0057186"/>
	<node id="315220297" lat="53.5521445" lon="10.0066252"/>
	<node id="315220300" lat="53.5516916" lon="10.0068046"/>
	<node id="315220302" lat="53.5536888" lon="10.0058095"/>
	<node id="315220304" lat="53.5530362" lon="10.0058828">
		<tag k="public_transport" v="stop_position"/>
		<tag k="local_ref" v="14D-F"/>
		<tag k="train" v="yes"/>
		<tag k="name" v="Hamburg Hauptbahnhof"/>
		<tag k="railway" v="stop"/>
		<tag k="level" v="-1"/>
	</node>
	<node id="315220306" lat="53.5521415" lon="10.0066"/>
	<node id="315220309" lat="53.553087" lon="10.0061381"/>
	<node id="315221415" lat="53.5509369" lon="10.0080587"/>
	<node id="315221417" lat="53.5509903" lon="10.0081587"/>
	<node id="315221418" lat="53.551022" lon="10.0082291"/>
	<node id="315221420" lat="53.5508698" lon="10.0085678">
		<tag k="ref" v="O5"/>
		<tag k="level" v="-1"/>
	</node>
	<node id="315221422" lat="53.5508671" lon="10.0086721"/>
	<node id="315221423" lat="53.5509056" lon="10.0087564"/>
	<node id="315230131" lat="53.5534188" lon="10.0075876">
		<tag k="level" v="-1"/>
	</node>
	<node id="315230133" lat="53.5522111" lon="10.0081243">
		<tag k="public_transport" v="stop_position"/>
		<tag k="local_ref" v="2"/>
		<tag k="subway" v="no"/>
		<tag k="light_rail" v="yes"/>
		<tag k="train" v="yes"/>
		<tag k="name" v="Hamburg Hauptbahnhof"/>
		<tag k="railway" v="stop"/>
		<tag k="level" v="-1"/>
	</node>
	<node id="315231593" lat="53.5533167" lon="10.0072293"/>
	<node id="315238371" lat="53.5515172" lon="10.0084394"/>
	<node id="315238372" lat="53.5517918" lon="10.0082946"/>
	<node id="315238374" lat="53.5535877" lon="10.0074667">
		<tag k="ref" v="55"/>
		<tag k="railway:turnout_side" v="left"/>
		<tag k="level" v="-1"/>
	</node>
	<node id="315308724" lat="53.5512201" lon="10.008162"/>
	<node id="315308726" lat="53.5515554" lon="10.0077676"/>
	<node id="315308727" lat="53.5510238" lon="10.0082513"/>
	<node id="315308729" lat="53.5514367" lon="10.0075296"/>
	<node id="315308730" lat="53.5512109" lon="10.0077489"/>
	<node id="315308731" lat="53.5520894" lon="10.0073291"/>
	<node id="315308732" lat="53.5513539" lon="10.006886"/>
	<node id="315308736" lat="53.5505782" lon="10.0070145"/>
	<node id="315308737" lat="53.5513388" lon="10.006585"/>
	<node id="315308740" lat="53.5504782" lon="10.0068113"/>
	<node id="315308742" lat="53.553778" lon="10.005519"/>
	<node id="315308751" lat="53.5520973" lon="10.0081926"/>
	<node id="315308762" lat="53.5536713" lon="10.006685"/>
	<node id="315308775" lat="53.5532521" lon="10.0065955"/>
	<node id="315308778" lat="53.5531454" lon="10.0061303"/>
	<node id="315308781" lat="53.5530605" lon="10.0058926"/>
	<node id="315308785" lat="53.5531707" lon="10.006268"/>
	<node id="315308789" lat="53.5541466" lon="10.0057772"/>
	<node id="315308795" lat="53.5521215" lon="10.0075848"/>
	<node id="315308805" lat="53.553083" lon="10.0060008"/>
	<node id="332130137" lat="53.552578" lon="10.0062798"/>
	<node id="335698114" lat="53.5540093" lon="10.0081194">
		<tag k="public_transport" v="platform"/>
		<tag k="bus" v="yes"/>
		<tag k="highway" v="bus_stop"/>
		<tag k="passenger_information_display" v="yes"/>
		<tag k="bench" v="yes"/>
		<tag k="bin" v="yes"/>
		<tag k="name" v="Hauptbahnhof/Kirchenallee"/>
	</node>
	<node id="335698176" lat="53.5531211" lon="10.0087244">
		<tag k="public_transport" v="platform"/>
		<tag k="bus" v="yes"/>
		<tag k="highway" v="bus_stop"/>
		<tag k="passenger_information_display" v="yes"/>
		<tag k="name" v="Hauptbahnhof/Kirchenallee"/>
	</node>
	<node id="337301128" lat="53.5526306" lon="10.0057288">
		<tag k="public_transport" v="platform"/>
		<tag k="bus" v="yes"/>
		<tag k="highway" v="bus_stop"/>
		<tag k="name" v="Hauptbahnhof/Spitalerstraße"/>
	</node>
	<node id="337301295" lat="53.5524501" lon="10.0053352">
		<tag k="public_transport" v="platform"/>
		<tag k="bus" v="yes"/>
		<tag k="highway" v="bus_stop"/>
		<tag k="passenger_information_display" v="yes"/>
		<tag k="name" v="Hauptbahnhof/Spitalerstraße"/>
	</node>
	<node id="534120870" lat="53.551031" lon="10.0088537"/>
	<node id="534744595" lat="53.5511411" lon="10.0084752"/>
	<node id="534744625" lat="53.5505327" lon="10.0092414"/>
	<node id="534744629" lat="53.5511136" lon="10.0089357">
		<tag k="ref" v="40"/>
		<tag k="level" v="-1"/>
	</node>
	<node id="534744631" lat="53.5503916" lon="10.0095459"/>
	<node id="534744633" lat="53.5506146" lon="10.0096173"/>
	<node id="535103491" lat="53.5538549" lon="10.0074123"/>
	<node id="535103492" lat="53.5539965" lon="10.0071212"/>
	<node id="535450100" lat="53.5504555" lon="10.0088584"/>
	<node id="535450123" lat="53.5505067" lon="10.0091904"/>
	<node id="535450126" lat="53.5503743" lon="10.0094632">
		<tag k="ref" v="313"/>
	</node>
	<node id="535450128" lat="53.5502759" lon="10.0095679"/>
	<node id="536652769" lat="53.5515103" lon="10.0083984"/>
	<node id="536652770" lat="53.5513706" lon="10.008499"/>
	<node id="536652771" lat="53.5513368" lon="10.0083586"/>
	<node id="536652772" lat="53.5514868" lon="10.008255"/>
	<node id="536652775" lat="53.5516348" lon="10.0081737"/>
	<node id="536652776" lat="53.5516575" lon="10.008311"/>
	<node id="536652782" lat="53.5511661" lon="10.008505"/>
	<node id="536652786" lat="53.5511992" lon="10.00862"/>
	<node id="540999013" lat="53.5520248" lon="10.0096333">
		<tag k="public_transport" v="stop_position"/>
		<tag k="ref" v="2"/>
		<tag k="subway" v="yes"/>
		<tag k="name" v="Hauptbahnhof Süd"/>
		<tag k="railway" v="stop"/>
	</node>
	<node id="540999015" lat="53.5518733" lon="10.0089346"/>
	<node id="544377157" lat="53.5539197" lon="10.0050614"/>
	<node id="563245809" lat="53.5519713" lon="10.0088681"/>
	<node id="563245816" lat="53.5518806" lon="10.008494">
		<tag k="name" v="Hauptbahnhof Süd"/>
		<tag k="railway" v="subway_entrance"/>
	</node>
	<node id="563245821" lat="53.552149" lon="10.0091841"/>
	<node id="565709363" lat="53.5532819" lon="10.0069034"/>
	<node id="567152888" lat="53.5515204" lon="10.0084586"/>
	<node id="569644933" lat="53.5517473" lon="10.0055667"/>
	<node id="734893859" lat="53.5504882" lon="10.0071797"/>
	<node id="734903212" lat="53.5511865" lon="10.0073414">
		<tag k="ref" v="236"/>
		<tag k="level" v="-1"/>
	</node>
	<node id="734903990" lat="53.5502949" lon="10.0072784">
		<tag k="ref" v="231"/>
		<tag k="level" v="-1"/>
	</node>
	<node id="734904214" lat="53.5503273" lon="10.0071839">
		<tag k="ref" v="232"/>
		<tag k="level" v="-1"/>
	</node>
	<node id="734941440" lat="53.5511043" lon="10.0072825"/>
	<node id="734941441" lat="53.5506903" lon="10.0073158">
		<tag k="railway" v="railway_crossing"/>
		<tag k="level" v="-1"/>
	</node>
	<node id="734941876" lat="53.5508661" lon="10.0073896">
		<tag k="ref" v="235"/>
		<tag k="level" v="-1"/>
	</node>
	<node id="734944430" lat="53.551423" lon="10.0072975">
		<tag k="ref" v="237"/>
		<tag k="level" v="-1"/>
	</node>
	<node id="734944431" lat="53.5518692" lon="10.0072351">
		<tag k="ref" v="238"/>
		<tag k="level" v="-1"/>
	</node>
	<node id="734944436" lat="53.5518524" lon="10.0071696">
		<tag k="ref" v="239"/>
		<tag k="level" v="-1"/>
	</node>
	<node id="983621105" lat="53.5513145" lon="10.0076138"/>
	<node id="983621112" lat="53.5512711" lon="10.0083296"/>
	<node id="986373113" lat="53.5511617" lon="10.0076572"/>
	<node id="986373127" lat="53.5509521" lon="10.0080732"/>
	<node id="986373149" lat="53.5511837" lon="10.0080843"/>
	<node id="986373166" lat="53.5507375" lon="10.008382">
		<tag k="ref" v="O8"/>
		<tag k="level" v="-1"/>
	</node>
	<node id="986373219" lat="53.5513143" lon="10.0079352"/>
	<node id="986373239" lat="53.5513645" lon="10.0080381"/>
	<node id="986373278" lat="53.5508045" lon="10.0084124">
		<tag k="ref" v="O7"/>
		<tag k="level" v="-1"/>
	</node>
	<node id="986373313" lat="53.5511259" lon="10.0080037"/>
	<node id="1040426825" lat="53.5541806" lon="10.0049641">
		<tag k="repeat_on" v="-3"/>
		<tag k="railway" v="subway_entrance"/>
		<tag k="level" v="0"/>
	</node>
	<node id="1040443943" lat="53.5539184" lon="10.0051098">
		<tag k="repeat_on" v="-3"/>
		<tag k="railway" v="subway_entrance"/>
		<tag k="level" v="0"/>
	</node>
	<node id="1133573592" lat="53.5507799" lon="10.0066276"/>
	<node id="1133573596" lat="53.5512551" lon="10.0070529"/>
	<node id="1133573617" lat="53.5519112" lon="10.0083827"/>
	<node id="1133573620" lat="53.5511598" lon="10.0069313"/>
	<node id="1133573630" lat="53.5515984" lon="10.0076657">
		<tag k="level" v="-2"/>
	</node>
	<node id="1133573646" lat="53.5517793" lon="10.0078325"/>
	<node id="1133573651" lat="53.5509313" lon="10.0067227"/>
	<node id="1133573655" lat="53.551376" lon="10.0072355"/>
	<node id="1133573673" lat="53.5516914" lon="10.0075881"/>
	<node id="1143048373" lat="53.5540674" lon="10.0049464">
		<tag k="ref" v="B HX"/>
		<tag k="level" v="-3"/>
	</node>
	<node id="1143048420" lat="53.5542238" lon="10.0079219"/>
	<node id="1143048428" lat="53.5541391" lon="10.0061804">
		<tag k="public_transport" v="stop_position"/>
		<tag k="subway" v="yes"/>
		<tag k="name" v="Hauptbahnhof Nord"/>
		<tag k="railway" v="stop"/>
		<tag k="level" v="-3"/>
	</node>
	<node id="1143048431" lat="53.5540052" lon="10.0050444"/>
	<node id="1145811376" lat="53.5523259" lon="10.009546">
		<tag k="public_transport" v="stop_position"/>
		<tag k="subway" v="yes"/>
		<tag k="name" v="Hauptbahnhof Süd"/>
		<tag k="railway" v="stop"/>
	</node>
	<node id="1145811379" lat="53.5519032" lon="10.0096592">
		<tag k="public_transport" v="stop_position"/>
		<tag k="ref" v="1"/>
		<tag k="subway" v="yes"/>
		<tag k="name" v="Hauptbahnhof Süd"/>
		<tag k="railway" v="stop"/>
	</node>
	<node id="1145811394" lat="53.5521002" lon="10.0082893"/>
	<node id="1145811406" lat="53.5517792" lon="10.0082785"/>
	<node id="1145811435" lat="53.5522555" lon="10.0091642"/>
	<node id="1238439067" lat="53.5542054" lon="10.0070574"/>
	<node id="1238439071" lat="53.5517839" lon="10.0076056"/>
	<node id="1238439073" lat="53.5542557" lon="10.0068473">
		<tag k="railway:turnout_side" v="right"/>
		<tag k="level" v="-1"/>
	</node>
	<node id="1238439077" lat="53.5517746" lon="10.007497">
		<tag k="public_transport" v="stop_position"/>
		<tag k="local_ref" v="7A-D"/>
		<tag k="train" v="yes"/>
		<tag k="name" v="Hamburg Hauptbahnhof"/>
		<tag k="railway" v="stop"/>
		<tag k="level" v="-1"/>
	</node>
	<node id="1238439079" lat="53.5521376" lon="10.0083426"/>
	<node id="1238439081" lat="53.5504644" lon="10.0099068"/>
	<node id="1238528530" lat="53.5536735" lon="10.0070254">
		<tag k="ref" v="58"/>
		<tag k="railway:turnout_side" v="right"/>
		<tag k="level" v="-1"/>
	</node>
	<node id="1238528531" lat="53.5539227" lon="10.0056118">
		<tag k="ref" v="401"/>
		<tag k="level" v="-1"/>
	</node>
	<node id="1238528549" lat="53.5542207" lon="10.005199">
		<tag k="ref" v="411"/>
		<tag k="level" v="-1"/>
	</node>
	<node id="1238528611" lat="53.5540943" lon="10.0066826"/>
	<node id="1238528638" lat="53.5541861" lon="10.0061477"/>
	<node id="1238528660" lat="53.5541234" lon="10.0064246"/>
	<node id="1238955290" lat="53.5518566" lon="10.0080212">
		<tag k="level" v="-1"/>
	</node>
	<node id="1238955291" lat="53.5536778" lon="10.0068566"/>
	<node id="1238955293" lat="53.5536117" lon="10.0063362"/>
	<node id="1238955294" lat="53.5536489" lon="10.0065329"/>
	<node id="1238955297" lat="53.5538207" lon="10.0069008"/>
	<node id="1238955298" lat="53.5535231" lon="10.0061621"/>
	<node id="1238955301" lat="53.5536693" lon="10.0066651"/>
	<node id="1238955302" lat="53.5518023" lon="10.0077615"/>
	<node id="1238955304" lat="53.5535491" lon="10.0062565"/>
	<node id="1238968436" lat="53.5515416" lon="10.0071839"/>
	<node id="1238968444" lat="53.5513118" lon="10.0072471"/>
	<node id="1238968446" lat="53.5516843" lon="10.0067856"/>
	<node id="1238968449" lat="53.5516489" lon="10.0064824"/>
	<node id="1239082012" lat="53.5505911" lon="10.0095417"/>
	<node id="1239082020" lat="53.5504878" lon="10.009721"/>
	<node id="1239082024" lat="53.5504746" lon="10.0096265"/>
	<node id="1239082035" lat="53.5505694" lon="10.0094802"/>
	<node id="1239082040" lat="53.5504048" lon="10.0098122"/>
	<node id="1359198009" lat="53.5522329" lon="10.0083178">
		<tag k="public_transport" v="stop_position"/>
		<tag k="local_ref" v="1"/>
		<tag k="subway" v="no"/>
		<tag k="light_rail" v="yes"/>
		<tag k="train" v="yes"/>
		<tag k="name" v="Hamburg Hauptbahnhof"/>
		<tag k="railway" v="stop"/>
		<tag k="level" v="-1"/>
	</node>
	<node id="1359198012" lat="53.552546" lon="10.0077688">
		<tag k="public_transport" v="stop_position"/>
		<tag k="local_ref" v="3"/>
		<tag k="subway" v="no"/>
		<tag k="light_rail" v="yes"/>
		<tag k="name" v="Hamburg Hauptbahnhof"/>
		<tag k="railway" v="stop"/>
		<tag k="level" v="-1"/>
	</node>
	<node id="1412279568" lat="53.552512" lon="10.0075634">
		<tag k="public_transport" v="stop_position"/>
		<tag k="local_ref" v="4"/>
		<tag k="subway" v="no"/>
		<tag k="light_rail" v="yes"/>
		<tag k="train" v="yes"/>
		<tag k="name" v="Hamburg Hauptbahnhof"/>
		<tag k="railway" v="stop"/>
		<tag k="level" v="-1"/>
	</node>
	<node id="1412965781" lat="53.5531102" lon="10.0086356">
		<tag k="public_transport" v="stop_position"/>
		<tag k="bus" v="yes"/>
		<tag k="name" v="Hauptbahnhof/Kirchenallee"/>
	</node>
	<node id="1412965782" lat="53.5540347" lon="10.008221">
		<tag k="public_transport" v="stop_position"/>
		<tag k="bus" v="yes"/>
		<tag k="name" v="Hauptbahnhof/Kirchenallee"/>
	</node>
	<node id="1438780775" lat="53.5540632" lon="10.0067621"/>
	<node id="1508604300" lat="53.5513389" lon="10.0065694"/>
	<node id="1508604301" lat="53.5513521" lon="10.0068733"/>
	<node id="1508604302" lat="53.5513948" lon="10.0077525"/>
	<node id="1508604304" lat="53.5515845" lon="10.0078823">
		<tag k="public_transport" v="stop_position"/>
		<tag k="local_ref" v="5A-C"/>
		<tag k="train" v="yes"/>
		<tag k="name" v="Hamburg Hauptbahnhof"/>
		<tag k="railway" v="stop"/>
		<tag k="level" v="-1"/>
	</node>
	<node id="1508604308" lat="53.55162" lon="10.0080921"/>
	<node id="1508604317" lat="53.5518515" lon="10.0079922"/>
	<node id="1508604333" lat="53.5522307" lon="10.0075573">
		<tag k="ref" v="O5"/>
		<tag k="level" v="-1"/>
	</node>
	<node id="1508604340" lat="53.5525622" lon="10.006136"/>
	<node id="1508604362" lat="53.5532899" lon="10.0076926"/>
	<node id="1508604412" lat="53.5538761" lon="10.0054341">
		<tag k="ref" v="T14"/>
		<tag k="level" v="-1"/>
	</node>
	<node id="1553529942" lat="53.5502932" lon="10.0064553"/>
	<node id="1553530163" lat="53.5513119" lon="10.0079622"/>
	<node id="1553530294" lat="53.5510568" lon="10.0083322"/>
	<node id="1553530412" lat="53.5513767" lon="10.0081297"/>
	<node id="1553530561" lat="53.5514136" lon="10.0082215"/>
	<node id="1553530573" lat="53.5510024" lon="10.0078474"/>
	<node id="1553530576" lat="53.5518265" lon="10.0078496"/>
	<node id="1553530586" lat="53.5512007" lon="10.0077313"/>
	<node id="1553530622" lat="53.551108" lon="10.0083809"/>
	<node id="1553530661" lat="53.5516228" lon="10.0073665"/>
	<node id="1553530682" lat="53.5512638" lon="10.0078644"/>
	<node id="1553530728" lat="53.5508367" lon="10.0084773">
		<tag k="ref" v="O6"/>
		<tag k="level" v="-1"/>
	</node>
	<node id="1564056629" lat="53.5502704" lon="10.005788">
		<tag k="lines" v="U1"/>
		<tag k="name" v="Steintorwall"/>
		<tag k="railway" v="subway_entrance"/>
	</node>
	<node id="1655891765" lat="53.5511805" lon="10.0080503"/>
	<node id="1655891766" lat="53.5512187" lon="10.0086892"/>
	<node id="1655891769" lat="53.5517444" lon="10.0073147"/>
	<node id="1655891770" lat="53.5517869" lon="10.0076259"/>
	<node id="1655891798" lat="53.5525943" lon="10.0064368"/>
	<node id="1655891801" lat="53.5527141" lon="10.0071944"/>
	<node id="1677782589" lat="53.5510574" lon="10.0071156"/>
	<node id="1677782590" lat="53.5510637" lon="10.007214"/>
	<node id="1677782591" lat="53.551242" lon="10.0082474">
		<tag k="ref" v="14"/>
		<tag k="level" v="-1"/>
	</node>
	<node id="1677782601" lat="53.5522936" lon="10.0069627">
		<tag k="ref" v="240"/>
		<tag k="level" v="-1"/>
	</node>
	<node id="1677782605" lat="53.5525599" lon="10.0061187"/>
	<node id="1677782606" lat="53.5525891" lon="10.0064085"/>
	<node id="1677782607" lat="53.5526149" lon="10.0066136"/>
	<node id="1677782608" lat="53.5528071" lon="10.0066178">
		<tag k="ref" v="241"/>
		<tag k="railway:turnout_side" v="left"/>
		<tag k="level" v="-1"/>
	</node>
	<node id="1677782609" lat="53.5526414" lon="10.006811"/>
	<node id="1677782610" lat="53.5526618" lon="10.0068902"/>
	<node id="1677782611" lat="53.5526948" lon="10.0070769"/>
	<node id="1677782612" lat="53.552711" lon="10.0071747"/>
	<node id="1677782613" lat="53.5527414" lon="10.0073444"/>
	<node id="1677782614" lat="53.5527525" lon="10.0074702"/>
	<node id="1677782615" lat="53.552775" lon="10.0076425"/>
	<node id="1680910488" lat="53.5531993" lon="10.0064364">
		<tag k="public_transport" v="station"/>
		<tag k="light_rail" v="yes"/>
		<tag k="railway:ref" v="AH"/>
		<tag k="uic_ref" v="8002549"/>
		<tag k="railway:station_category" v="1"/>
		<tag k="ref:station" v="2514"/>
		<tag k="official_name" v="Hamburg Hbf"/>
		<tag k="hvv:psv_type" v="R;S"/>
		<tag k="short_name" v="Hamburg Hbf"/>
		<tag k="uic_name" v="Hamburg Hbf"/>
		<tag k="train" v="yes"/>
		<tag k="name" v="Hamburg Hauptbahnhof"/>
		<tag k="railway" v="station"/>
		<tag k="level" v="-1"/>
	</node>
	<node id="2264150909" lat="53.5526629" lon="10.0069111"/>
	<node id="2271406344" lat="53.5529788" lon="10.0075469"/>
	<node id="2357051718" lat="53.5512695" lon="10.0057097">
		<tag k="public_transport" v="platform"/>
		<tag k="bus" v="yes"/>
		<tag k="highway" v="bus_stop"/>
		<tag k="passenger_information_display" v="yes"/>
		<tag k="bench" v="yes"/>
		<tag k="bin" v="yes"/>
		<tag k="route_ref" v="3;112"/>
		<tag k="name" v="Hauptbahnhof/Steintorwall"/>
	</node>
	<node id="2366218468" lat="53.5517716" lon="10.0055532"/>
	<node id="2459919677" lat="53.5526959" lon="10.0075644">
		<tag k="public_transport" v="station"/>
		<tag k="light_rail" v="yes"/>
		<tag k="railway:ref" v="AHS"/>
		<tag k="uic_ref" v="8098549"/>
		<tag k="railway:station_category" v="1"/>
		<tag k="ref:station" v="2514"/>
		<tag k="official_name" v="Hamburg Hbf (S-Bahn)"/>
		<tag k="short_name" v="Hamburg Hbf"/>
		<tag k="uic_name" v="Hamburg Hbf (S-Bahn)"/>
		<tag k="station" v="light_rail"/>
		<tag k="public_transport:station:part" v="yes"/>
		<tag k="railway:station:part" v="yes"/>
		<tag k="name" v="Hamburg Hauptbahnhof"/>
		<tag k="railway" v="station"/>
		<tag k="level" v="-1"/>
	</node>
	<node id="2582672521" lat="53.5505903" lon="10.0063695"/>
	<node id="2582672522" lat="53.5508493" lon="10.0064799"/>
	<node id="2582672523" lat="53.550994" lon="10.0065709"/>
	<node id="2582672524" lat="53.5512358" lon="10.0068131"/>
	<node id="2582672527" lat="53.5514484" lon="10.0071077"/>
	<node id="2582672528" lat="53.5516136" lon="10.0074166"/>
	<node id="2703781402" lat="53.5504744" lon="10.0071806">
		<tag k="railway" v="milestone"/>
		<tag k="level" v="-1"/>
	</node>
	<node id="2703781403" lat="53.5506517" lon="10.0084513">
		<tag k="railway" v="milestone"/>
		<tag k="level" v="-1"/>
	</node>
	<node id="2703781404" lat="53.5506743" lon="10.0085031">
		<tag k="railway" v="milestone"/>
		<tag k="level" v="-1"/>
	</node>
	<node id="2703781405" lat="53.5506004" lon="10.0088969">
		<tag k="ref" v="314"/>
		<tag k="level" v="-1"/>
	</node>
	<node id="2703781406" lat="53.5516715" lon="10.007266">
		<tag k="railway" v="railway_crossing"/>
		<tag k="level" v="-1"/>
	</node>
	<node id="2713160362" lat="53.5504398" lon="10.0067988">
		<tag k="railway" v="milestone"/>
		<tag k="level" v="-1"/>
	</node>
	<node id="2713160366" lat="53.5504497" lon="10.006924">
		<tag k="railway" v="milestone"/>
		<tag k="level" v="-1"/>
	</node>
	<node id="2713160370" lat="53.5505132" lon="10.006782">
		<tag k="ref" v="R14"/>
		<tag k="level" v="-1"/>
	</node>
	<node id="2866982849" lat="53.5541504" lon="10.0083911"/>
	<node id="2866982850" lat="53.5541802" lon="10.0077322"/>
	<node id="2866982851" lat="53.5541989" lon="10.008395"/>
	<node id="3020822446" lat="53.5538812" lon="10.0097033"/>
	<node id="3020822451" lat="53.5540552" lon="10.0090367"/>
	<node id="3020822452" lat="53.5541019" lon="10.0087807"/>
	<node id="3020822453" lat="53.5541477" lon="10.0068423">
		<tag k="distance" v="1.1"/>
		<tag k="railway" v="milestone"/>
		<tag k="level" v="-3"/>
	</node>
	<node id="3020822454" lat="53.5541118" lon="10.0090645"/>
	<node id="3020822456" lat="53.5541657" lon="10.0081766"/>
	<node id="3020822458" lat="53.5541788" lon="10.0068348"/>
	<node id="3020822460" lat="53.5542138" lon="10.0081794"/>
	<node id="3020822462" lat="53.554222" lon="10.0074914"/>
	<node id="3020822463" lat="53.5542268" lon="10.0077293"/>
	<node id="3021113100" lat="53.5507449" lon="10.0064229"/>
	<node id="3021113101" lat="53.5510679" lon="10.0068364"/>
	<node id="3021113102" lat="53.5511134" lon="10.0066813"/>
	<node id="3021113103" lat="53.5513612" lon="10.0069647"/>
	<node id="3021113105" lat="53.5515052" lon="10.0074674"/>
	<node id="3021113106" lat="53.5516715" lon="10.0078791"/>
	<node id="3021113107" lat="53.5518663" lon="10.0081536"/>
	<node id="3021114135" lat="53.5503414" lon="10.0063017"/>
	<node id="3021114136" lat="53.5504293" lon="10.0064835"/>
	<node id="3021114139" lat="53.5504717" lon="10.0063409"/>
	<node id="3021114142" lat="53.5506771" lon="10.006569"/>
	<node id="3057461342" lat="53.5505755" lon="10.0094682">
		<tag k="ref" v="42"/>
	</node>
	<node id="3057461343" lat="53.5505809" lon="10.0095626">
		<tag k="ref" v="21"/>
	</node>
	<node id="3057461344" lat="53.55059" lon="10.0096674">
		<tag k="railway" v="milestone"/>
	</node>
	<node id="3057461345" lat="53.5506026" lon="10.0096418">
		<tag k="ref" v="41"/>
	</node>
	<node id="3057628916" lat="53.5519949" lon="10.0070007">
		<tag k="ref" v="R10"/>
		<tag k="level" v="-1"/>
	</node>
	<node id="3057628917" lat="53.5521582" lon="10.0070197">
		<tag k="ref" v="S9"/>
		<tag k="level" v="-1"/>
	</node>
	<node id="3057628918" lat="53.5528274" lon="10.0066058">
		<tag k="ref" v="410 II"/>
		<tag k="level" v="-1"/>
	</node>
	<node id="3073826221" lat="53.5538154" lon="10.0055732">
		<tag k="ref" v="T13"/>
		<tag k="level" v="-1"/>
	</node>
	<node id="3073826222" lat="53.553901" lon="10.0059412">
		<tag k="ref" v="T9"/>
		<tag k="level" v="-1"/>
	</node>
	<node id="3073826223" lat="53.5539113" lon="10.005748">
		<tag k="ref" v="T11"/>
		<tag k="level" v="-1"/>
	</node>
	<node id="3073826224" lat="53.5541635" lon="10.0055202">
		<tag k="level" v="-1"/>
	</node>
	<node id="3073828389" lat="53.5513228" lon="10.0076294"/>
	<node id="3073828390" lat="53.5515952" lon="10.0074072"/>
	<node id="3105955508" lat="53.5537715" lon="10.0054912">
		<tag k="level" v="-1"/>
	</node>
	<node id="3105955509" lat="53.55376" lon="10.0056088">
		<tag k="level" v="-1"/>
	</node>
	<node id="3105955510" lat="53.5538102" lon="10.0057035">
		<tag k="ref" v="T12"/>
		<tag k="level" v="-1"/>
	</node>
	<node id="3105955511" lat="53.5538215" lon="10.0056946">
		<tag k="ref" v="WVs12"/>
		<tag k="level" v="-1"/>
	</node>
	<node id="3105955512" lat="53.5538544" lon="10.0058987">
		<tag k="level" v="-1"/>
	</node>
	<node id="3105955513" lat="53.553866" lon="10.0056579">
		<tag k="level" v="-1"/>
	</node>
	<node id="3105955514" lat="53.5538796" lon="10.006003">
		<tag k="railway" v="phone"/>
		<tag k="level" v="-1"/>
	</node>
	<node id="3105955515" lat="53.5541919" lon="10.005685">
		<tag k="ref" v="T8"/>
		<tag k="level" v="-1"/>
	</node>
	<node id="3105979010" lat="53.5542596" lon="10.0058497">
		<tag k="level" v="-1"/>
	</node>
	<node id="3118519748" lat="53.550654" lon="10.007424">
		<tag k="ref" v="Gs III"/>
		<tag k="railway" v="derail"/>
		<tag k="level" v="-1"/>
	</node>
	<node id="3118519749" lat="53.5506658" lon="10.0074213">
		<tag k="ref" v="227 I"/>
		<tag k="level" v="-1"/>
	</node>
	<node id="3118519750" lat="53.5506829" lon="10.0073873">
		<tag k="ref" v="328 I"/>
		<tag k="level" v="-1"/>
	</node>
	<node id="3118519751" lat="53.5507254" lon="10.0082967">
		<tag k="ref" v="31 II"/>
		<tag k="level" v="-1"/>
	</node>
	<node id="3118519752" lat="53.5515032" lon="10.007359">
		<tag k="ref" v="31 I"/>
		<tag k="level" v="-1"/>
	</node>
	<node id="3118519753" lat="53.5515655" lon="10.0074077">
		<tag k="ref" v="208 I"/>
		<tag k="level" v="-1"/>
	</node>
	<node id="3118521611" lat="53.5505376" lon="10.0070019">
		<tag k="ref" v="R12"/>
		<tag k="level" v="-1"/>
	</node>
	<node id="3118563179" lat="53.5520089" lon="10.0071706">
		<tag k="ref" v="S8"/>
		<tag k="level" v="-1"/>
	</node>
	<node id="3128440993" lat="53.5512742" lon="10.0083596">
		<tag k="ref" v="13"/>
		<tag k="level" v="-1"/>
	</node>
	<node id="3128440994" lat="53.5532319" lon="10.0072694">
		<tag k="ref" v="4"/>
		<tag k="level" v="-1"/>
	</node>
	<node id="3128440995" lat="53.5532577" lon="10.0074241">
		<tag k="ref" v="3"/>
		<tag k="level" v="-1"/>
	</node>
	<node id="3128440996" lat="53.5531507" lon="10.0077482">
		<tag k="ref" v="2"/>
		<tag k="level" v="-1"/>
	</node>
	<node id="3128440997" lat="53.5531844" lon="10.0079362">
		<tag k="ref" v="1"/>
		<tag k="level" v="-1"/>
	</node>
	<node id="3139210440" lat="53.5508407" lon="10.0074808">
		<tag k="level" v="-1"/>
	</node>
	<node id="3139210441" lat="53.5509009" lon="10.0075802">
		<tag k="level" v="-1"/>
	</node>
	<node id="3139210442" lat="53.5509032" lon="10.0076244">
		<tag k="level" v="-1"/>
	</node>
	<node id="3139210443" lat="53.5508576" lon="10.0074991">
		<tag k="level" v="-1"/>
	</node>
	<node id="3139210444" lat="53.5509077" lon="10.007657">
		<tag k="railway" v="milestone"/>
		<tag k="level" v="-1"/>
	</node>
	<node id="3139210445" lat="53.5509089" lon="10.0077069">
		<tag k="level" v="-1"/>
	</node>
	<node id="3139210446" lat="53.5509123" lon="10.007753">
		<tag k="level" v="-1"/>
	</node>
	<node id="3139210447" lat="53.5508912" lon="10.0075126">
		<tag k="level" v="-1"/>
	</node>
	<node id="3139210448" lat="53.5509196" lon="10.0075977">
		<tag k="level" v="-1"/>
	</node>
	<node id="3139210449" lat="53.5509237" lon="10.0076801">
		<tag k="level" v="-1"/>
	</node>
	<node id="3139210452" lat="53.5509552" lon="10.0075673">
		<tag k="level" v="-1"/>
	</node>
	<node id="3139210453" lat="53.5509185" lon="10.0075205">
		<tag k="level" v="-1"/>
	</node>
	<node id="3139210454" lat="53.5509525" lon="10.0076297">
		<tag k="level" v="-1"/>
	</node>
	<node id="3139210455" lat="53.5509509" lon="10.0076504">
		<tag k="level" v="-1"/>
	</node>
	<node id="3139210456" lat="53.5509799" lon="10.0076246">
		<tag k="level" v="-1"/>
	</node>
	<node id="3139210457" lat="53.550946" lon="10.0076756">
		<tag k="ref" v="214"/>
		<tag k="level" v="-1"/>
	</node>
	<node id="3139210458" lat="53.5509566" lon="10.0075948">
		<tag k="ref" v="505"/>
		<tag k="level" v="-1"/>
	</node>
	<node id="3139210459" lat="53.5509333" lon="10.0075386">
		<tag k="ref" v="F"/>
		<tag k="level" v="-1"/>
	</node>
	<node id="3139210460" lat="53.5509492" lon="10.0075522">
		<tag k="ref" v="Hs 913"/>
		<tag k="level" v="-1"/>
	</node>
	<node id="3139210461" lat="53.5511176" lon="10.007616">
		<tag k="level" v="-1"/>
	</node>
	<node id="3139210462" lat="53.5511199" lon="10.0074644">
		<tag k="level" v="-1"/>
	</node>
	<node id="3139210466" lat="53.5512374" lon="10.0074203">
		<tag k="level" v="-1"/>
	</node>
	<node id="3139210467" lat="53.5512739" lon="10.0074049">
		<tag k="level" v="-1"/>
	</node>
	<node id="3140188615" lat="53.5520756" lon="10.006333">
		<tag k="ref" v="R14"/>
		<tag k="level" v="-1"/>
	</node>
	<node id="3140188616" lat="53.5520993" lon="10.0064925">
		<tag k="ref" v="R13"/>
		<tag k="level" v="-1"/>
	</node>
	<node id="3140188617" lat="53.5521146" lon="10.0066109">
		<tag k="ref" v="R12"/>
		<tag k="level" v="-1"/>
	</node>
	<node id="3140188618" lat="53.5521335" lon="10.0068213">
		<tag k="ref" v="R11"/>
		<tag k="level" v="-1"/>
	</node>
	<node id="3140188619" lat="53.5521487" lon="10.0069237">
		<tag k="ref" v="R10"/>
		<tag k="level" v="-1"/>
	</node>
	<node id="3140188623" lat="53.5523658" lon="10.0068202">
		<tag k="ref" v="210 I"/>
		<tag k="level" v="-1"/>
	</node>
	<node id="3140188627" lat="53.5525843" lon="10.007229">
		<tag k="ref" v="206 I"/>
		<tag k="level" v="-1"/>
	</node>
	<node id="3140188628" lat="53.5526065" lon="10.0072195">
		<tag k="ref" v="306 II"/>
		<tag k="level" v="-1"/>
	</node>
	<node id="3140191629" lat="53.552623" lon="10.0073944">
		<tag k="ref" v="205 I"/>
		<tag k="level" v="-1"/>
	</node>
	<node id="3140191630" lat="53.5526702" lon="10.0073744">
		<tag k="ref" v="305 II"/>
		<tag k="level" v="-1"/>
	</node>
	<node id="3140191633" lat="53.5528402" lon="10.0067078">
		<tag k="ref" v="409 II"/>
		<tag k="level" v="-1"/>
	</node>
	<node id="3140191637" lat="53.5530962" lon="10.0058516">
		<tag k="level" v="-1"/>
	</node>
	<node id="3140191638" lat="53.5531312" lon="10.0059981">
		<tag k="level" v="-1"/>
	</node>
	<node id="3140191639" lat="53.5531525" lon="10.0060995">
		<tag k="level" v="-1"/>
	</node>
	<node id="3140191640" lat="53.5531752" lon="10.0072371">
		<tag k="railway" v="phone"/>
		<tag k="level" v="-1"/>
	</node>
	<node id="3140191641" lat="53.553191" lon="10.0062796">
		<tag k="level" v="-1"/>
	</node>
	<node id="3140191642" lat="53.5532118" lon="10.0063754">
		<tag k="level" v="-1"/>
	</node>
	<node id="3140191643" lat="53.5532473" lon="10.0065708">
		<tag k="level" v="-1"/>
	</node>
	<node id="3140191644" lat="53.5532545" lon="10.0065662">
		<tag k="level" v="-1"/>
	</node>
	<node id="3140191645" lat="53.5532975" lon="10.0067638">
		<tag k="level" v="-1"/>
	</node>
	<node id="3140191647" lat="53.5538473" lon="10.0054498">
		<tag k="level" v="-1"/>
	</node>
	<node id="3140191648" lat="53.553956" lon="10.0053921">
		<tag k="ref" v="WVs14 I"/>
		<tag k="level" v="-1"/>
	</node>
	<node id="3140191650" lat="53.5541771" lon="10.0052309">
		<tag k="level" v="-1"/>
	</node>
	<node id="3181277875" lat="53.550854" lon="10.0085954">
		<tag k="level" v="-1"/>
	</node>
	<node id="3206976011" lat="53.5526565" lon="10.0081985"/>
	<node id="3256725643" lat="53.5512605" lon="10.0081261">
		<tag k="level" v="-1"/>
	</node>
	<node id="3256725644" lat="53.5512613" lon="10.0082303">
		<tag k="level" v="-1"/>
	</node>
	<node id="3256725645" lat="53.5512935" lon="10.0083439">
		<tag k="level" v="-1"/>
	</node>
	<node id="3256725646" lat="53.5516631" lon="10.0079305">
		<tag k="railway" v="milestone"/>
		<tag k="level" v="-1"/>
	</node>
	<node id="3256725647" lat="53.5517075" lon="10.0080788">
		<tag k="railway" v="milestone"/>
		<tag k="level" v="-1"/>
	</node>
	<node id="3256725657" lat="53.5520938" lon="10.0077342">
		<tag k="level" v="-1"/>
	</node>
	<node id="3256725658" lat="53.5521579" lon="10.0077023">
		<tag k="level" v="-1"/>
	</node>
	<node id="3256725659" lat="53.5529942" lon="10.0075633">
		<tag k="level" v="-1"/>
	</node>
	<node id="3256725660" lat="53.5531858" lon="10.0072893">
		<tag k="level" v="-1"/>
	</node>
	<node id="3256953348" lat="53.551254" lon="10.0082705"/>
	<node id="3256953349" lat="53.5513445" lon="10.0081917"/>
	<node id="3256953350" lat="53.5515372" lon="10.0081428"/>
	<node id="3256953351" lat="53.5515632" lon="10.0080238"/>
	<node id="3256953352" lat="53.5516616" lon="10.0079611"/>
	<node id="3256953353" lat="53.5518258" lon="10.0078748"/>
	<node id="3256954161" lat="53.552422" lon="10.0076335"/>
	<node id="3256954162" lat="53.5527547" lon="10.007493"/>
	<node id="3256954164" lat="53.5536182" lon="10.0070722"/>
	<node id="3256954165" lat="53.5536354" lon="10.007159"/>
	<node id="3260217559" lat="53.5512526" lon="10.0087824"/>
	<node id="3260221163" lat="53.5517929" lon="10.0083148"/>
	<node id="3260221164" lat="53.5521115" lon="10.0083256"/>
	<node id="3260221168" lat="53.5523045" lon="10.0081698"/>
	<node id="3260317656" lat="53.5511979" lon="10.00869">
		<tag k="ref" v="12"/>
		<tag k="level" v="-1"/>
	</node>
	<node id="3260317657" lat="53.5512154" lon="10.0086726">
		<tag k="level" v="-1"/>
	</node>
	<node id="3260317658" lat="53.5512169" lon="10.0086742">
		<tag k="railway" v="phone"/>
		<tag k="level" v="-1"/>
	</node>
	<node id="3260317659" lat="53.5512589" lon="10.0087926">
		<tag k="ref" v="11"/>
		<tag k="level" v="-1"/>
	</node>
	<node id="3260317660" lat="53.5512641" lon="10.0087885">
		<tag k="level" v="-1"/>
	</node>
	<node id="3260318465" lat="53.5521138" lon="10.0081525"/>
	<node id="3260318473" lat="53.5522611" lon="10.008108">
		<tag k="level" v="-1"/>
	</node>
	<node id="3260318474" lat="53.552308" lon="10.0081956"/>
	<node id="3260318475" lat="53.5522863" lon="10.0083018">
		<tag k="level" v="-1"/>
	</node>
	<node id="3260318487" lat="53.5528896" lon="10.0078839">
		<tag k="railway" v="observation"/>
		<tag k="level" v="-1"/>
	</node>
	<node id="3260318492" lat="53.5529896" lon="10.0078331">
		<tag k="railway" v="milestone"/>
		<tag k="level" v="-1"/>
	</node>
	<node id="3260318493" lat="53.5530052" lon="10.0080329">
		<tag k="level" v="-1"/>
	</node>
	<node id="3260318495" lat="53.5531354" lon="10.0077582">
		<tag k="level" v="-1"/>
	</node>
	<node id="3260318498" lat="53.5531562" lon="10.0079532">
		<tag k="level" v="-1"/>
	</node>
	<node id="3260318499" lat="53.5531688" lon="10.0078267">
		<tag k="railway" v="phone"/>
		<tag k="level" v="-1"/>
	</node>
	<node id="3260318502" lat="53.5533174" lon="10.0078307"/>
	<node id="3397108142" lat="53.5518362" lon="10.0086682">
		<tag k="ref" v="X1"/>
	</node>
	<node id="3397108143" lat="53.5519512" lon="10.0086479">
		<tag k="ref" v="B HB"/>
	</node>
	<node id="3398049275" lat="53.5534163" lon="10.0073274">
		<tag k="ref" v="56"/>
		<tag k="level" v="-1"/>
	</node>
	<node id="3499317722" lat="53.5503872" lon="10.0097832"/>
	<node id="3499317724" lat="53.5504038" lon="10.0098779"/>
	<node id="3499317727" lat="53.5504516" lon="10.0068989"/>
	<node id="3499317728" lat="53.5505099" lon="10.0073241"/>
	<node id="3499317729" lat="53.5505172" lon="10.007372"/>
	<node id="3499317730" lat="53.5505212" lon="10.0071481"/>
	<node id="3499317731" lat="53.5505232" lon="10.0074433"/>
	<node id="3499317732" lat="53.5505495" lon="10.0068843"/>
	<node id="3499317733" lat="53.5507117" lon="10.007137"/>
	<node id="3499317734" lat="53.5507416" lon="10.0084093"/>
	<node id="3499317735" lat="53.5507634" lon="10.0084405"/>
	<node id="3499317736" lat="53.5507912" lon="10.0083191"/>
	<node id="3499317737" lat="53.5508062" lon="10.0085629"/>
	<node id="3499317738" lat="53.5508129" lon="10.0081372"/>
	<node id="3499317739" lat="53.5508277" lon="10.0085984"/>
	<node id="3499317740" lat="53.5508481" lon="10.0082278"/>
	<node id="3499317742" lat="53.5508885" lon="10.0082569"/>
	<node id="3499317744" lat="53.5508969" lon="10.0082797"/>
	<node id="3499317745" lat="53.5509031" lon="10.0083779"/>
	<node id="3499317746" lat="53.5509138" lon="10.008392"/>
	<node id="3499317748" lat="53.550934" lon="10.0073453"/>
	<node id="3499317750" lat="53.5509405" lon="10.0084424"/>
	<node id="3499317752" lat="53.5510218" lon="10.008611"/>
	<node id="3499317753" lat="53.5510373" lon="10.008329"/>
	<node id="3499317754" lat="53.551046" lon="10.0080641"/>
	<node id="3499317756" lat="53.551065" lon="10.0078888"/>
	<node id="3499317757" lat="53.5510698" lon="10.0079137"/>
	<node id="3499317758" lat="53.5511024" lon="10.0081589"/>
	<node id="3499317759" lat="53.5511375" lon="10.0082196"/>
	<node id="3499317760" lat="53.5512053" lon="10.0081542"/>
	<node id="3499317762" lat="53.5512221" lon="10.006754"/>
	<node id="3499317763" lat="53.5512325" lon="10.007867"/>
	<node id="3499317764" lat="53.5512474" lon="10.0084279"/>
	<node id="3499317765" lat="53.5513321" lon="10.0080424"/>
	<node id="3499317766" lat="53.5513574" lon="10.0074678"/>
	<node id="3499317767" lat="53.5513913" lon="10.0077277"/>
	<node id="3499317769" lat="53.5514214" lon="10.0079707"/>
	<node id="3499317770" lat="53.5514739" lon="10.0079556"/>
	<node id="3499317771" lat="53.551486" lon="10.0067013"/>
	<node id="3499317772" lat="53.5514909" lon="10.0080425"/>
	<node id="3499317773" lat="53.5514909" lon="10.0082274"/>
	<node id="3499317774" lat="53.5515076" lon="10.0081917"/>
	<node id="3499317775" lat="53.5515249" lon="10.0068497"/>
	<node id="3499317776" lat="53.5515291" lon="10.0078928"/>
	<node id="3499317777" lat="53.5515322" lon="10.0071415"/>
	<node id="3499317778" lat="53.5515852" lon="10.0075841"/>
	<node id="3499317779" lat="53.5515885" lon="10.0076049"/>
	<node id="3499317780" lat="53.5516133" lon="10.0081539"/>
	<node id="3499317782" lat="53.5516661" lon="10.006654"/>
	<node id="3499317783" lat="53.551704" lon="10.0077912"/>
	<node id="3499317784" lat="53.5517168" lon="10.0069822"/>
	<node id="3499317787" lat="53.5517744" lon="10.0074827"/>
	<node id="3499317788" lat="53.5518088" lon="10.0077376"/>
	<node id="3499317796" lat="53.5519713" lon="10.0063883"/>
	<node id="3499317799" lat="53.5519884" lon="10.0065243"/>
	<node id="3499317802" lat="53.5520078" lon="10.0066789"/>
	<node id="3499317806" lat="53.5520283" lon="10.0068428"/>
	<node id="3499317821" lat="53.5520962" lon="10.0064776"/>
	<node id="3499317829" lat="53.5521274" lon="10.0077501"/>
	<node id="3499317832" lat="53.552144" lon="10.0078827"/>
	<node id="3499317856" lat="53.5522262" lon="10.00754"/>
	<node id="3499317862" lat="53.5522497" lon="10.0062735"/>
	<node id="3499317867" lat="53.552266" lon="10.0064019"/>
	<node id="3499317871" lat="53.5522869" lon="10.0065672"/>
	<node id="3499317874" lat="53.5523058" lon="10.0067161"/>
	<node id="3499317881" lat="53.5523473" lon="10.0070442"/>
	<node id="3499317887" lat="53.552367" lon="10.0071998"/>
	<node id="3499317889" lat="53.5523879" lon="10.0073326"/>
	<node id="3499317897" lat="53.5524062" lon="10.0074622"/>
	<node id="3499317912" lat="53.5524812" lon="10.0080572"/>
	<node id="3499317916" lat="53.5525018" lon="10.0082246"/>
	<node id="3499317922" lat="53.5525775" lon="10.0062611"/>
	<node id="3499317924" lat="53.5526094" lon="10.0065831"/>
	<node id="3499317926" lat="53.55269" lon="10.0070506"/>
	<node id="3499317927" lat="53.5527398" lon="10.0073258"/>
	<node id="3499317928" lat="53.5528429" lon="10.0063039"/>
	<node id="3499317937" lat="53.5531278" lon="10.0059796"/>
	<node id="3499317943" lat="53.5532839" lon="10.0067438"/>
	<node id="3499317946" lat="53.5533073" lon="10.0070336"/>
	<node id="3499317949" lat="53.5534341" lon="10.0058059"/>
	<node id="3499317953" lat="53.5535885" lon="10.0056184"/>
	<node id="3499317959" lat="53.5536306" lon="10.0056791"/>
	<node id="3499317961" lat="53.5536694" lon="10.0068367"/>
	<node id="3499317962" lat="53.5536904" lon="10.0059075"/>
	<node id="3499317963" lat="53.5537871" lon="10.0063848"/>
	<node id="3499317964" lat="53.5538261" lon="10.0057215"/>
	<node id="3499317965" lat="53.5538584" lon="10.0067005"/>
	<node id="3499317966" lat="53.5538598" lon="10.0059877"/>
	<node id="3499317973" lat="53.5538949" lon="10.0056647"/>
	<node id="3499317975" lat="53.5539127" lon="10.0057204"/>
	<node id="3499317977" lat="53.5539425" lon="10.006197"/>
	<node id="3499317978" lat="53.553931" lon="10.0054336"/>
	<node id="3499317979" lat="53.5539364" lon="10.005458"/>
	<node id="3499317983" lat="53.5540894" lon="10.0060233"/>
	<node id="3499317984" lat="53.5541265" lon="10.0062524"/>
	<node id="3499317985" lat="53.5541705" lon="10.0063382"/>
	<node id="3499317991" lat="53.5542263" lon="10.005844"/>
	<node id="3499318193" lat="53.5542538" lon="10.0060941"/>
	<node id="3500856879" lat="53.5525801" lon="10.0090684">
		<tag k="name" v="Hauptbahnhof Süd"/>
		<tag k="railway" v="subway_entrance"/>
	</node>
	<node id="3500857499" lat="53.5522159" lon="10.0081448"/>
	<node id="3500857502" lat="53.5522381" lon="10.0083011"/>
	<node id="3500857504" lat="53.5522416" lon="10.0081755"/>
	<node id="3500857507" lat="53.5522506" lon="10.0082433"/>
	<node id="3500857513" lat="53.5523023" lon="10.0081527"/>
	<node id="3500857518" lat="53.5523108" lon="10.0082217"/>
	<node id="3500857519" lat="53.552308" lon="10.008113"/>
	<node id="3500857522" lat="53.5523268" lon="10.0082742"/>
	<node id="3501182065" lat="53.5524147" lon="10.0083877">
		<tag k="name" v="Hauptbahnhof"/>
		<tag k="railway" v="subway_entrance"/>
		<tag k="level" v="0"/>
	</node>
	<node id="3501184631" lat="53.5529826" lon="10.0059305"/>
	<node id="3501184634" lat="53.5530032" lon="10.0060427"/>
	<node id="3501184639" lat="53.5530346" lon="10.0061924"/>
	<node id="3501184644" lat="53.553062" lon="10.0063294"/>
	<node id="3501184648" lat="53.5530565" lon="10.0073699"/>
	<node id="3501184651" lat="53.5530793" lon="10.0074944"/>
	<node id="3501184660" lat="53.5531297" lon="10.0066619"/>
	<node id="3501184667" lat="53.5531596" lon="10.0068128"/>
	<node id="3501184674" lat="53.5531879" lon="10.0069533"/>
	<node id="3501184677" lat="53.5532138" lon="10.0070828"/>
	<node id="3504629482" lat="53.5532002" lon="10.0077417"/>
	<node id="3504629485" lat="53.5532274" lon="10.0078781"/>
	<node id="3504629486" lat="53.5532211" lon="10.0077739"/>
	<node id="3504629487" lat="53.553231" lon="10.0078189"/>
	<node id="3504629492" lat="53.5532773" lon="10.0077393"/>
	<node id="3504633095" lat="53.5532794" lon="10.0077489"/>
	<node id="3504633097" lat="53.5532859" lon="10.0077787"/>
	<node id="3504633098" lat="53.5532871" lon="10.0077843"/>
	<node id="3504633114" lat="53.5533373" lon="10.0072384"/>
	<node id="3509967196" lat="53.5534332" lon="10.0071817"/>
	<node id="3511645009" lat="53.5533389" lon="10.0065397"/>
	<node id="3511645012" lat="53.553372" lon="10.0066867"/>
	<node id="3512627306" lat="53.5504683" lon="10.0090459"/>
	<node id="3512627307" lat="53.5507285" lon="10.0086562"/>
	<node id="3530748938" lat="53.5521495" lon="10.0063003">
		<tag k="public_transport" v="stop_position"/>
		<tag k="local_ref" v="14"/>
		<tag k="train" v="yes"/>
		<tag k="name" v="Hamburg Hauptbahnhof"/>
		<tag k="railway" v="stop"/>
		<tag k="level" v="-1"/>
	</node>
	<node id="3557772591" lat="53.5502904" lon="10.0093019"/>
	<node id="3595451434" lat="53.5511274" lon="10.0067919">
		<tag k="public_transport" v="stop_position"/>
		<tag k="local_ref" v="13A-C"/>
		<tag k="train" v="yes"/>
		<tag k="name" v="Hamburg Hauptbahnhof"/>
		<tag k="railway" v="stop"/>
		<tag k="level" v="-1"/>
	</node>
	<node id="3669898331" lat="53.5508979" lon="10.0089925"/>
	<node id="3669898346" lat="53.5508756" lon="10.0091585"/>
	<node id="3741659626" lat="53.5541197" lon="10.006127">
		<tag k="public_transport" v="station"/>
		<tag k="subway" v="yes"/>
		<tag k="hvv:psv_type" v="U"/>
		<tag k="station" v="subway"/>
		<tag k="hha_ref" v="HX"/>
		<tag k="hvv:barrier_free" v="yes"/>
		<tag k="name" v="Hauptbahnhof Nord"/>
		<tag k="railway" v="station"/>
		<tag k="level" v="-3"/>
	</node>
	<node id="3749913074" lat="53.5521682" lon="10.0064619">
		<tag k="public_transport" v="stop_position"/>
		<tag k="local_ref" v="13"/>
		<tag k="train" v="yes"/>
		<tag k="name" v="Hamburg Hauptbahnhof"/>
		<tag k="railway" v="stop"/>
		<tag k="level" v="-1"/>
	</node>
	<node id="3782190380" lat="53.551833" lon="10.0067252">
		<tag k="public_transport" v="stop_position"/>
		<tag k="local_ref" v="12"/>
		<tag k="train" v="yes"/>
		<tag k="name" v="Hamburg Hauptbahnhof"/>
		<tag k="railway" v="stop"/>
		<tag k="level" v="-1"/>
	</node>
	<node id="3782190381" lat="53.5518596" lon="10.0069453">
		<tag k="public_transport" v="stop_position"/>
		<tag k="local_ref" v="11"/>
		<tag k="train" v="yes"/>
		<tag k="name" v="Hamburg Hauptbahnhof"/>
		<tag k="railway" v="stop"/>
		<tag k="level" v="-1"/>
	</node>
	<node id="3847356929" lat="53.5542307" lon="10.005258"/>
	<node id="3931834036" lat="53.5532705" lon="10.0065837"/>
	<node id="3934181872" lat="53.5504983" lon="10.0072954"/>
	<node id="3934181873" lat="53.550728" lon="10.0071561">
		<tag k="ref" v="R11"/>
		<tag k="level" v="-1"/>
	</node>
	<node id="3934181874" lat="53.5540852" lon="10.006068">
		<tag k="level" v="-1"/>
	</node>
	<node id="3934181875" lat="53.554249" lon="10.0062722"/>
	<node id="3934362090" lat="53.5508644" lon="10.0069521">
		<tag k="public_transport" v="stop_position"/>
		<tag k="local_ref" v="12A-B"/>
		<tag k="train" v="yes"/>
		<tag k="name" v="Hamburg Hauptbahnhof"/>
		<tag k="railway" v="stop"/>
		<tag k="level" v="-1"/>
	</node>
	<node id="3934362091" lat="53.5508704" lon="10.00714">
		<tag k="public_transport" v="stop_position"/>
		<tag k="local_ref" v="11A-C"/>
		<tag k="train" v="yes"/>
		<tag k="name" v="Hamburg Hauptbahnhof"/>
		<tag k="railway" v="stop"/>
		<tag k="level" v="-1"/>
	</node>
	<node id="3934362092" lat="53.5511184" lon="10.0066262">
		<tag k="public_transport" v="stop_position"/>
		<tag k="local_ref" v="14A-C"/>
		<tag k="train" v="yes"/>
		<tag k="name" v="Hamburg Hauptbahnhof"/>
		<tag k="railway" v="stop"/>
		<tag k="level" v="-1"/>
	</node>
	<node id="3934362093" lat="53.5511196" lon="10.0079805"/>
	<node id="3934362094" lat="53.5524798" lon="10.0072738">
		<tag k="public_transport" v="stop_position"/>
		<tag k="local_ref" v="6"/>
		<tag k="train" v="yes"/>
		<tag k="name" v="Hamburg Hauptbahnhof"/>
		<tag k="railway" v="stop"/>
		<tag k="level" v="-1"/>
	</node>
	<node id="3934362095" lat="53.5524993" lon="10.0074458">
		<tag k="public_transport" v="stop_position"/>
		<tag k="local_ref" v="5"/>
		<tag k="train" v="yes"/>
		<tag k="name" v="Hamburg Hauptbahnhof"/>
		<tag k="railway" v="stop"/>
		<tag k="level" v="-1"/>
	</node>
	<node id="3934362096" lat="53.552861" lon="10.0062608">
		<tag k="public_transport" v="stop_position"/>
		<tag k="local_ref" v="12C-F"/>
		<tag k="train" v="yes"/>
		<tag k="name" v="Hamburg Hauptbahnhof"/>
		<tag k="railway" v="stop"/>
		<tag k="level" v="-1"/>
	</node>
	<node id="3934362097" lat="53.5528963" lon="10.0064517">
		<tag k="public_transport" v="stop_position"/>
		<tag k="local_ref" v="11D-F"/>
		<tag k="train" v="yes"/>
		<tag k="name" v="Hamburg Hauptbahnhof"/>
		<tag k="railway" v="stop"/>
		<tag k="level" v="-1"/>
	</node>
	<node id="3934362098" lat="53.5531252" lon="10.0066395">
		<tag k="public_transport" v="stop_position"/>
		<tag k="local_ref" v="8"/>
		<tag k="train" v="yes"/>
		<tag k="name" v="Hamburg Hauptbahnhof"/>
		<tag k="railway" v="stop"/>
		<tag k="level" v="-1"/>
	</node>
	<node id="3934362099" lat="53.5531636" lon="10.0068345">
		<tag k="public_transport" v="stop_position"/>
		<tag k="local_ref" v="7"/>
		<tag k="train" v="yes"/>
		<tag k="name" v="Hamburg Hauptbahnhof"/>
		<tag k="railway" v="stop"/>
		<tag k="level" v="-1"/>
	</node>
	<node id="3934362100" lat="53.5534105" lon="10.0068116">
		<tag k="public_transport" v="stop_position"/>
		<tag k="local_ref" v="6D-E"/>
		<tag k="train" v="yes"/>
		<tag k="name" v="Hamburg Hauptbahnhof"/>
		<tag k="railway" v="stop"/>
		<tag k="level" v="-1"/>
	</node>
	<node id="3934362101" lat="53.5534436" lon="10.0069802">
		<tag k="public_transport" v="stop_position"/>
		<tag k="local_ref" v="5D-E"/>
		<tag k="train" v="yes"/>
		<tag k="name" v="Hamburg Hauptbahnhof"/>
		<tag k="railway" v="stop"/>
		<tag k="level" v="-1"/>
	</node>
	<node id="4031208054" lat="53.5524731" lon="10.0055136">
		<tag k="public_transport" v="stop_position"/>
		<tag k="bus" v="yes"/>
		<tag k="name" v="Hauptbahnhof/Spitalerstraße"/>
	</node>
	<node id="4081668819" lat="53.5511659" lon="10.0073445">
		<tag k="level" v="-1"/>
	</node>
	<node id="4081668820" lat="53.5512903" lon="10.0071789">
		<tag k="ref" v="110 I"/>
		<tag k="level" v="-1"/>
	</node>
	<node id="4107516545" lat="53.5536102" lon="10.0063593"/>
	<node id="4107516546" lat="53.5536433" lon="10.0065099"/>
	<node id="4107516553" lat="53.5539173" lon="10.005095"/>
	<node id="4107516555" lat="53.5539195" lon="10.0051254"/>
	<node id="4107516557" lat="53.5541795" lon="10.0049484"/>
	<node id="4107516559" lat="53.5541815" lon="10.0049785"/>
	<node id="4107583400" lat="53.5534431" lon="10.0072833"/>
	<node id="4107689607" lat="53.5539203" lon="10.0051373"/>
	<node id="4107689614" lat="53.5541528" lon="10.0071466"/>
	<node id="4107689615" lat="53.5541482" lon="10.0049256"/>
	<node id="4107689618" lat="53.5541787" lon="10.0049366"/>
	<node id="4108020319" lat="53.5519579" lon="10.0089182"/>
	<node id="4108020324" lat="53.5519411" lon="10.0095103"/>
	<node id="4108020327" lat="53.5519445" lon="10.0095581"/>
	<node id="4108020331" lat="53.55196" lon="10.0095067"/>
	<node id="4108020334" lat="53.5519631" lon="10.0095546"/>
	<node id="4108020337" lat="53.5520081" lon="10.0096373"/>
	<node id="4108020363" lat="53.5521226" lon="10.0091893"/>
	<node id="4108020378" lat="53.5521596" lon="10.0091821"/>
	<node id="4108020384" lat="53.5521917" lon="10.0091762"/>
	<node id="4108020389" lat="53.5521325" lon="10.0090879"/>
	<node id="4108020391" lat="53.5522029" lon="10.009174"/>
	<node id="4108020397" lat="53.5522293" lon="10.0091691"/>
	<node id="4108020421" lat="53.5540567" lon="10.0071062"/>
	<node id="4108069641" lat="53.5521225" lon="10.0095881">
		<tag k="public_transport" v="stop_position"/>
		<tag k="subway" v="yes"/>
		<tag k="name" v="Hauptbahnhof Süd"/>
		<tag k="railway" v="stop"/>
	</node>
	<node id="4108069642" lat="53.5521254" lon="10.0093215"/>
	<node id="4108069643" lat="53.5521295" lon="10.0094449"/>
	<node id="4108069644" lat="53.5521482" lon="10.0097126"/>
	<node id="4108069646" lat="53.5521623" lon="10.0098485"/>
	<node id="4108069649" lat="53.5522881" lon="10.0093111"/>
	<node id="4108069652" lat="53.5522991" lon="10.0094226"/>
	<node id="4108069654" lat="53.5523175" lon="10.0096874"/>
	<node id="4108069655" lat="53.5523227" lon="10.0098262"/>
	<node id="4115154148" lat="53.5511093" lon="10.0087815">
		<tag k="ref" v="32"/>
		<tag k="level" v="-1"/>
	</node>
	<node id="4115744653" lat="53.5533063" lon="10.0052534">
		<tag k="name" v="Hauptbahnhof Nord"/>
		<tag k="railway" v="subway_entrance"/>
	</node>
	<node id="4115744682" lat="53.5539164" lon="10.0050817"/>
	<node id="4115751499" lat="53.5540234" lon="10.0050251"/>
	<node id="4115751503" lat="53.5540795" lon="10.0049387"/>
	<node id="4115751505" lat="53.5541151" lon="10.0049319"/>
	<node id="4115751507" lat="53.5541319" lon="10.0049287"/>
	<node id="4115751508" lat="53.5541826" lon="10.0049945"/>
	<node id="4115751509" lat="53.5542112" lon="10.0069111"/>
	<node id="4146348936" lat="53.5539755" lon="10.0051263"/>
	<node id="4146348938" lat="53.5540461" lon="10.0069555"/>
	<node id="4146348939" lat="53.5540955" lon="10.0070985"/>
	<node id="4146348942" lat="53.5541031" lon="10.0069441"/>
	<node id="4146348945" lat="53.5541137" lon="10.0070949"/>
	<node id="4146348961" lat="53.5541212" lon="10.0050061"/>
	<node id="4146348963" lat="53.5542444" lon="10.0068235"/>
	<node id="4155450429" lat="53.5511403" lon="10.0089107">
		<tag k="ref" v="31"/>
		<tag k="level" v="-1"/>
	</node>
	<node id="4191054440" lat="53.5522003" lon="10.0092994"/>
	<node id="4191054441" lat="53.5522022" lon="10.0093279"/>
	<node id="4191054442" lat="53.5522116" lon="10.0094661"/>
	<node id="4191054443" lat="53.5522136" lon="10.0094944"/>
	<node id="4191054444" lat="53.5522116" lon="10.0092973"/>
	<node id="4191054445" lat="53.5522136" lon="10.0093259"/>
	<node id="4191054446" lat="53.5522231" lon="10.0096358"/>
	<node id="4191054448" lat="53.552225" lon="10.0096645"/>
	<node id="4191054452" lat="53.5522229" lon="10.0094639"/>
	<node id="4191054453" lat="53.5522249" lon="10.0094923"/>
	<node id="4191054454" lat="53.5522346" lon="10.0098065"/>
	<node id="4191054455" lat="53.5522368" lon="10.0098347"/>
	<node id="4191054456" lat="53.5522346" lon="10.0096336"/>
	<node id="4191054457" lat="53.5522365" lon="10.0096623"/>
	<node id="4191054458" lat="53.5522461" lon="10.009804"/>
	<node id="4191054459" lat="53.5522483" lon="10.0098322"/>
	<node id="4191303795" lat="53.5522012" lon="10.0093133"/>
	<node id="4191303796" lat="53.5522126" lon="10.0094808"/>
	<node id="4191303797" lat="53.5522126" lon="10.0093113"/>
	<node id="4191303798" lat="53.552224" lon="10.0096497"/>
	<node id="4191303799" lat="53.5522239" lon="10.0094781"/>
	<node id="4191303800" lat="53.5522356" lon="10.0098203"/>
	<node id="4191303801" lat="53.5522355" lon="10.0096477"/>
	<node id="4191303802" lat="53.5522472" lon="10.0098177"/>
	<node id="4259013625" lat="53.5533602" lon="10.0072014">
		<tag k="ref" v="44"/>
		<tag k="level" v="-1"/>
	</node>
	<node id="4259013626" lat="53.5533811" lon="10.0073476">
		<tag k="ref" v="43"/>
		<tag k="level" v="-1"/>
	</node>
	<node id="4264938636" lat="53.5539582" lon="10.0054683">
		<tag k="level" v="-1"/>
	</node>
	<node id="4264938637" lat="53.5539892" lon="10.0055425">
		<tag k="level" v="-1"/>
	</node>
	<node id="4264938638" lat="53.5542023" lon="10.0057072">
		<tag k="railway:platform:section" v="H"/>
		<tag k="level" v="-1"/>
	</node>
	<node id="4290856990" lat="53.5541029" lon="10.0061841">
		<tag k="public_transport" v="stop_position"/>
		<tag k="subway" v="yes"/>
		<tag k="name" v="Hauptbahnhof Nord"/>
		<tag k="railway" v="stop"/>
		<tag k="level" v="-3"/>
	</node>
	<node id="4351223998" lat="53.5518123" lon="10.0084351"/>
	<node id="4351223999" lat="53.5518206" lon="10.008453"/>
	<node id="4352401569" lat="53.5524765" lon="10.0080396"/>
	<node id="4352401570" lat="53.5531852" lon="10.0077272"/>
	<node id="4352401572" lat="53.5533006" lon="10.0076651"/>
	<node id="4352401579" lat="53.5541897" lon="10.0074955"/>
	<node id="4377906684" lat="53.5525687" lon="10.0071357">
		<tag k="ref" v="R7"/>
		<tag k="start_date" v="2016"/>
		<tag k="level" v="-1"/>
	</node>
	<node id="4377906685" lat="53.5533279" lon="10.0078475">
		<tag k="ref" v="54"/>
		<tag k="railway:turnout_side" v="left"/>
		<tag k="level" v="-1"/>
	</node>
	<node id="4398163754" lat="53.5504188" lon="10.0091546">
		<tag k="start_date" v="2017-10"/>
	</node>
	<node id="4398163755" lat="53.553846" lon="10.0063447">
		<tag k="ref" v="S7"/>
		<tag k="level" v="-1"/>
	</node>
	<node id="4437520549" lat="53.5536564" lon="10.007037">
		<tag k="ref" v="Nh 4"/>
		<tag k="level" v="-1"/>
	</node>
	<node id="4528401489" lat="53.5521021" lon="10.0086911"/>
	<node id="4528401490" lat="53.5521764" lon="10.0086761"/>
	<node id="4674545477" lat="53.5518213" lon="10.0079796"/>
	<node id="4674545478" lat="53.5518054" lon="10.0084061"/>
	<node id="4690335010" lat="53.5521201" lon="10.00843"/>
	<node id="4690335012" lat="53.5521112" lon="10.0087905"/>
	<node id="4690335013" lat="53.5521131" lon="10.0088896"/>
	<node id="4690335014" lat="53.5521505" lon="10.0085914"/>
	<node id="4690335016" lat="53.5522367" lon="10.0088543">
		<tag k="ref" v="F HB"/>
	</node>
	<node id="4690335017" lat="53.5522579" lon="10.008952"/>
	<node id="4690335023" lat="53.553788" lon="10.0074808"/>
	<node id="4690335024" lat="53.5536658" lon="10.0075962"/>
	<node id="4690335025" lat="53.55369" lon="10.0073877"/>
	<node id="4690335026" lat="53.553839" lon="10.007265"/>
	<node id="4690335027" lat="53.5537219" lon="10.0075372"/>
	<node id="4690335028" lat="53.5541774" lon="10.0079301"/>
	<node id="4690335031" lat="53.5540045" lon="10.0048008"/>
	<node id="4712212596" lat="53.5518882" lon="10.0069163"/>
	<node id="4712212597" lat="53.5518646" lon="10.0067473"/>
	<node id="4737669527" lat="53.5518394" lon="10.0063388"/>
	<node id="4737669528" lat="53.5518682" lon="10.0063272"/>
	<node id="4973014828" lat="53.5506586" lon="10.0091189"/>
	<node id="4973014829" lat="53.5507574" lon="10.0089499"/>
	<node id="4973014830" lat="53.5506883" lon="10.0089603"/>
	<node id="4973014831" lat="53.5506524" lon="10.0089213"/>
	<node id="4973014837" lat="53.55356" lon="10.0072297">
		<tag k="ref" v="57"/>
		<tag k="railway:turnout_side" v="right"/>
		<tag k="level" v="-1"/>
	</node>
	<node id="4973014838" lat="53.5536107" lon="10.007061"/>
	<node id="4973014841" lat="53.553521" lon="10.0076713"/>
	<node id="5188814994" lat="53.5530522" lon="10.0068924">
		<tag k="level" v="-1"/>
	</node>
	<node id="5188814995" lat="53.5530525" lon="10.0068923">
		<tag k="level" v="-1"/>
	</node>
	<node id="5188814996" lat="53.5530528" lon="10.0068922">
		<tag k="level" v="-1"/>
	</node>
	<node id="5480772001" lat="53.552603" lon="10.0056095">
		<tag k="public_transport" v="stop_position"/>
		<tag k="bus" v="yes"/>
		<tag k="name" v="Hauptbahnhof/Spitalerstraße"/>
	</node>
	<node id="5486723764" lat="53.550441" lon="10.0072673">
		<tag k="level" v="-1"/>
	</node>
	<node id="5486723765" lat="53.5505786" lon="10.0072561">
		<tag k="level" v="-1"/>
	</node>
	<node id="5486723766" lat="53.550658" lon="10.0072492">
		<tag k="ref" v="S10"/>
		<tag k="level" v="-1"/>
	</node>
	<node id="5715913509" lat="53.551709" lon="10.0067756">
		<tag k="level" v="-1"/>
	</node>
	<node id="5715913510" lat="53.5516969" lon="10.0066649">
		<tag k="level" v="-1"/>
	</node>
	<node id="5715913511" lat="53.5517227" lon="10.00677">
		<tag k="ref" v="212 I"/>
		<tag k="level" v="-1"/>
	</node>
	<node id="5715913512" lat="53.5520107" lon="10.0063553">
		<tag k="ref" v="214 I"/>
		<tag k="level" v="-1"/>
	</node>
	<node id="5715913513" lat="53.552021" lon="10.0063517">
		<tag k="ref" v="414 II"/>
		<tag k="level" v="-1"/>
	</node>
	<node id="5715913514" lat="53.5520241" lon="10.0065247">
		<tag k="ref" v="213 I"/>
		<tag k="level" v="-1"/>
	</node>
	<node id="5715913515" lat="53.5520343" lon="10.0065204">
		<tag k="ref" v="413 II"/>
		<tag k="level" v="-1"/>
	</node>
	<node id="5859777267" lat="53.5518286" lon="10.0069591">
		<tag k="ref" v="411 II"/>
		<tag k="level" v="-1"/>
	</node>
	<node id="5859777268" lat="53.5517434" lon="10.0067616">
		<tag k="ref" v="412 II"/>
		<tag k="level" v="-1"/>
	</node>
	<node id="5859777269" lat="53.5518188" lon="10.0069634">
		<tag k="ref" v="211 I"/>
		<tag k="level" v="-1"/>
	</node>
	<node id="5859777271" lat="53.5516726" lon="10.0064741">
		<tag k="level" v="-1"/>
	</node>
	<node id="5859777272" lat="53.5518152" lon="10.0071925">
		<tag k="level" v="-1"/>
	</node>
	<node id="5859777273" lat="53.5517558" lon="10.0071107">
		<tag k="level" v="-1"/>
	</node>
	<node id="5859777274" lat="53.5517402" lon="10.0069983">
		<tag k="level" v="-1"/>
	</node>
	<node id="5859777275" lat="53.5505596" lon="10.0074593">
		<tag k="railway" v="phone"/>
		<tag k="level" v="-1"/>
	</node>
	<node id="5859777282" lat="53.5505176" lon="10.006841">
		<tag k="railway:key_switch:brake_test" v="DE-ESO:db:zp6;DE-ESO:db:zp7;DE-ESO:db:zp8"/>
		<tag k="railway" v="key_switch"/>
		<tag k="level" v="-1"/>
	</node>
	<node id="5859777283" lat="53.5505335" lon="10.0070768">
		<tag k="railway:key_switch:brake_test" v="DE-ESO:db:zp6;DE-ESO:db:zp7;DE-ESO:db:zp8"/>
		<tag k="railway" v="key_switch"/>
		<tag k="level" v="-1"/>
	</node>
	<node id="5859777284" lat="53.5505297" lon="10.0069114">
		<tag k="level" v="-1"/>
	</node>
	<node id="5859780185" lat="53.5504216" lon="10.0070191">
		<tag k="level" v="-1"/>
	</node>
	<node id="5859780186" lat="53.5513116" lon="10.0069675">
		<tag k="railway:key_switch:brake_test" v="DE-ESO:db:zp6;DE-ESO:db:zp7;DE-ESO:db:zp8"/>
		<tag k="railway" v="key_switch"/>
		<tag k="level" v="-1"/>
	</node>
	<node id="5859780187" lat="53.5514499" lon="10.0070175">
		<tag k="railway:platform:section" v="B"/>
		<tag k="level" v="-1"/>
	</node>
	<node id="5859780188" lat="53.5515026" lon="10.0070433">
		<tag k="ref" v="WV s11 II"/>
		<tag k="level" v="-1"/>
	</node>
	<node id="5859780189" lat="53.5513939" lon="10.0072245">
		<tag k="ref" v="428 I"/>
		<tag k="level" v="-1"/>
	</node>
	<node id="5859780190" lat="53.5510289" lon="10.0071193">
		<tag k="ref" v="WV s11 III"/>
		<tag k="level" v="-1"/>
	</node>
	<node id="5859780191" lat="53.5509938" lon="10.0072914">
		<tag k="ref" v="428 II"/>
		<tag k="level" v="-1"/>
	</node>
	<node id="5859780192" lat="53.5507677" lon="10.0069831">
		<tag k="railway:platform:section" v="B"/>
		<tag k="level" v="-1"/>
	</node>
	<node id="5859780193" lat="53.5507668" lon="10.0069679">
		<tag k="level" v="-1"/>
	</node>
	<node id="5859780194" lat="53.5507024" lon="10.0069783">
		<tag k="level" v="-1"/>
	</node>
	<node id="5859780195" lat="53.5504597" lon="10.0071809">
		<tag k="level" v="-1"/>
	</node>
	<node id="5859780196" lat="53.5507156" lon="10.0072021">
		<tag k="railway:key_switch:brake_test" v="DE-ESO:db:zp6;DE-ESO:db:zp7;DE-ESO:db:zp8"/>
		<tag k="railway:key_switch:departure" v="DE-ESO:zp9"/>
		<tag k="railway:key_switch:track" v="10"/>
		<tag k="railway" v="key_switch"/>
		<tag k="level" v="-1"/>
	</node>
	<node id="5859780197" lat="53.5507105" lon="10.0070639">
		<tag k="railway:key_switch:departure" v="DE-ESO:zp9"/>
		<tag k="railway:key_switch:track" v="11;12"/>
		<tag k="railway:key_switch:close_doors" v="DE-ESO:zp10"/>
		<tag k="railway" v="key_switch"/>
		<tag k="level" v="-1"/>
	</node>
	<node id="5859780198" lat="53.5506857" lon="10.0072064">
		<tag k="railway" v="phone"/>
		<tag k="level" v="-1"/>
	</node>
	<node id="5859780199" lat="53.5507125" lon="10.0071577">
		<tag k="level" v="-1"/>
	</node>
	<node id="6002452900" lat="53.5516311" lon="10.0070756">
		<tag k="railway" v="key_switch"/>
		<tag k="level" v="-1"/>
	</node>
	<node id="6002452901" lat="53.5516126" lon="10.0069048">
		<tag k="railway:key_switch:departure" v="DE-ESO:zp9"/>
		<tag k="railway" v="key_switch"/>
		<tag k="level" v="-1"/>
	</node>
	<node id="6002452902" lat="53.550758" lon="10.0067421">
		<tag k="railway:platform:section" v="B"/>
		<tag k="level" v="-1"/>
	</node>
	<node id="6002452903" lat="53.5507619" lon="10.0068391">
		<tag k="railway:platform:section" v="B"/>
		<tag k="level" v="-1"/>
	</node>
	<node id="6002452904" lat="53.5507734" lon="10.0071231">
		<tag k="railway:platform:section" v="B"/>
		<tag k="level" v="-1"/>
	</node>
	<node id="6002452905" lat="53.5512186" lon="10.0070549">
		<tag k="railway:platform:section" v="A"/>
		<tag k="level" v="-1"/>
	</node>
	<node id="6002452906" lat="53.5514128" lon="10.0065673">
		<tag k="railway:platform:section" v="B"/>
		<tag k="level" v="-1"/>
	</node>
	<node id="6002452907" lat="53.551438" lon="10.0068726">
		<tag k="railway:platform:section" v="B"/>
		<tag k="level" v="-1"/>
	</node>
	<node id="6002452908" lat="53.5514248" lon="10.0067124">
		<tag k="railway:platform:section" v="B"/>
		<tag k="level" v="-1"/>
	</node>
	<node id="6002452909" lat="53.5516231" lon="10.0070246">
		<tag k="level" v="-1"/>
	</node>
	<node id="6002452910" lat="53.5511983" lon="10.0079306">
		<tag k="level" v="-1"/>
	</node>
	<node id="6002452911" lat="53.5512254" lon="10.0080117">
		<tag k="level" v="-1"/>
	</node>
	<node id="6002452912" lat="53.5516683" lon="10.0078358">
		<tag k="level" v="-1"/>
	</node>
	<node id="6002452913" lat="53.5516308" lon="10.007699">
		<tag k="level" v="-1"/>
	</node>
	<node id="6002452914" lat="53.5516416" lon="10.0076924">
		<tag k="railway" v="milestone"/>
		<tag k="level" v="-1"/>
	</node>
	<node id="6002452915" lat="53.5517802" lon="10.0070949">
		<tag k="level" v="-1"/>
	</node>
	<node id="6002452916" lat="53.551354" lon="10.0076911">
		<tag k="railway:key_switch:departure" v="DE-ESO:zp9"/>
		<tag k="railway" v="key_switch"/>
		<tag k="level" v="-1"/>
	</node>
	<node id="6002452918" lat="53.5514032" lon="10.0075582">
		<tag k="railway:platform:section" v="B"/>
		<tag k="level" v="-1"/>
	</node>
	<node id="6002452919" lat="53.5515752" lon="10.0074007">
		<tag k="railway" v="milestone"/>
		<tag k="level" v="-1"/>
	</node>
	<node id="6002452920" lat="53.5515221" lon="10.007441">
		<tag k="level" v="-1"/>
	</node>
	<node id="6002452921" lat="53.5519158" lon="10.0072136">
		<tag k="level" v="-1"/>
	</node>
	<node id="6002452922" lat="53.55195" lon="10.007218">
		<tag k="railway:platform:section" v="C"/>
		<tag k="level" v="-1"/>
	</node>
	<node id="6002452923" lat="53.5535085" lon="10.0064">
		<tag k="level" v="-1"/>
	</node>
	<node id="6002452925" lat="53.553548" lon="10.0067337">
		<tag k="level" v="-1"/>
	</node>
	<node id="6002452926" lat="53.5535224" lon="10.006616">
		<tag k="level" v="-1"/>
	</node>
	<node id="6002452927" lat="53.5534648" lon="10.006427">
		<tag k="level" v="-1"/>
	</node>
	<node id="6002452928" lat="53.5533811" lon="10.0060603">
		<tag k="railway:key_switch:departure" v="DE-ESO:zp9"/>
		<tag k="railway" v="key_switch"/>
		<tag k="level" v="-1"/>
	</node>
	<node id="6002452929" lat="53.5534069" lon="10.0061863">
		<tag k="railway:key_switch:departure" v="DE-ESO:zp9"/>
		<tag k="railway" v="key_switch"/>
		<tag k="level" v="-1"/>
	</node>
	<node id="6002452930" lat="53.553543" lon="10.0068235">
		<tag k="railway:key_switch:departure" v="DE-ESO:zp9"/>
		<tag k="railway" v="key_switch"/>
		<tag k="level" v="-1"/>
	</node>
	<node id="6002452931" lat="53.5534931" lon="10.0065347">
		<tag k="railway:key_switch:departure" v="DE-ESO:zp9"/>
		<tag k="railway" v="key_switch"/>
		<tag k="level" v="-1"/>
	</node>
	<node id="6002452932" lat="53.5531313" lon="10.0069821">
		<tag k="railway:platform:section" v="D"/>
		<tag k="level" v="-1"/>
	</node>
	<node id="6002452933" lat="53.5535749" lon="10.0067391">
		<tag k="railway:platform:section" v="E"/>
		<tag k="level" v="-1"/>
	</node>
	<node id="6002452934" lat="53.5539513" lon="10.0065239">
		<tag k="railway:key_switch:brake_test" v="DE-ESO:db:zp6;DE-ESO:db:zp7;DE-ESO:db:zp8"/>
		<tag k="railway" v="key_switch"/>
		<tag k="level" v="-1"/>
	</node>
	<node id="6002452935" lat="53.5537596" lon="10.0066014">
		<tag k="level" v="-1"/>
	</node>
	<node id="6002452938" lat="53.5535961" lon="10.0063693">
		<tag k="railway:platform:section" v="F"/>
		<tag k="level" v="-1"/>
	</node>
	<node id="6002452939" lat="53.5538853" lon="10.0061809">
		<tag k="railway:key_switch:departure" v="DE-ESO:zp9"/>
		<tag k="railway" v="key_switch"/>
		<tag k="level" v="-1"/>
	</node>
	<node id="6002452940" lat="53.553845" lon="10.0061524">
		<tag k="railway:platform:section" v="G"/>
		<tag k="level" v="-1"/>
	</node>
	<node id="6002452942" lat="53.553803" lon="10.0061744">
		<tag k="level" v="-1"/>
	</node>
	<node id="6055743386" lat="53.5541443" lon="10.0070277"/>
	<node id="6081879878" lat="53.5531395" lon="10.0077771"/>
	<node id="6081879879" lat="53.5531443" lon="10.0079328"/>
	<node id="6081879880" lat="53.5524904" lon="10.0082499"/>
	<node id="6081879881" lat="53.5529905" lon="10.0078644"/>
	<node id="6081879882" lat="53.5530043" lon="10.0080034"/>
	<node id="6124844172" lat="53.5512915" lon="10.0058778">
		<tag k="public_transport" v="stop_position"/>
		<tag k="bus" v="yes"/>
		<tag k="name" v="Hauptbahnhof/Steintorwall"/>
	</node>
	<node id="6342902874" lat="53.5517938" lon="10.0065822">
		<tag k="public_transport" v="stop_position"/>
		<tag k="bus" v="yes"/>
		<tag k="name" v="Hauptbahnhof/Steintorwall"/>
		<tag k="level" v="0"/>
	</node>
	<node id="6430782775" lat="53.5519951" lon="10.0094504"/>
	<node id="6515307616" lat="53.5537778" lon="10.0055424">
		<tag k="railway:key_switch:brake_test" v="DE-ESO:db:zp6;DE-ESO:db:zp7;DE-ESO:db:zp8"/>
		<tag k="railway" v="key_switch"/>
		<tag k="level" v="-1"/>
	</node>
	<node id="6515307617" lat="53.5538032" lon="10.0057753">
		<tag k="railway:key_switch:brake_test" v="DE-ESO:db:zp6;DE-ESO:db:zp7;DE-ESO:db:zp8"/>
		<tag k="railway" v="key_switch"/>
		<tag k="level" v="-1"/>
	</node>
	<node id="6515307618" lat="53.5539597" lon="10.0057043">
		<tag k="level" v="-1"/>
	</node>
	<node id="6515307619" lat="53.5537971" lon="10.005585">
		<tag k="level" v="-1"/>
	</node>
	<node id="6515307620" lat="53.5537379" lon="10.0058933">
		<tag k="level" v="-1"/>
	</node>
	<node id="6515307621" lat="53.5538632" lon="10.0058909">
		<tag k="level" v="-1"/>
	</node>
	<node id="6515307622" lat="53.5537747" lon="10.0057278">
		<tag k="level" v="-1"/>
	</node>
	<node id="6515307623" lat="53.5537722" lon="10.0057978">
		<tag k="railway" v="phone"/>
		<tag k="level" v="-1"/>
	</node>
	<node id="6515307624" lat="53.5539051" lon="10.005753">
		<tag k="level" v="-1"/>
	</node>
	<node id="6515307625" lat="53.5539001" lon="10.0057571">
		<tag k="level" v="-1"/>
	</node>
	<node id="6515307626" lat="53.5538932" lon="10.0057628">
		<tag k="level" v="-1"/>
	</node>
	<node id="6562685484" lat="53.5518139" lon="10.0072477"/>
	<node id="6654170999" lat="53.553885" lon="10.0070716"/>
	<node id="6654171000" lat="53.5537347" lon="10.0071617"/>
	<node id="6654171002" lat="53.5541796" lon="10.0065953"/>
	<node id="6654171003" lat="53.5539149" lon="10.0069571"/>
	<node id="6654171004" lat="53.5540217" lon="10.0068551"/>
	<node id="6654171006" lat="53.5536871" lon="10.0071153"/>
	<node id="6654171008" lat="53.5540567" lon="10.0069544">
		<tag k="railway" v="railway_crossing"/>
		<tag k="level" v="-1"/>
	</node>
	<node id="6654171011" lat="53.5539367" lon="10.0067954"/>
	<node id="6654171012" lat="53.5541113" lon="10.0066143"/>
	<node id="6654171013" lat="53.5538347" lon="10.0069076"/>
	<node id="6654171016" lat="53.5540241" lon="10.007124"/>
	<node id="6654171019" lat="53.5537568" lon="10.0072984"/>
	<node id="6654171020" lat="53.5537683" lon="10.0074177"/>
	<node id="6654171023" lat="53.5540845" lon="10.0071959"/>
	<node id="6654171025" lat="53.5526533" lon="10.0080068"/>
	<node id="6654171026" lat="53.5526461" lon="10.0079795"/>
	<node id="6654171027" lat="53.5526508" lon="10.0081747"/>
	<node id="6654171028" lat="53.5532353" lon="10.0072924"/>
	<node id="6654171029" lat="53.5532575" lon="10.0073994"/>
	<node id="6654171033" lat="53.5519721" lon="10.0083771"/>
	<node id="6654171034" lat="53.5519515" lon="10.0082412"/>
	<node id="6654171037" lat="53.5515284" lon="10.0085868"/>
	<node id="6654171038" lat="53.5515225" lon="10.0085686"/>
	<node id="6654171039" lat="53.5513828" lon="10.0086625"/>
	<node id="6654171040" lat="53.5516725" lon="10.0084958"/>
	<node id="6654171041" lat="53.551651" lon="10.0083849"/>
	<node id="6654171042" lat="53.5513891" lon="10.0086731"/>
	<node id="6654171043" lat="53.5509546" lon="10.0091038"/>
	<node id="6922374976" lat="53.5541599" lon="10.0049234"/>
	<node id="6922374977" lat="53.5541046" lon="10.0049339"/>
	<node id="6922374978" lat="53.5541719" lon="10.0049212"/>
	<node id="6922374979" lat="53.554173" lon="10.0049377"/>
	<node id="6922383585" lat="53.5539743" lon="10.0050505"/>
	<node id="6922383586" lat="53.5539629" lon="10.0050528"/>
	<node id="6922383587" lat="53.5539477" lon="10.0050558"/>
	<node id="6922383588" lat="53.5539322" lon="10.0050589"/>
	<node id="6922383589" lat="53.5539211" lon="10.0050807"/>
	<node id="6923567108" lat="53.5542692" lon="10.0069018"/>
	<node id="6923567111" lat="53.5540849" lon="10.0071006"/>
	<node id="6923567121" lat="53.5541273" lon="10.0071517"/>
	<node id="6923567122" lat="53.5541232" lon="10.007093"/>
	<node id="7039301071" lat="53.5522743" lon="10.0090487"/>
	<node id="7039387898" lat="53.5521671" lon="10.0091808">
		<tag k="level" v="-2"/>
	</node>
	<node id="7039387901" lat="53.5521087" lon="10.008998"/>
	<node id="7039387903" lat="53.5522725" lon="10.0091616"/>
	<node id="7039387904" lat="53.5521289" lon="10.0089088"/>
	<node id="7039387905" lat="53.5521216" lon="10.009014"/>
	<node id="7039387906" lat="53.5521436" lon="10.0089345"/>
	<node id="7039387907" lat="53.5521396" lon="10.0090553"/>
	<node id="7039387908" lat="53.5521201" lon="10.0090894"/>
	<node id="7039387909" lat="53.5521747" lon="10.0091794"/>
	<node id="7039387912" lat="53.5521393" lon="10.009186"/>
	<node id="7039387914" lat="53.552247" lon="10.0091658"/>
	<node id="7039387916" lat="53.5522454" lon="10.0089707"/>
	<node id="7039387917" lat="53.5522267" lon="10.0088816"/>
	<node id="7039387918" lat="53.5522154" lon="10.0089162"/>
	<node id="7039387919" lat="53.5522357" lon="10.0090433"/>
	<node id="7039387920" lat="53.5522616" lon="10.0090639"/>
	<node id="7039387921" lat="53.5522493" lon="10.0090657"/>
	<node id="7039387923" lat="53.5522197" lon="10.009171"/>
	<node id="7039387926" lat="53.5523384" lon="10.0098324"/>
	<node id="7039387930" lat="53.5521089" lon="10.0091799"/>
	<node id="7039387932" lat="53.5521153" lon="10.0094439"/>
	<node id="7039387934" lat="53.5521734" lon="10.0093446"/>
	<node id="7039387935" lat="53.552203" lon="10.0093391"/>
	<node id="7039387936" lat="53.5522107" lon="10.0094533"/>
	<node id="7039387937" lat="53.552181" lon="10.0094588"/>
	<node id="7039387938" lat="53.5522143" lon="10.0093372"/>
	<node id="7039387939" lat="53.552244" lon="10.0093317"/>
	<node id="7039387940" lat="53.5522514" lon="10.0094461"/>
	<node id="7039387941" lat="53.5522221" lon="10.0094515"/>
	<node id="7039387944" lat="53.5521371" lon="10.0095839"/>
	<node id="7039387945" lat="53.5523102" lon="10.0095481"/>
	<node id="7176275818" lat="53.5522046" lon="10.0077195"/>
	<node id="7176275819" lat="53.5522223" lon="10.0078547"/>
	<node id="7653489538" lat="53.5518875" lon="10.009136"/>
	<node id="7653489539" lat="53.5519719" lon="10.0091184"/>
	<node id="7653489540" lat="53.551916" lon="10.0095364"/>
	<node id="7653489541" lat="53.5520002" lon="10.0095244"/>
	<way id="27472397">
		<nd ref="1133573630"/>
		<nd ref="3021113105"/>
		<nd ref="1133573655"/>
		<nd ref="1133573596"/>
		<nd ref="1133573620"/>
		<nd ref="3021113101"/>
		<nd ref="1133573651"/>
		<nd ref="1133573592"/>
		<nd ref="3021114142"/>
		<nd ref="3021114136"/>
		<nd ref="1553529942"/>
		<nd ref="3021114132"/>
		<tag k="railway" v="subway"/>
		<tag k="level" v="-3"/>
	</way>
	<way id="27632886">
		<nd ref="287926052"/>
		<nd ref="4081668817"/>
		<nd ref="734894708"/>
		<nd ref="3081529885"/>
		<nd ref="3081529888"/>
		<nd ref="3081529889"/>
		<nd ref="5859777279"/>
		<nd ref="5859780185"/>
		<nd ref="3118521611"/>
		<nd ref="303497269"/>
		<nd ref="5859780194"/>
		<nd ref="5859780193"/>
		<nd ref="3934362090"/>
		<nd ref="1508604301"/>
		<nd ref="1238968446"/>
		<nd ref="5715913509"/>
		<nd ref="5715913511"/>
		<nd ref="5859777268"/>
		<nd ref="3782190380"/>
		<tag k="ref" v="1250"/>
		<tag k="railway:track_ref" v="12"/>
		<tag k="usage" v="main"/>
		<tag k="railway" v="rail"/>
		<tag k="level" v="-1"/>
	</way>
	<way id="27923477">
		<nd ref="4528401489"/>
		<nd ref="4690335012"/>
		<nd ref="4690335013"/>
		<nd ref="7039387901"/>
		<nd ref="7039387930"/>
		<nd ref="7039387932"/>
		<nd ref="4108069641"/>
		<nd ref="258576520"/>
		<nd ref="3397108147"/>
		<nd ref="7039301070"/>
		<nd ref="1145811382"/>
		<tag k="railway:traffic_mode" v="passenger"/>
		<tag k="lines" v="U3"/>
		<tag k="electrified:rail" v="bottom"/>
		<tag k="railway" v="subway"/>
		<tag k="level" v="-2"/>
	</way>
	<way id="28679282">
		<nd ref="315221415"/>
		<nd ref="986373166"/>
		<tag k="ref" v="6100"/>
		<tag k="railway:track_ref" v="8"/>
		<tag k="usage" v="main"/>
		<tag k="tracks" v="1"/>
		<tag k="name" v="Berlin-Hamburger Bahn"/>
		<tag k="railway" v="rail"/>
		<tag k="level" v="-1"/>
	</way>
	<way id="28679283">
		<nd ref="315220232"/>
		<nd ref="3499317738"/>
		<nd ref="3118519751"/>
		<nd ref="2703781403"/>
		<nd ref="535450100"/>
		<nd ref="315220224"/>
		<tag k="service" v="crossover"/>
		<tag k="railway" v="rail"/>
		<tag k="level" v="-1"/>
	</way>
	<way id="28679287">
		<nd ref="3499317788"/>
		<nd ref="315308795"/>
		<nd ref="3499317856"/>
		<nd ref="3499317897"/>
		<nd ref="3499317927"/>
		<nd ref="3501184677"/>
		<nd ref="3499317946"/>
		<nd ref="3499317961"/>
		<nd ref="3499317965"/>
		<nd ref="3499317985"/>
		<nd ref="3499318195"/>
		<nd ref="3499318200"/>
		<nd ref="3499318198"/>
		<nd ref="3499318193"/>
		<nd ref="3499317984"/>
		<nd ref="315220288"/>
		<nd ref="315308762"/>
		<nd ref="6002452933"/>
		<nd ref="565709363"/>
		<nd ref="3501184674"/>
		<nd ref="6002452932"/>
		<nd ref="1655891801"/>
		<nd ref="3499317889"/>
		<nd ref="315220285"/>
		<nd ref="315220287"/>
		<nd ref="1655891770"/>
		<nd ref="315308726"/>
		<nd ref="1553530163"/>
		<nd ref="986373149"/>
		<nd ref="3499317758"/>
		<nd ref="315308727"/>
		<nd ref="3499317746"/>
		<nd ref="3499317737"/>
		<nd ref="3499317739"/>
		<nd ref="3499317750"/>
		<nd ref="3499317753"/>
		<nd ref="3499317759"/>
		<nd ref="3499317760"/>
		<nd ref="3499317765"/>
		<nd ref="3499317769"/>
		<nd ref="3499317776"/>
		<nd ref="3499317783"/>
		<nd ref="3499317788"/>
		<tag k="public_transport" v="platform"/>
		<tag k="ref" v="5;6"/>
		<tag k="railway:ref" v="3"/>
		<tag k="passenger_information_display" v="yes"/>
		<tag k="surface" v="paving_stones"/>
		<tag k="area" v="yes"/>
		<tag k="bench" v="yes"/>
		<tag k="bin" v="yes"/>
		<tag k="train" v="yes"/>
		<tag k="railway" v="platform"/>
		<tag k="level" v="-1"/>
	</way>
	<way id="28679352">
		<nd ref="734903990"/>
		<nd ref="5486723764"/>
		<nd ref="5486723765"/>
		<nd ref="5486723766"/>
		<nd ref="1677782590"/>
		<nd ref="4081668820"/>
		<nd ref="3499317777"/>
		<nd ref="6002452915"/>
		<nd ref="315220266"/>
		<tag k="railway:track_ref" v="10"/>
		<tag k="service" v="yard"/>
		<tag k="railway" v="rail"/>
		<tag k="level" v="-1"/>
	</way>
	<way id="28679353">
		<nd ref="734944436"/>
		<nd ref="5859777272"/>
		<nd ref="2703781406"/>
		<nd ref="3118519752"/>
		<nd ref="3499317766"/>
		<nd ref="315220233"/>
		<nd ref="986373113"/>
		<nd ref="1553530573"/>
		<nd ref="315220232"/>
		<tag k="service" v="crossover"/>
		<tag k="railway" v="rail"/>
		<tag k="level" v="-1"/>
	</way>
	<way id="28679354">
		<nd ref="734944431"/>
		<nd ref="1553530661"/>
		<nd ref="6002452919"/>
		<nd ref="3118519753"/>
		<nd ref="6002452920"/>
		<nd ref="315220225"/>
		<nd ref="983621105"/>
		<nd ref="1553530586"/>
		<nd ref="3499317756"/>
		<nd ref="315221415"/>
		<tag k="ref" v="6100"/>
		<tag k="railway:track_ref" v="8"/>
		<tag k="usage" v="main"/>
		<tag k="tracks" v="1"/>
		<tag k="name" v="Berlin-Hamburger Bahn"/>
		<tag k="railway" v="rail"/>
		<tag k="level" v="-1"/>
	</way>
	<way id="28679356">
		<nd ref="315221418"/>
		<nd ref="3499317745"/>
		<nd ref="1553530728"/>
		<nd ref="3512627307"/>
		<nd ref="2703781405"/>
		<nd ref="25081449"/>
		<nd ref="535450128"/>
		<nd ref="315268573"/>
		<nd ref="4973014827"/>
		<nd ref="1239082032"/>
		<tag k="ref" v="1120"/>
		<tag k="railway:track_ref" v="6"/>
		<tag k="usage" v="main"/>
		<tag k="int_name" v="Vogelfluglinie"/>
		<tag k="name" v="Lübeck-Hamburger Bahn"/>
		<tag k="railway" v="rail"/>
		<tag k="level" v="-1"/>
	</way>
	<way id="28679357">
		<nd ref="315221420"/>
		<nd ref="3181277875"/>
		<nd ref="4973014831"/>
		<nd ref="535450123"/>
		<nd ref="535450126"/>
		<tag k="ref" v="6100"/>
		<tag k="railway:track_ref" v="5"/>
		<tag k="usage" v="main"/>
		<tag k="name" v="Berlin-Hamburger Bahn"/>
		<tag k="railway" v="rail"/>
		<tag k="level" v="-1"/>
	</way>
	<way id="28679359">
		<nd ref="315221423"/>
		<nd ref="4973014829"/>
		<nd ref="4973014828"/>
		<nd ref="31161158"/>
		<nd ref="1239082057"/>
		<nd ref="11206070"/>
		<nd ref="1239082018"/>
		<nd ref="232316164"/>
		<nd ref="-24491579"/>
		<tag k="ref" v="1241"/>
		<tag k="usage" v="main"/>
		<tag k="commuting" v="yes"/>
		<tag k="railway:traffic_mode" v="passenger"/>
		<tag k="lines" v="S1;S11;S31"/>
		<tag k="name" v="City-S-Bahn"/>
		<tag k="railway" v="light_rail"/>
		<tag k="level" v="-1"/>
	</way>
	<way id="28679361">
		<nd ref="52103943"/>
		<nd ref="1238528549"/>
		<tag k="service" v="crossover"/>
		<tag k="railway" v="rail"/>
		<tag k="level" v="-1"/>
	</way>
	<way id="28679362">
		<nd ref="3934362099"/>
		<nd ref="3140191645"/>
		<nd ref="6002452926"/>
		<nd ref="1238955294"/>
		<nd ref="315220212"/>
		<nd ref="4398163755"/>
		<nd ref="3934181874"/>
		<nd ref="3105979010"/>
		<nd ref="3934362102"/>
		<tag k="ref" v="1120"/>
		<tag k="railway:track_ref" v="7"/>
		<tag k="usage" v="main"/>
		<tag k="int_name" v="Vogelfluglinie"/>
		<tag k="name" v="Lübeck-Hamburger Bahn"/>
		<tag k="railway" v="rail"/>
		<tag k="level" v="-1"/>
	</way>
	<way id="28679363">
		<nd ref="3934362101"/>
		<nd ref="1238955291"/>
		<nd ref="315220202"/>
		<nd ref="1238528660"/>
		<nd ref="3934181875"/>
		<nd ref="1508604418"/>
		<nd ref="4264938641"/>
		<nd ref="4264938642"/>
		<nd ref="3476893283"/>
		<nd ref="4055442816"/>
		<tag k="ref" v="6100"/>
		<tag k="railway:track_ref" v="5"/>
		<tag k="usage" v="main"/>
		<tag k="tracks" v="1"/>
		<tag k="name" v="Berlin-Hamburger Bahn"/>
		<tag k="railway" v="rail"/>
		<tag k="level" v="-1"/>
	</way>
	<way id="28679367">
		<nd ref="734893860"/>
		<nd ref="3081529884"/>
		<nd ref="3934181870"/>
		<nd ref="4005899784"/>
		<nd ref="3934181871"/>
		<nd ref="734904214"/>
		<nd ref="5859780195"/>
		<nd ref="2703781402"/>
		<nd ref="734893859"/>
		<nd ref="5859780199"/>
		<nd ref="3934181873"/>
		<nd ref="3934362091"/>
		<tag k="ref" v="1250"/>
		<tag k="railway:track_ref" v="11"/>
		<tag k="usage" v="main"/>
		<tag k="railway" v="rail"/>
		<tag k="level" v="-1"/>
	</way>
	<way id="28679369">
		<nd ref="1238528530"/>
		<nd ref="1238955297"/>
		<nd ref="6654171011"/>
		<nd ref="6654171012"/>
		<nd ref="53123759"/>
		<nd ref="3455262559"/>
		<nd ref="1238528604"/>
		<nd ref="1677782662"/>
		<nd ref="1238528547"/>
		<nd ref="3499318234"/>
		<nd ref="1238528548"/>
		<nd ref="3479240410"/>
		<nd ref="535103507"/>
		<tag k="commuting" v="yes"/>
		<tag k="railway:traffic_mode" v="passenger"/>
		<tag k="lines" v="S11;S21;S31"/>
		<tag k="service" v="crossover"/>
		<tag k="name" v="Verbindungsbahn"/>
		<tag k="railway" v="light_rail"/>
		<tag k="level" v="-1"/>
	</way>
	<way id="28680436">
		<nd ref="1359198009"/>
		<nd ref="1238439079"/>
		<nd ref="4351223999"/>
		<nd ref="6654171037"/>
		<nd ref="6654171042"/>
		<nd ref="3260317660"/>
		<nd ref="3260317659"/>
		<nd ref="4155450429"/>
		<nd ref="534744629"/>
		<nd ref="6654171043"/>
		<nd ref="534744633"/>
		<tag k="ref" v="1241"/>
		<tag k="usage" v="main"/>
		<tag k="commuting" v="yes"/>
		<tag k="railway:traffic_mode" v="passenger"/>
		<tag k="lines" v="S1;S2;S3"/>
		<tag k="railway" v="light_rail"/>
		<tag k="level" v="-1"/>
	</way>
	<way id="28680437">
		<nd ref="4973014837"/>
		<nd ref="6654171003"/>
		<nd ref="6654171004"/>
		<nd ref="3476893282"/>
		<nd ref="6654171022"/>
		<nd ref="315238380"/>
		<tag k="ref" v="1240"/>
		<tag k="usage" v="main"/>
		<tag k="commuting" v="yes"/>
		<tag k="railway:traffic_mode" v="passenger"/>
		<tag k="lines" v="S11;S21;S31"/>
		<tag k="railway" v="light_rail"/>
		<tag k="level" v="-1"/>
	</way>
	<way id="29180363">
		<nd ref="315238371"/>
		<nd ref="3260317657"/>
		<nd ref="3260317656"/>
		<nd ref="4115154148"/>
		<nd ref="534120870"/>
		<nd ref="3669898331"/>
		<nd ref="220450603"/>
		<tag k="ref" v="1244"/>
		<tag k="usage" v="main"/>
		<tag k="commuting" v="yes"/>
		<tag k="railway:traffic_mode" v="passenger"/>
		<tag k="lines" v="S11;S21;S31"/>
		<tag k="name" v="Verbindungsbahn"/>
		<tag k="railway" v="light_rail"/>
		<tag k="level" v="-1"/>
	</way>
	<way id="29422645">
		<nd ref="569644933"/>
		<nd ref="569644932"/>
		<nd ref="258576518"/>
		<tag k="railway:traffic_mode" v="passenger"/>
		<tag k="lines" v="U3"/>
		<tag k="electrified:rail" v="bottom"/>
		<tag k="railway" v="subway"/>
		<tag k="level" v="-2"/>
	</way>
	<way id="42712750">
		<nd ref="315230133"/>
		<nd ref="3260318465"/>
		<nd ref="315238372"/>
		<nd ref="315238371"/>
		<tag k="ref" v="1244"/>
		<tag k="usage" v="main"/>
		<tag k="commuting" v="yes"/>
		<tag k="railway:traffic_mode" v="passenger"/>
		<tag k="lines" v="S11;S21;S31"/>
		<tag k="name" v="Verbindungsbahn"/>
		<tag k="railway" v="light_rail"/>
		<tag k="level" v="-1"/>
	</way>
	<way id="42764951">
		<nd ref="315221422"/>
		<nd ref="4973014830"/>
		<nd ref="534744625"/>
		<nd ref="534744631"/>
		<nd ref="1239082055"/>
		<nd ref="534744596"/>
		<nd ref="1239082042"/>
		<nd ref="535450108"/>
		<nd ref="-24491554"/>
		<tag k="ref" v="1244"/>
		<tag k="usage" v="main"/>
		<tag k="commuting" v="yes"/>
		<tag k="railway:traffic_mode" v="passenger"/>
		<tag k="lines" v="S2;S21;S3;S31"/>
		<tag k="name" v="Verbindungsbahn"/>
		<tag k="railway" v="light_rail"/>
		<tag k="level" v="-1"/>
	</way>
	<way id="42870886">
		<nd ref="536652786"/>
		<nd ref="536652770"/>
		<nd ref="536652769"/>
		<nd ref="536652776"/>
		<nd ref="536652775"/>
		<nd ref="3499317780"/>
		<nd ref="3499317773"/>
		<nd ref="536652772"/>
		<nd ref="536652771"/>
		<nd ref="3499317764"/>
		<nd ref="536652782"/>
		<nd ref="536652786"/>
		<tag k="railway:ref" v="Hhs"/>
		<tag k="alt_name" v="S-Bahnstellwerk Hauptbahnhof Hhs"/>
		<tag k="disused" v="no"/>
		<tag k="name" v="Stellwerk Hauptbahnhof S-Bahn Hhs"/>
		<tag k="railway" v="signal_box"/>
	</way>
	<way id="43178595">
		<nd ref="7653489538"/>
		<nd ref="7653489540"/>
		<nd ref="4720430126"/>
		<nd ref="7653489536"/>
		<nd ref="4720430123"/>
		<nd ref="7653489534"/>
		<nd ref="4720430095"/>
		<nd ref="4108020321"/>
		<nd ref="4108020348"/>
		<nd ref="4720430096"/>
		<nd ref="7653489535"/>
		<nd ref="4720430124"/>
		<nd ref="7653489537"/>
		<nd ref="4108020345"/>
		<nd ref="4108020337"/>
		<nd ref="7653489541"/>
		<nd ref="6430782775"/>
		<nd ref="7653489539"/>
		<nd ref="4108020319"/>
		<nd ref="540999015"/>
		<nd ref="7653489538"/>
	</way>
	<way id="43317350">
		<nd ref="4107516553"/>
		<nd ref="1040443943"/>
		<nd ref="4107516555"/>
		<nd ref="4107689607"/>
		<nd ref="4146348936"/>
		<nd ref="4146348942"/>
		<nd ref="4146348938"/>
		<nd ref="4108020421"/>
		<nd ref="6923567111"/>
		<nd ref="4146348939"/>
		<nd ref="4146348945"/>
		<nd ref="6923567122"/>
		<nd ref="6923567121"/>
		<nd ref="4107689614"/>
		<nd ref="6055743386"/>
		<nd ref="1143048431"/>
		<nd ref="6922383585"/>
		<nd ref="6922383586"/>
		<nd ref="6922383587"/>
		<nd ref="6922383588"/>
		<nd ref="544377157"/>
		<nd ref="6922383589"/>
		<nd ref="4115744682"/>
		<nd ref="4107516553"/>
		<tag k="public_transport" v="platform"/>
		<tag k="internet_access" v="wlan"/>
		<tag k="subway" v="yes"/>
		<tag k="internet_access:fee" v="no"/>
		<tag k="access" v="customers"/>
		<tag k="area" v="yes"/>
		<tag k="bench" v="yes"/>
		<tag k="railway" v="platform"/>
		<tag k="level" v="-3"/>
	</way>
	<way id="44329811">
		<nd ref="220450603"/>
		<nd ref="3057461342"/>
		<nd ref="1239082035"/>
		<nd ref="1239082040"/>
		<nd ref="3499317713"/>
		<nd ref="1239081996"/>
		<nd ref="24764373"/>
		<nd ref="-24491568"/>
		<tag k="ref" v="1244"/>
		<tag k="usage" v="main"/>
		<tag k="commuting" v="yes"/>
		<tag k="railway:traffic_mode" v="passenger"/>
		<tag k="lines" v="S11;S21;S31"/>
		<tag k="name" v="Verbindungsbahn"/>
		<tag k="railway" v="light_rail"/>
		<tag k="level" v="-1"/>
	</way>
	<way id="44329812">
		<nd ref="534744633"/>
		<nd ref="3057461345"/>
		<nd ref="3057461344"/>
		<nd ref="1238439081"/>
		<nd ref="1553529985"/>
		<nd ref="534744640"/>
		<nd ref="1239082039"/>
		<nd ref="534744597"/>
		<nd ref="-24491571"/>
		<tag k="ref" v="1241"/>
		<tag k="usage" v="main"/>
		<tag k="commuting" v="yes"/>
		<tag k="railway:traffic_mode" v="passenger"/>
		<tag k="lines" v="S1;S2;S3"/>
		<tag k="railway" v="light_rail"/>
		<tag k="level" v="-1"/>
	</way>
	<way id="44329825">
		<nd ref="315221417"/>
		<nd ref="3499317744"/>
		<nd ref="986373278"/>
		<nd ref="3512627306"/>
		<nd ref="4398163754"/>
		<nd ref="3073828387"/>
		<nd ref="535450125"/>
		<nd ref="1239081983"/>
		<tag k="ref" v="1120"/>
		<tag k="railway:track_ref" v="7"/>
		<tag k="usage" v="main"/>
		<tag k="int_name" v="Vogelfluglinie"/>
		<tag k="name" v="Lübeck-Hamburger Bahn"/>
		<tag k="railway" v="rail"/>
		<tag k="level" v="-1"/>
	</way>
	<way id="59266484">
		<nd ref="734903990"/>
		<nd ref="1677782572"/>
		<nd ref="3934181869"/>
		<nd ref="734893860"/>
		<tag k="service" v="crossover"/>
		<tag k="railway" v="rail"/>
		<tag k="level" v="-1"/>
	</way>
	<way id="59266485">
		<nd ref="734903990"/>
		<nd ref="734903991"/>
		<nd ref="734905019"/>
		<nd ref="3081529883"/>
		<nd ref="5859777277"/>
		<nd ref="734905301"/>
		<tag k="service" v="yard"/>
		<tag k="railway" v="rail"/>
		<tag k="level" v="-1"/>
	</way>
	<way id="59266486">
		<nd ref="734905505"/>
		<nd ref="4032038709"/>
		<nd ref="5859777278"/>
		<nd ref="3081529882"/>
		<nd ref="734905010"/>
		<nd ref="3499316588"/>
		<nd ref="734903993"/>
		<nd ref="4032038711"/>
		<nd ref="4032038712"/>
		<nd ref="734903992"/>
		<nd ref="3499317728"/>
		<nd ref="734941441"/>
		<nd ref="5859780191"/>
		<nd ref="734941440"/>
		<nd ref="1238968444"/>
		<nd ref="5859780189"/>
		<nd ref="1238968436"/>
		<nd ref="5859777273"/>
		<nd ref="315220266"/>
		<tag k="service" v="yard"/>
		<tag k="railway" v="rail"/>
		<tag k="level" v="-1"/>
	</way>
	<way id="59266552">
		<nd ref="734905010"/>
		<nd ref="734903991"/>
		<nd ref="1677782572"/>
		<nd ref="734904214"/>
		<tag k="service" v="crossover"/>
		<tag k="railway" v="rail"/>
		<tag k="level" v="-1"/>
	</way>
	<way id="59267961">
		<nd ref="734903992"/>
		<nd ref="3499317729"/>
		<nd ref="3118519750"/>
		<nd ref="734941876"/>
		<tag k="service" v="crossover"/>
		<tag k="railway" v="rail"/>
		<tag k="level" v="-1"/>
	</way>
	<way id="59268022">
		<nd ref="734944430"/>
		<nd ref="734944436"/>
		<tag k="service" v="yard"/>
		<tag k="railway" v="rail"/>
		<tag k="level" v="-1"/>
	</way>
	<way id="62182013">
		<nd ref="315220224"/>
		<nd ref="3557772591"/>
		<nd ref="287929004"/>
		<tag k="ref" v="6100"/>
		<tag k="railway:track_ref" v="8"/>
		<tag k="usage" v="main"/>
		<tag k="name" v="Berlin-Hamburger Bahn"/>
		<tag k="railway" v="rail"/>
		<tag k="level" v="-1"/>
	</way>
	<way id="62182019">
		<nd ref="734944436"/>
		<nd ref="3057628917"/>
		<nd ref="1677782601"/>
		<nd ref="1677782609"/>
		<nd ref="3140191633"/>
		<nd ref="315220237"/>
		<nd ref="1238955304"/>
		<nd ref="315220239"/>
		<nd ref="3499317966"/>
		<nd ref="3073826222"/>
		<nd ref="1238528623"/>
		<nd ref="3934181877"/>
		<nd ref="1246670352"/>
		<tag k="railway:track_ref" v="9"/>
		<tag k="service" v="yard"/>
		<tag k="railway" v="rail"/>
		<tag k="level" v="-1"/>
	</way>
	<way id="62182020">
		<nd ref="734944430"/>
		<nd ref="2703781406"/>
		<nd ref="6562685484"/>
		<nd ref="734944431"/>
		<tag k="service" v="crossover"/>
		<tag k="railway" v="rail"/>
		<tag k="level" v="-1"/>
	</way>
	<way id="62182022">
		<nd ref="734903212"/>
		<nd ref="734944430"/>
		<tag k="service" v="yard"/>
		<tag k="railway" v="rail"/>
		<tag k="level" v="-1"/>
	</way>
	<way id="98820862">
		<nd ref="3020822462"/>
		<nd ref="3020822458"/>
		<nd ref="1143048428"/>
		<nd ref="1143048373"/>
		<nd ref="4690335030"/>
		<nd ref="1143048384"/>
		<nd ref="3020689159"/>
		<nd ref="2866982843"/>
		<tag k="railway:traffic_mode" v="passenger"/>
		<tag k="lines" v="U2;U4"/>
		<tag k="electrified:rail" v="bottom"/>
		<tag k="railway" v="subway"/>
		<tag k="level" v="-3"/>
	</way>
	<way id="99048980">
		<nd ref="4191054444"/>
		<nd ref="4191303797"/>
		<nd ref="4191054445"/>
		<nd ref="7039387938"/>
		<nd ref="7039387939"/>
		<nd ref="7039387940"/>
		<nd ref="7039387941"/>
		<nd ref="4191054452"/>
		<nd ref="4191303799"/>
		<nd ref="4191054453"/>
		<nd ref="4191054456"/>
		<nd ref="4191303801"/>
		<nd ref="4191054457"/>
		<nd ref="4191054458"/>
		<nd ref="4191303802"/>
		<nd ref="4191054459"/>
		<nd ref="563245848"/>
		<nd ref="7039301082"/>
		<nd ref="4148382549"/>
		<nd ref="4148382554"/>
		<nd ref="7039301081"/>
		<nd ref="7039301080"/>
		<nd ref="7039301076"/>
		<nd ref="7039301077"/>
		<nd ref="7039301075"/>
		<nd ref="7039301073"/>
		<nd ref="7039301074"/>
		<nd ref="4108020407"/>
		<nd ref="4108069655"/>
		<nd ref="4108069654"/>
		<nd ref="7039387945"/>
		<nd ref="4108069652"/>
		<nd ref="4108069649"/>
		<nd ref="7039387903"/>
		<nd ref="7039387920"/>
		<nd ref="7039387916"/>
		<nd ref="7039387917"/>
		<nd ref="7039387918"/>
		<nd ref="7039387919"/>
		<nd ref="7039387921"/>
		<nd ref="1145811435"/>
		<nd ref="7039387914"/>
		<nd ref="4108020397"/>
		<nd ref="7039387923"/>
		<nd ref="4108020391"/>
		<nd ref="4191054444"/>
		<tag k="public_transport" v="platform"/>
		<tag k="ref" v="4"/>
		<tag k="subway" v="yes"/>
		<tag k="railway:track_ref" v="4"/>
		<tag k="access" v="customers"/>
		<tag k="area" v="yes"/>
		<tag k="bench" v="yes"/>
		<tag k="bin" v="yes"/>
		<tag k="railway" v="platform"/>
		<tag k="level" v="-2"/>
	</way>
	<way id="99048996">
		<nd ref="3020952117"/>
		<nd ref="3397108144"/>
		<nd ref="1145811357"/>
		<nd ref="1145811379"/>
		<nd ref="3397108142"/>
		<nd ref="4674545478"/>
		<nd ref="1145811406"/>
		<nd ref="3021113106"/>
		<nd ref="1133573630"/>
		<tag k="railway:track_ref" v="1"/>
		<tag k="railway:traffic_mode" v="passenger"/>
		<tag k="electrified:rail" v="bottom"/>
		<tag k="railway" v="subway"/>
		<tag k="level" v="-2"/>
	</way>
	<way id="107828136">
		<nd ref="4377906685"/>
		<nd ref="4690335024"/>
		<nd ref="4690335027"/>
		<nd ref="4690335023"/>
		<nd ref="535103491"/>
		<nd ref="6654171023"/>
		<nd ref="1238439067"/>
		<nd ref="315238379"/>
		<nd ref="1238528569"/>
		<nd ref="1238528565"/>
		<tag k="ref" v="1270"/>
		<tag k="railway:track_ref" v="1"/>
		<tag k="usage" v="main"/>
		<tag k="commuting" v="yes"/>
		<tag k="railway:traffic_mode" v="passenger"/>
		<tag k="lines" v="S1;S2;S3"/>
		<tag k="name" v="City-S-Bahn"/>
		<tag k="railway" v="light_rail"/>
		<tag k="level" v="-1"/>
	</way>
	<way id="107828140">
		<nd ref="1238528598"/>
		<nd ref="4264938637"/>
		<nd ref="1238528531"/>
		<tag k="service" v="crossover"/>
		<tag k="railway" v="rail"/>
		<tag k="level" v="-1"/>
	</way>
	<way id="107828151">
		<nd ref="315220274"/>
		<nd ref="1238528623"/>
		<tag k="service" v="crossover"/>
		<tag k="railway" v="rail"/>
		<tag k="level" v="-1"/>
	</way>
	<way id="107828152">
		<nd ref="1238528530"/>
		<nd ref="6654171013"/>
		<nd ref="1238528611"/>
		<nd ref="6654171002"/>
		<nd ref="3500857534"/>
		<nd ref="31161170"/>
		<tag k="ref" v="1270"/>
		<tag k="usage" v="main"/>
		<tag k="railway:traffic_mode" v="passenger"/>
		<tag k="lines" v="S2;S3"/>
		<tag k="railway" v="light_rail"/>
		<tag k="level" v="-1"/>
	</way>
	<way id="107889610">
		<nd ref="535450126"/>
		<nd ref="1239082022"/>
		<nd ref="3499317706"/>
		<nd ref="4973014826"/>
		<nd ref="1239082032"/>
		<tag k="service" v="crossover"/>
		<tag k="railway" v="rail"/>
		<tag k="level" v="-1"/>
	</way>
	<way id="107889618">
		<nd ref="534744629"/>
		<nd ref="3669898346"/>
		<nd ref="1239082012"/>
		<tag k="railway:traffic_mode" v="passenger"/>
		<tag k="service" v="crossover"/>
		<tag k="railway" v="light_rail"/>
		<tag k="level" v="-1"/>
	</way>
	<way id="107889622">
		<nd ref="1239082035"/>
		<nd ref="1239082024"/>
		<nd ref="3499317722"/>
		<nd ref="1239082037"/>
		<nd ref="11206070"/>
		<tag k="railway:traffic_mode" v="passenger"/>
		<tag k="service" v="crossover"/>
		<tag k="railway" v="light_rail"/>
		<tag k="level" v="-1"/>
	</way>
	<way id="107889628">
		<nd ref="1239082012"/>
		<nd ref="3057461343"/>
		<nd ref="1239082020"/>
		<nd ref="3499317724"/>
		<nd ref="3499317716"/>
		<nd ref="1239081996"/>
		<tag k="railway:traffic_mode" v="passenger"/>
		<tag k="service" v="crossover"/>
		<tag k="railway" v="light_rail"/>
		<tag k="level" v="-1"/>
	</way>
	<way id="107889632">
		<nd ref="31161158"/>
		<nd ref="1239082044"/>
		<nd ref="534744596"/>
		<tag k="railway:traffic_mode" v="passenger"/>
		<tag k="service" v="crossover"/>
		<tag k="railway" v="light_rail"/>
	</way>
	<way id="108729982">
		<nd ref="315220304"/>
		<nd ref="3140191637"/>
		<nd ref="3105955508"/>
		<nd ref="3140191647"/>
		<nd ref="1508604412"/>
		<nd ref="3140191648"/>
		<nd ref="3140191650"/>
		<nd ref="1238528549"/>
		<tag k="ref" v="2200"/>
		<tag k="railway:track_ref" v="14"/>
		<tag k="usage" v="main"/>
		<tag k="railway" v="rail"/>
		<tag k="level" v="-1"/>
	</way>
	<way id="108729987">
		<nd ref="1238528549"/>
		<nd ref="2716744967"/>
		<nd ref="1508604419"/>
		<nd ref="3499318204"/>
		<nd ref="1238528518"/>
		<nd ref="3934181879"/>
		<nd ref="52103939"/>
		<tag k="ref" v="2200"/>
		<tag k="usage" v="main"/>
		<tag k="railway" v="rail"/>
		<tag k="level" v="-1"/>
	</way>
	<way id="127647892">
		<nd ref="1412279568"/>
		<nd ref="3256725658"/>
		<nd ref="3256725657"/>
		<nd ref="1553530576"/>
		<nd ref="3256725646"/>
		<nd ref="3499317772"/>
		<nd ref="1553530412"/>
		<nd ref="3256725644"/>
		<nd ref="1677782591"/>
		<nd ref="1553530622"/>
		<nd ref="315221422"/>
		<tag k="ref" v="1244"/>
		<tag k="railway:track_ref" v="4"/>
		<tag k="usage" v="main"/>
		<tag k="commuting" v="yes"/>
		<tag k="railway:traffic_mode" v="passenger"/>
		<tag k="lines" v="S2; S3; S21; S31"/>
		<tag k="name" v="Verbindungsbahn"/>
		<tag k="railway" v="light_rail"/>
		<tag k="level" v="-1"/>
	</way>
	<way id="127647894">
		<nd ref="315238374"/>
		<nd ref="4690335025"/>
		<nd ref="4690335026"/>
		<nd ref="535103492"/>
		<nd ref="1238439073"/>
		<nd ref="3930177257"/>
		<tag k="ref" v="1240"/>
		<tag k="railway:track_ref" v="2"/>
		<tag k="usage" v="main"/>
		<tag k="commuting" v="yes"/>
		<tag k="railway:traffic_mode" v="passenger"/>
		<tag k="lines" v="S11;S21;S31"/>
		<tag k="name" v="Verbindungsbahn"/>
		<tag k="railway" v="light_rail"/>
		<tag k="level" v="-1"/>
	</way>
	<way id="130705848">
		<nd ref="1438780775"/>
		<nd ref="6654171014"/>
		<nd ref="31161170"/>
		<tag k="commuting" v="yes"/>
		<tag k="railway:traffic_mode" v="passenger"/>
		<tag k="service" v="crossover"/>
		<tag k="name" v="City-S-Bahn"/>
		<tag k="railway" v="light_rail"/>
		<tag k="level" v="-1"/>
	</way>
	<way id="130705849">
		<nd ref="6654171006"/>
		<nd ref="300802971"/>
		<nd ref="1438780775"/>
		<tag k="railway:track_ref" v="3"/>
		<tag k="commuting" v="yes"/>
		<tag k="railway:traffic_mode" v="passenger"/>
		<tag k="lines" v="S1;S11;S31"/>
		<tag k="service" v="crossover"/>
		<tag k="railway" v="light_rail"/>
		<tag k="level" v="-1"/>
	</way>
	<way id="130705850">
		<nd ref="1412279568"/>
		<nd ref="1677782614"/>
		<nd ref="3256725660"/>
		<nd ref="3128440994"/>
		<nd ref="315231593"/>
		<nd ref="4259013625"/>
		<nd ref="4973014838"/>
		<tag k="ref" v="1244"/>
		<tag k="railway:track_ref" v="4"/>
		<tag k="usage" v="main"/>
		<tag k="commuting" v="yes"/>
		<tag k="railway:traffic_mode" v="passenger"/>
		<tag k="lines" v="S2;S3;S21;S31"/>
		<tag k="name" v="Verbindungsbahn"/>
		<tag k="railway" v="light_rail"/>
		<tag k="level" v="-1"/>
	</way>
	<way id="132572549">
		<nd ref="4737669528"/>
		<nd ref="1145811394"/>
		<nd ref="4690335010"/>
		<nd ref="4690335014"/>
		<nd ref="4528401490"/>
		<tag k="railway:traffic_mode" v="passenger"/>
		<tag k="lines" v="U3"/>
		<tag k="electrified:rail" v="bottom"/>
		<tag k="railway" v="subway"/>
		<tag k="level" v="-2"/>
	</way>
	<way id="135844323">
		<nd ref="3934362098"/>
		<nd ref="315220228"/>
		<nd ref="3140191643"/>
		<nd ref="3140191644"/>
		<nd ref="6002452927"/>
		<nd ref="6002452923"/>
		<nd ref="1238955293"/>
		<nd ref="315220229"/>
		<nd ref="6002452942"/>
		<nd ref="3105955515"/>
		<nd ref="2716744970"/>
		<nd ref="1246670352"/>
		<nd ref="3105955516"/>
		<nd ref="4264938643"/>
		<nd ref="3105955517"/>
		<nd ref="315220231"/>
		<tag k="ref" v="6100"/>
		<tag k="railway:track_ref" v="8"/>
		<tag k="usage" v="main"/>
		<tag k="tracks" v="1"/>
		<tag k="name" v="Berlin-Hamburger Bahn"/>
		<tag k="railway" v="rail"/>
		<tag k="level" v="-1"/>
	</way>
	<way id="137538315">
		<nd ref="4351223998"/>
		<nd ref="6654171033"/>
		<nd ref="3260221164"/>
		<nd ref="3500857502"/>
		<nd ref="3500857522"/>
		<nd ref="3499317916"/>
		<nd ref="6654171027"/>
		<nd ref="6081879882"/>
		<nd ref="6081879879"/>
		<nd ref="3504629485"/>
		<nd ref="3260318502"/>
		<nd ref="1508604362"/>
		<nd ref="3504629482"/>
		<nd ref="6081879878"/>
		<nd ref="6081879881"/>
		<nd ref="6654171025"/>
		<nd ref="3499317912"/>
		<nd ref="3500857519"/>
		<nd ref="3500857499"/>
		<nd ref="315308751"/>
		<nd ref="6654171034"/>
		<nd ref="3260221163"/>
		<nd ref="6654171041"/>
		<nd ref="567152888"/>
		<nd ref="1655891766"/>
		<nd ref="3260217559"/>
		<nd ref="6654171039"/>
		<nd ref="6654171038"/>
		<nd ref="6654171040"/>
		<nd ref="4351223998"/>
	</way>
	<way id="152813941">
		<nd ref="4712212596"/>
		<nd ref="3499317806"/>
		<nd ref="3499317874"/>
		<nd ref="3499317924"/>
		<nd ref="3501184644"/>
		<nd ref="315308785"/>
		<nd ref="3499317962"/>
		<nd ref="3499317975"/>
		<nd ref="3499317973"/>
		<nd ref="3499317964"/>
		<nd ref="315220302"/>
		<nd ref="315308778"/>
		<nd ref="3501184639"/>
		<nd ref="3499317928"/>
		<nd ref="1655891798"/>
		<nd ref="3499317871"/>
		<nd ref="315220297"/>
		<nd ref="3499317802"/>
		<nd ref="4712212597"/>
		<nd ref="315220300"/>
		<nd ref="3499317775"/>
		<nd ref="6002452907"/>
		<nd ref="315308732"/>
		<nd ref="5859780192"/>
		<nd ref="315308736"/>
		<nd ref="3499317705"/>
		<nd ref="3499317695"/>
		<nd ref="3499317696"/>
		<nd ref="3499317707"/>
		<nd ref="3499317730"/>
		<nd ref="3499317733"/>
		<nd ref="6002452904"/>
		<nd ref="6002452905"/>
		<nd ref="5859780187"/>
		<nd ref="3499317784"/>
		<nd ref="4712212596"/>
		<tag k="public_transport" v="platform"/>
		<tag k="ref" v="11;12"/>
		<tag k="railway:ref" v="5"/>
		<tag k="passenger_information_display" v="yes"/>
		<tag k="surface" v="paving_stones"/>
		<tag k="area" v="yes"/>
		<tag k="bench" v="yes"/>
		<tag k="bin" v="yes"/>
		<tag k="train" v="yes"/>
		<tag k="railway" v="platform"/>
		<tag k="level" v="-1"/>
	</way>
	<way id="152813949">
		<nd ref="3499317799"/>
		<nd ref="3499317821"/>
		<nd ref="3499317867"/>
		<nd ref="3499317922"/>
		<nd ref="3501184634"/>
		<nd ref="315308805"/>
		<nd ref="3499317937"/>
		<nd ref="3499317949"/>
		<nd ref="3499317959"/>
		<nd ref="3499317979"/>
		<nd ref="3499317978"/>
		<nd ref="315308742"/>
		<nd ref="3499317953"/>
		<nd ref="315220296"/>
		<nd ref="315308781"/>
		<nd ref="3501184631"/>
		<nd ref="1508604340"/>
		<nd ref="3499317862"/>
		<nd ref="315220293"/>
		<nd ref="3499317796"/>
		<nd ref="315220295"/>
		<nd ref="6002452906"/>
		<nd ref="315308737"/>
		<nd ref="6002452902"/>
		<nd ref="315308740"/>
		<nd ref="3499317710"/>
		<nd ref="3499317711"/>
		<nd ref="3499317727"/>
		<nd ref="3499317732"/>
		<nd ref="6002452903"/>
		<nd ref="3499317762"/>
		<nd ref="6002452908"/>
		<nd ref="3499317771"/>
		<nd ref="3499317782"/>
		<nd ref="3499317799"/>
		<tag k="public_transport" v="platform"/>
		<tag k="ref" v="13;14"/>
		<tag k="railway:ref" v="6"/>
		<tag k="passenger_information_display" v="yes"/>
		<tag k="surface" v="paving_stones"/>
		<tag k="area" v="yes"/>
		<tag k="bench" v="yes"/>
		<tag k="bin" v="yes"/>
		<tag k="train" v="yes"/>
		<tag k="railway" v="platform"/>
		<tag k="level" v="-1"/>
	</way>
	<way id="152813951">
		<nd ref="1508604317"/>
		<nd ref="3499317832"/>
		<nd ref="7176275819"/>
		<nd ref="315220289"/>
		<nd ref="1677782615"/>
		<nd ref="2271406344"/>
		<nd ref="3501184651"/>
		<nd ref="6654171029"/>
		<nd ref="4107583400"/>
		<nd ref="3256954165"/>
		<nd ref="3256954164"/>
		<nd ref="3509967196"/>
		<nd ref="3504633114"/>
		<nd ref="6654171028"/>
		<nd ref="3501184648"/>
		<nd ref="3256954162"/>
		<nd ref="3256954161"/>
		<nd ref="7176275818"/>
		<nd ref="3499317829"/>
		<nd ref="3256953353"/>
		<nd ref="3256953352"/>
		<nd ref="3256953351"/>
		<nd ref="3256953349"/>
		<nd ref="3256953348"/>
		<nd ref="983621112"/>
		<nd ref="1553530561"/>
		<nd ref="3256953350"/>
		<nd ref="1508604308"/>
		<nd ref="1508604317"/>
		<tag k="public_transport" v="platform"/>
		<tag k="ref" v="3;4"/>
		<tag k="railway:ref" v="2"/>
		<tag k="passenger_information_display" v="yes"/>
		<tag k="access" v="customers"/>
		<tag k="area" v="yes"/>
		<tag k="bench" v="yes"/>
		<tag k="bin" v="yes"/>
		<tag k="train" v="yes"/>
		<tag k="railway" v="platform"/>
		<tag k="level" v="-1"/>
	</way>
	<way id="152813958">
		<nd ref="3499317787"/>
		<nd ref="315308731"/>
		<nd ref="3499317887"/>
		<nd ref="3499317926"/>
		<nd ref="3501184667"/>
		<nd ref="3499317943"/>
		<nd ref="3511645012"/>
		<nd ref="4107516546"/>
		<nd ref="3499317963"/>
		<nd ref="3499317977"/>
		<nd ref="3499317983"/>
		<nd ref="3499317991"/>
		<nd ref="4264938646"/>
		<nd ref="3499318207"/>
		<nd ref="3499318223"/>
		<nd ref="3499318229"/>
		<nd ref="3499318227"/>
		<nd ref="315308793"/>
		<nd ref="4264938644"/>
		<nd ref="3073826226"/>
		<nd ref="315308790"/>
		<nd ref="4264938638"/>
		<nd ref="315308789"/>
		<nd ref="6002452940"/>
		<nd ref="315220281"/>
		<nd ref="4107516545"/>
		<nd ref="6002452938"/>
		<nd ref="3511645009"/>
		<nd ref="3931834036"/>
		<nd ref="315308775"/>
		<nd ref="3501184660"/>
		<nd ref="2264150909"/>
		<nd ref="3499317881"/>
		<nd ref="315220283"/>
		<nd ref="315220284"/>
		<nd ref="6002452922"/>
		<nd ref="1655891769"/>
		<nd ref="3073828390"/>
		<nd ref="315308729"/>
		<nd ref="6002452918"/>
		<nd ref="3073828389"/>
		<nd ref="315308730"/>
		<nd ref="3499317757"/>
		<nd ref="986373127"/>
		<nd ref="3499317740"/>
		<nd ref="3499317736"/>
		<nd ref="3499317734"/>
		<nd ref="3499317735"/>
		<nd ref="3499317742"/>
		<nd ref="3499317754"/>
		<nd ref="3934362093"/>
		<nd ref="3499317763"/>
		<nd ref="3499317767"/>
		<nd ref="3499317778"/>
		<nd ref="3499317787"/>
		<tag k="public_transport" v="platform"/>
		<tag k="ref" v="7;8"/>
		<tag k="railway:ref" v="4"/>
		<tag k="passenger_information_display" v="yes"/>
		<tag k="surface" v="paving_stones"/>
		<tag k="area" v="yes"/>
		<tag k="bench" v="yes"/>
		<tag k="bin" v="yes"/>
		<tag k="train" v="yes"/>
		<tag k="railway" v="platform"/>
		<tag k="level" v="-1"/>
	</way>
	<way id="152813970">
		<nd ref="3934362100"/>
		<nd ref="6002452925"/>
		<nd ref="1238955301"/>
		<nd ref="6002452935"/>
		<nd ref="53123252"/>
		<nd ref="1238528638"/>
		<nd ref="3934181876"/>
		<nd ref="4264938639"/>
		<nd ref="4264938640"/>
		<nd ref="53123253"/>
		<tag k="ref" v="1120"/>
		<tag k="railway:track_ref" v="6"/>
		<tag k="usage" v="main"/>
		<tag k="int_name" v="Vogelfluglinie"/>
		<tag k="name" v="Lübeck-Hamburger Bahn"/>
		<tag k="railway" v="rail"/>
		<tag k="level" v="-1"/>
	</way>
	<way id="155371976">
		<nd ref="1677782608"/>
		<nd ref="1677782601"/>
		<tag k="service" v="yard"/>
		<tag k="railway" v="rail"/>
		<tag k="level" v="-1"/>
	</way>
	<way id="265934253">
		<nd ref="535450126"/>
		<nd ref="535450105"/>
		<nd ref="983775818"/>
		<nd ref="3557772590"/>
		<nd ref="535450107"/>
		<nd ref="1239082041"/>
		<nd ref="-24491551"/>
		<tag k="ref" v="6100"/>
		<tag k="usage" v="main"/>
		<tag k="name" v="Berlin-Hamburger Bahn"/>
		<tag k="railway" v="rail"/>
		<tag k="level" v="-1"/>
	</way>
	<way id="303082464">
		<nd ref="986373166"/>
		<nd ref="2703781404"/>
		<nd ref="315220224"/>
		<tag k="ref" v="6100"/>
		<tag k="railway:track_ref" v="8"/>
		<tag k="usage" v="main"/>
		<tag k="name" v="Berlin-Hamburger Bahn"/>
		<tag k="railway" v="rail"/>
		<tag k="level" v="-1"/>
	</way>
	<way id="303082466">
		<nd ref="315220274"/>
		<nd ref="315220276"/>
		<tag k="railway:track_ref" v="10"/>
		<tag k="service" v="yard"/>
		<tag k="railway" v="rail"/>
		<tag k="level" v="-1"/>
	</way>
	<way id="332563326">
		<nd ref="2964255540"/>
		<nd ref="3397108146"/>
		<nd ref="4108020356"/>
		<nd ref="540999013"/>
		<nd ref="563245809"/>
		<nd ref="3397108143"/>
		<nd ref="1133573617"/>
		<tag k="railway:track_ref" v="2"/>
		<tag k="railway:traffic_mode" v="passenger"/>
		<tag k="electrified:rail" v="bottom"/>
		<tag k="railway" v="subway"/>
		<tag k="level" v="-2"/>
	</way>
	<way id="343201861">
		<nd ref="3500857507"/>
		<nd ref="3500857518"/>
		<nd ref="3260318474"/>
		<nd ref="3260221168"/>
		<nd ref="3500857513"/>
		<nd ref="3500857504"/>
		<nd ref="3500857507"/>
	</way>
	<way id="343656006">
		<nd ref="3504629487"/>
		<nd ref="3504633098"/>
		<nd ref="3504633097"/>
		<nd ref="3504633095"/>
		<nd ref="3504629492"/>
		<nd ref="3504629486"/>
		<nd ref="3504629487"/>
	</way>
	<way id="344523600">
		<nd ref="2703781405"/>
		<nd ref="3073828387"/>
		<tag k="service" v="crossover"/>
		<tag k="railway" v="rail"/>
		<tag k="level" v="-1"/>
	</way>
	<way id="353729902">
		<nd ref="3934362092"/>
		<nd ref="1508604300"/>
		<nd ref="1238968449"/>
		<nd ref="5859777271"/>
		<nd ref="5715913512"/>
		<nd ref="5715913513"/>
		<nd ref="3140188615"/>
		<nd ref="3530748938"/>
		<tag k="ref" v="2200"/>
		<tag k="railway:track_ref" v="14"/>
		<tag k="usage" v="main"/>
		<tag k="railway" v="rail"/>
		<tag k="level" v="-1"/>
	</way>
	<way id="353828936">
		<nd ref="3595451434"/>
		<nd ref="52104889"/>
		<nd ref="5859777284"/>
		<nd ref="2713160366"/>
		<nd ref="4005899783"/>
		<nd ref="1677782570"/>
		<nd ref="5859777280"/>
		<nd ref="734894648"/>
		<nd ref="287927787"/>
		<tag k="ref" v="2200"/>
		<tag k="railway:track_ref" v="13"/>
		<tag k="usage" v="main"/>
		<tag k="railway" v="rail"/>
		<tag k="level" v="-1"/>
	</way>
	<way id="355432105">
		<nd ref="52104870"/>
		<nd ref="3140191638"/>
		<nd ref="3105955509"/>
		<nd ref="6515307619"/>
		<nd ref="3073826221"/>
		<nd ref="52104039"/>
		<nd ref="4264938636"/>
		<nd ref="3847356929"/>
		<tag k="ref" v="2200"/>
		<tag k="railway:track_ref" v="13"/>
		<tag k="usage" v="main"/>
		<tag k="railway" v="rail"/>
		<tag k="level" v="-1"/>
	</way>
	<way id="374840520">
		<nd ref="1238528531"/>
		<nd ref="3499318196"/>
		<nd ref="53123256"/>
		<tag k="ref" v="1250"/>
		<tag k="railway:track_ref" v="12"/>
		<tag k="usage" v="main"/>
		<tag k="railway" v="rail"/>
		<tag k="level" v="-1"/>
	</way>
	<way id="389854112">
		<nd ref="315238374"/>
		<nd ref="6654171019"/>
		<nd ref="6654171008"/>
		<nd ref="6654170998"/>
		<nd ref="6654171009"/>
		<nd ref="315238380"/>
		<tag k="commuting" v="yes"/>
		<tag k="railway:traffic_mode" v="passenger"/>
		<tag k="service" v="crossover"/>
		<tag k="railway" v="light_rail"/>
		<tag k="level" v="-1"/>
	</way>
	<way id="395470581">
		<nd ref="1238439077"/>
		<nd ref="315220206"/>
		<nd ref="4377906684"/>
		<nd ref="1677782611"/>
		<nd ref="5188814994"/>
		<nd ref="5188814995"/>
		<nd ref="5188814996"/>
		<nd ref="3934362099"/>
		<tag k="ref" v="1120"/>
		<tag k="railway:track_ref" v="7"/>
		<tag k="usage" v="main"/>
		<tag k="int_name" v="Vogelfluglinie"/>
		<tag k="name" v="Lübeck-Hamburger Bahn"/>
		<tag k="railway" v="rail"/>
		<tag k="level" v="-1"/>
	</way>
	<way id="398613056">
		<nd ref="1508604304"/>
		<nd ref="3499317770"/>
		<nd ref="986373239"/>
		<nd ref="3256725643"/>
		<nd ref="315308724"/>
		<nd ref="1553530294"/>
		<nd ref="315221420"/>
		<tag k="ref" v="6100"/>
		<tag k="railway:track_ref" v="5"/>
		<tag k="usage" v="main"/>
		<tag k="tracks" v="1"/>
		<tag k="name" v="Berlin-Hamburger Bahn"/>
		<tag k="railway" v="rail"/>
		<tag k="level" v="-1"/>
	</way>
	<way id="398625583">
		<nd ref="3934362094"/>
		<nd ref="53123944"/>
		<nd ref="1238439071"/>
		<nd ref="6002452914"/>
		<nd ref="6002452913"/>
		<nd ref="25081442"/>
		<tag k="ref" v="1120"/>
		<tag k="railway:track_ref" v="6"/>
		<tag k="usage" v="main"/>
		<tag k="int_name" v="Vogelfluglinie"/>
		<tag k="name" v="Lübeck-Hamburger Bahn"/>
		<tag k="railway" v="rail"/>
		<tag k="level" v="-1"/>
	</way>
	<way id="408855542">
		<nd ref="4352401579"/>
		<nd ref="3020822453"/>
		<nd ref="4290856990"/>
		<nd ref="4115751499"/>
		<nd ref="4690335031"/>
		<nd ref="2866982847"/>
		<nd ref="3020822437"/>
		<nd ref="2866982842"/>
		<nd ref="3020689154"/>
		<tag k="railway:traffic_mode" v="passenger"/>
		<tag k="lines" v="U2;U4"/>
		<tag k="electrified:rail" v="bottom"/>
		<tag k="railway" v="subway"/>
		<tag k="level" v="-3"/>
	</way>
	<way id="408855543">
		<nd ref="-24490820"/>
		<nd ref="2866982841"/>
		<nd ref="2866982846"/>
		<nd ref="3020822446"/>
		<nd ref="3020822451"/>
		<nd ref="3020822452"/>
		<nd ref="2866982849"/>
		<nd ref="3020822456"/>
		<nd ref="4690335028"/>
		<nd ref="2866982850"/>
		<nd ref="4352401579"/>
		<tag k="railway:traffic_mode" v="passenger"/>
		<tag k="lines" v="U2;U4"/>
		<tag k="electrified:rail" v="bottom"/>
		<tag k="railway" v="subway"/>
		<tag k="level" v="-3"/>
	</way>
	<way id="408855544">
		<nd ref="4115751509"/>
		<nd ref="6923567108"/>
		<nd ref="4115751510"/>
		<nd ref="4115751515"/>
		<nd ref="4115751520"/>
		<nd ref="4107689623"/>
		<nd ref="4146348966"/>
		<nd ref="4146348963"/>
		<nd ref="4146348961"/>
		<nd ref="4115751508"/>
		<nd ref="4107516559"/>
		<nd ref="1040426825"/>
		<nd ref="4107516557"/>
		<nd ref="4107689618"/>
		<nd ref="6922374979"/>
		<nd ref="6922374978"/>
		<nd ref="6922374976"/>
		<nd ref="4107689615"/>
		<nd ref="4115751507"/>
		<nd ref="4115751505"/>
		<nd ref="6922374977"/>
		<nd ref="4115751503"/>
		<nd ref="4115751509"/>
		<tag k="public_transport" v="platform"/>
		<tag k="subway" v="yes"/>
		<tag k="access" v="customers"/>
		<tag k="area" v="yes"/>
		<tag k="bench" v="yes"/>
		<tag k="railway" v="platform"/>
		<tag k="level" v="-3"/>
	</way>
	<way id="408897404">
		<nd ref="4108020363"/>
		<nd ref="4108069642"/>
		<nd ref="4108069643"/>
		<nd ref="7039387944"/>
		<nd ref="4108069644"/>
		<nd ref="4108069646"/>
		<nd ref="4108020400"/>
		<nd ref="7039387888"/>
		<nd ref="7039387887"/>
		<nd ref="7039387885"/>
		<nd ref="7039387889"/>
		<nd ref="7039387886"/>
		<nd ref="7039387895"/>
		<nd ref="7039387894"/>
		<nd ref="4148382543"/>
		<nd ref="4148382546"/>
		<nd ref="7039387893"/>
		<nd ref="4108020405"/>
		<nd ref="4191054455"/>
		<nd ref="4191303800"/>
		<nd ref="4191054454"/>
		<nd ref="4191054448"/>
		<nd ref="4191303798"/>
		<nd ref="4191054446"/>
		<nd ref="4191054443"/>
		<nd ref="4191303796"/>
		<nd ref="4191054442"/>
		<nd ref="7039387936"/>
		<nd ref="7039387937"/>
		<nd ref="7039387934"/>
		<nd ref="7039387935"/>
		<nd ref="4191054441"/>
		<nd ref="4191303795"/>
		<nd ref="4191054440"/>
		<nd ref="4108020384"/>
		<nd ref="7039387909"/>
		<nd ref="7039387898"/>
		<nd ref="4108020378"/>
		<nd ref="563245821"/>
		<nd ref="7039387912"/>
		<nd ref="4108020389"/>
		<nd ref="7039387907"/>
		<nd ref="7039387906"/>
		<nd ref="7039387904"/>
		<nd ref="7039387905"/>
		<nd ref="7039387908"/>
		<nd ref="4108020363"/>
		<tag k="public_transport" v="platform"/>
		<tag k="ref" v="3"/>
		<tag k="subway" v="yes"/>
		<tag k="railway:track_ref" v="3"/>
		<tag k="access" v="customers"/>
		<tag k="surface" v="paving_stones"/>
		<tag k="area" v="yes"/>
		<tag k="bench" v="yes"/>
		<tag k="bin" v="yes"/>
		<tag k="railway" v="platform"/>
		<tag k="level" v="-2"/>
	</way>
	<way id="408897407">
		<nd ref="1133573673"/>
		<nd ref="2582672528"/>
		<nd ref="2582672527"/>
		<nd ref="3021113103"/>
		<nd ref="2582672524"/>
		<nd ref="3021113102"/>
		<nd ref="2582672523"/>
		<nd ref="2582672522"/>
		<nd ref="3021113100"/>
		<nd ref="2582672521"/>
		<nd ref="3021114139"/>
		<nd ref="3021114135"/>
		<nd ref="2582672516"/>
		<tag k="railway" v="subway"/>
		<tag k="level" v="-3"/>
	</way>
	<way id="408897434">
		<nd ref="4108020327"/>
		<nd ref="4108020334"/>
		<nd ref="4108020331"/>
		<nd ref="4108020324"/>
		<nd ref="4108020327"/>
		<tag k="ref" v="2789"/>
		<tag k="manufacturer" v="M.S. Aufzüge"/>
		<tag k="start_date" v="2019"/>
		<tag k="level" v="0;-1;-2"/>
	</way>
	<way id="415383438">
		<nd ref="1238528598"/>
		<nd ref="3847356929"/>
		<tag k="ref" v="2200"/>
		<tag k="railway:track_ref" v="13"/>
		<tag k="usage" v="main"/>
		<tag k="railway" v="rail"/>
		<tag k="level" v="-1"/>
	</way>
	<way id="426579095">
		<nd ref="1133573617"/>
		<nd ref="3021113107"/>
		<nd ref="4674545477"/>
		<nd ref="1133573646"/>
		<nd ref="1133573673"/>
		<tag k="railway" v="subway"/>
		<tag k="level" v="-2"/>
	</way>
	<way id="437425429">
		<nd ref="-24490864"/>
		<nd ref="258616743"/>
		<nd ref="2866982844"/>
		<nd ref="3020822440"/>
		<nd ref="170616001"/>
		<nd ref="170616006"/>
		<nd ref="3020822454"/>
		<nd ref="258196025"/>
		<nd ref="2866982851"/>
		<nd ref="3020822460"/>
		<nd ref="1143048420"/>
		<nd ref="3020822463"/>
		<nd ref="3020822462"/>
		<tag k="railway:traffic_mode" v="passenger"/>
		<tag k="lines" v="U2;U4"/>
		<tag k="electrified:rail" v="bottom"/>
		<tag k="railway" v="subway"/>
		<tag k="level" v="-3"/>
	</way>
	<way id="440085688">
		<nd ref="4377906685"/>
		<nd ref="4973014841"/>
		<nd ref="6654171020"/>
		<nd ref="6654171016"/>
		<nd ref="1238439073"/>
		<tag k="commuting" v="yes"/>
		<tag k="railway:traffic_mode" v="passenger"/>
		<tag k="service" v="crossover"/>
		<tag k="railway" v="light_rail"/>
		<tag k="level" v="-1"/>
	</way>
	<way id="456083747">
		<nd ref="315220266"/>
		<nd ref="3057628916"/>
		<nd ref="3140188619"/>
		<nd ref="3140188623"/>
		<nd ref="1677782608"/>
		<nd ref="3057628918"/>
		<nd ref="315220271"/>
		<nd ref="3140191642"/>
		<nd ref="1238955298"/>
		<nd ref="315220273"/>
		<nd ref="3105955512"/>
		<nd ref="6515307621"/>
		<nd ref="315220274"/>
		<tag k="railway:track_ref" v="10"/>
		<tag k="service" v="yard"/>
		<tag k="railway" v="rail"/>
		<tag k="level" v="-1"/>
	</way>
	<way id="456084385">
		<nd ref="315220263"/>
		<nd ref="4032038708"/>
		<nd ref="4032038710"/>
		<nd ref="734903988"/>
		<nd ref="3499316585"/>
		<nd ref="1238968451"/>
		<nd ref="3499317731"/>
		<nd ref="3118519748"/>
		<nd ref="3118519749"/>
		<nd ref="734941876"/>
		<nd ref="4081668819"/>
		<nd ref="734903212"/>
		<tag k="service" v="yard"/>
		<tag k="railway" v="rail"/>
		<tag k="level" v="-1"/>
	</way>
	<way id="456587966">
		<nd ref="1145811415"/>
		<nd ref="7039642210"/>
		<nd ref="4674545480"/>
		<nd ref="3397108149"/>
		<nd ref="7039301072"/>
		<nd ref="7039387926"/>
		<nd ref="1145811376"/>
		<nd ref="7039301071"/>
		<nd ref="4690335017"/>
		<nd ref="4690335016"/>
		<nd ref="4528401490"/>
		<tag k="railway:traffic_mode" v="passenger"/>
		<tag k="lines" v="U3"/>
		<tag k="electrified:rail" v="bottom"/>
		<tag k="railway" v="subway"/>
		<tag k="level" v="-2"/>
	</way>
	<way id="463896642">
		<nd ref="3934362097"/>
		<nd ref="315220249"/>
		<nd ref="3140191641"/>
		<nd ref="315220248"/>
		<nd ref="6515307620"/>
		<nd ref="6515307626"/>
		<nd ref="6515307625"/>
		<nd ref="6515307624"/>
		<nd ref="3073826223"/>
		<nd ref="6515307618"/>
		<nd ref="3073826224"/>
		<nd ref="315220276"/>
		<tag k="ref" v="1250"/>
		<tag k="railway:track_ref" v="11"/>
		<tag k="usage" v="main"/>
		<tag k="railway" v="rail"/>
		<tag k="level" v="-1"/>
	</way>
	<way id="480803098">
		<nd ref="4737669528"/>
		<nd ref="2366218468"/>
		<tag k="railway:traffic_mode" v="passenger"/>
		<tag k="lines" v="U3"/>
		<tag k="electrified:rail" v="bottom"/>
		<tag k="railway" v="subway"/>
		<tag k="level" v="-2"/>
	</way>
	<way id="480803099">
		<nd ref="4737669527"/>
		<nd ref="4528401489"/>
		<tag k="railway:traffic_mode" v="passenger"/>
		<tag k="lines" v="U3"/>
		<tag k="electrified:rail" v="bottom"/>
		<tag k="railway" v="subway"/>
		<tag k="level" v="-2"/>
	</way>
	<way id="507874090">
		<nd ref="4973014838"/>
		<nd ref="4437520549"/>
		<nd ref="1238528530"/>
		<tag k="ref" v="1244"/>
		<tag k="usage" v="main"/>
		<tag k="commuting" v="yes"/>
		<tag k="railway:traffic_mode" v="passenger"/>
		<tag k="lines" v="S2;S3;S21;S31"/>
		<tag k="name" v="Verbindungsbahn"/>
		<tag k="railway" v="light_rail"/>
		<tag k="level" v="-1"/>
	</way>
	<way id="507874091">
		<nd ref="1359198012"/>
		<nd ref="315220200"/>
		<nd ref="1238955290"/>
		<nd ref="3256725647"/>
		<nd ref="300802945"/>
		<nd ref="3499317774"/>
		<nd ref="3256725645"/>
		<nd ref="3128440993"/>
		<nd ref="534744595"/>
		<nd ref="3499317752"/>
		<nd ref="315221423"/>
		<tag k="ref" v="1241"/>
		<tag k="railway:track_ref" v="3"/>
		<tag k="usage" v="main"/>
		<tag k="commuting" v="yes"/>
		<tag k="railway:traffic_mode" v="passenger"/>
		<tag k="lines" v="S1;S11;S31"/>
		<tag k="name" v="City-S-Bahn"/>
		<tag k="railway" v="light_rail"/>
		<tag k="level" v="-1"/>
	</way>
	<way id="507874092">
		<nd ref="315230133"/>
		<nd ref="3260318473"/>
		<nd ref="4352401569"/>
		<nd ref="6654171026"/>
		<nd ref="3260318492"/>
		<nd ref="3260318495"/>
		<nd ref="3128440996"/>
		<nd ref="4352401570"/>
		<nd ref="4352401572"/>
		<nd ref="315230131"/>
		<nd ref="315238374"/>
		<tag k="ref" v="1244"/>
		<tag k="railway:track_ref" v="2"/>
		<tag k="usage" v="main"/>
		<tag k="commuting" v="yes"/>
		<tag k="railway:traffic_mode" v="passenger"/>
		<tag k="lines" v="S11;S21;S31"/>
		<tag k="name" v="Verbindungsbahn"/>
		<tag k="railway" v="light_rail"/>
		<tag k="level" v="-1"/>
	</way>
	<way id="507874093">
		<nd ref="1359198009"/>
		<nd ref="3260318475"/>
		<nd ref="6081879880"/>
		<nd ref="3206976011"/>
		<nd ref="3260318493"/>
		<nd ref="3260318498"/>
		<nd ref="3128440997"/>
		<nd ref="4377906685"/>
		<tag k="ref" v="1241"/>
		<tag k="railway:track_ref" v="1"/>
		<tag k="usage" v="main"/>
		<tag k="commuting" v="yes"/>
		<tag k="railway:traffic_mode" v="passenger"/>
		<tag k="lines" v="S1;S2;S3"/>
		<tag k="railway" v="light_rail"/>
		<tag k="level" v="-1"/>
	</way>
	<way id="507874096">
		<nd ref="734903990"/>
		<nd ref="3934181872"/>
		<nd ref="734941441"/>
		<nd ref="3499317748"/>
		<nd ref="734903212"/>
		<tag k="service" v="crossover"/>
		<tag k="railway" v="rail"/>
		<tag k="level" v="-1"/>
	</way>
	<way id="516304015">
		<nd ref="2713160370"/>
		<nd ref="2713160362"/>
		<nd ref="5859777281"/>
		<nd ref="3081529890"/>
		<nd ref="734893832"/>
		<tag k="ref" v="2200"/>
		<tag k="railway:track_ref" v="14"/>
		<tag k="usage" v="main"/>
		<tag k="railway" v="rail"/>
		<tag k="level" v="-1"/>
	</way>
	<way id="554568294">
		<nd ref="1359198012"/>
		<nd ref="3256725659"/>
		<nd ref="3128440995"/>
		<nd ref="4259013626"/>
		<nd ref="3398049275"/>
		<nd ref="4973014837"/>
		<tag k="ref" v="1241"/>
		<tag k="railway:track_ref" v="3"/>
		<tag k="usage" v="main"/>
		<tag k="commuting" v="yes"/>
		<tag k="railway:traffic_mode" v="passenger"/>
		<tag k="lines" v="S1;S11;S31"/>
		<tag k="name" v="City-S-Bahn"/>
		<tag k="railway" v="light_rail"/>
		<tag k="level" v="-1"/>
	</way>
	<way id="641940800">
		<nd ref="3934362095"/>
		<nd ref="3140191629"/>
		<nd ref="3140191630"/>
		<nd ref="1677782613"/>
		<nd ref="3934362101"/>
		<tag k="ref" v="6100"/>
		<tag k="railway:track_ref" v="5"/>
		<tag k="usage" v="main"/>
		<tag k="tracks" v="1"/>
		<tag k="name" v="Berlin-Hamburger Bahn"/>
		<tag k="railway" v="rail"/>
		<tag k="level" v="-1"/>
	</way>
	<way id="642004108">
		<nd ref="6654171006"/>
		<nd ref="4973014837"/>
		<tag k="railway:track_ref" v="3"/>
		<tag k="commuting" v="yes"/>
		<tag k="railway:traffic_mode" v="passenger"/>
		<tag k="lines" v="S1;S11;S31"/>
		<tag k="service" v="crossover"/>
		<tag k="railway" v="light_rail"/>
		<tag k="level" v="-1"/>
	</way>
	<way id="643685484">
		<nd ref="734944431"/>
		<nd ref="6002452921"/>
		<nd ref="3118563179"/>
		<nd ref="315220227"/>
		<nd ref="1677782610"/>
		<nd ref="3934362098"/>
		<tag k="ref" v="6100"/>
		<tag k="railway:track_ref" v="8"/>
		<tag k="usage" v="main"/>
		<tag k="tracks" v="1"/>
		<tag k="name" v="Berlin-Hamburger Bahn"/>
		<tag k="railway" v="rail"/>
		<tag k="level" v="-1"/>
	</way>
	<way id="647676496">
		<nd ref="1458122014"/>
		<nd ref="1458122015"/>
		<nd ref="2366218468"/>
		<tag k="railway:traffic_mode" v="passenger"/>
		<tag k="lines" v="U3"/>
		<tag k="electrified:rail" v="bottom"/>
		<tag k="railway" v="subway"/>
		<tag k="level" v="-2"/>
	</way>
	<way id="647676504">
		<nd ref="4737669527"/>
		<nd ref="569644933"/>
		<tag k="railway:traffic_mode" v="passenger"/>
		<tag k="lines" v="U3"/>
		<tag k="electrified:rail" v="bottom"/>
		<tag k="railway" v="subway"/>
		<tag k="level" v="-2"/>
	</way>
	<way id="653947834">
		<nd ref="3934362095"/>
		<nd ref="1508604333"/>
		<nd ref="1238955302"/>
		<nd ref="6002452912"/>
		<nd ref="1508604304"/>
		<tag k="ref" v="6100"/>
		<tag k="railway:track_ref" v="5"/>
		<tag k="usage" v="main"/>
		<tag k="tracks" v="1"/>
		<tag k="name" v="Berlin-Hamburger Bahn"/>
		<tag k="railway" v="rail"/>
		<tag k="level" v="-1"/>
	</way>
	<way id="653947835">
		<nd ref="25081442"/>
		<nd ref="986373219"/>
		<nd ref="6002452911"/>
		<nd ref="1655891765"/>
		<nd ref="315221418"/>
		<tag k="ref" v="1120"/>
		<tag k="railway:track_ref" v="6"/>
		<tag k="usage" v="main"/>
		<tag k="int_name" v="Vogelfluglinie"/>
		<tag k="name" v="Lübeck-Hamburger Bahn"/>
		<tag k="railway" v="rail"/>
		<tag k="level" v="-1"/>
	</way>
	<way id="653947839">
		<nd ref="1238439077"/>
		<nd ref="3499317779"/>
		<nd ref="1508604302"/>
		<nd ref="1553530682"/>
		<nd ref="6002452910"/>
		<nd ref="986373313"/>
		<nd ref="315221417"/>
		<tag k="ref" v="1120"/>
		<tag k="railway:track_ref" v="7"/>
		<tag k="usage" v="main"/>
		<tag k="int_name" v="Vogelfluglinie"/>
		<tag k="name" v="Lübeck-Hamburger Bahn"/>
		<tag k="railway" v="rail"/>
		<tag k="level" v="-1"/>
	</way>
	<way id="653947840">
		<nd ref="3934362094"/>
		<nd ref="3140188627"/>
		<nd ref="3140188628"/>
		<nd ref="1677782612"/>
		<nd ref="53123251"/>
		<nd ref="3934362100"/>
		<tag k="ref" v="1120"/>
		<tag k="railway:track_ref" v="6"/>
		<tag k="usage" v="main"/>
		<tag k="int_name" v="Vogelfluglinie"/>
		<tag k="name" v="Lübeck-Hamburger Bahn"/>
		<tag k="railway" v="rail"/>
		<tag k="level" v="-1"/>
	</way>
	<way id="653947841">
		<nd ref="3782190381"/>
		<nd ref="3140188618"/>
		<nd ref="1677782607"/>
		<nd ref="3934362097"/>
		<tag k="ref" v="1250"/>
		<tag k="railway:track_ref" v="11"/>
		<tag k="usage" v="main"/>
		<tag k="railway" v="rail"/>
		<tag k="level" v="-1"/>
	</way>
	<way id="653947842">
		<nd ref="3782190380"/>
		<nd ref="3140188617"/>
		<nd ref="315220306"/>
		<nd ref="1677782606"/>
		<nd ref="3934362096"/>
		<tag k="ref" v="1250"/>
		<tag k="railway:track_ref" v="12"/>
		<tag k="usage" v="main"/>
		<tag k="railway" v="rail"/>
		<tag k="level" v="-1"/>
	</way>
	<way id="653947843">
		<nd ref="3749913074"/>
		<nd ref="332130137"/>
		<nd ref="52104870"/>
		<tag k="ref" v="2200"/>
		<tag k="railway:track_ref" v="13"/>
		<tag k="usage" v="main"/>
		<tag k="railway" v="rail"/>
		<tag k="level" v="-1"/>
	</way>
	<way id="653947844">
		<nd ref="3530748938"/>
		<nd ref="1677782605"/>
		<nd ref="315220304"/>
		<tag k="ref" v="2200"/>
		<tag k="railway:track_ref" v="14"/>
		<tag k="usage" v="main"/>
		<tag k="railway" v="rail"/>
		<tag k="level" v="-1"/>
	</way>
	<way id="653947845">
		<nd ref="3934362096"/>
		<nd ref="315220309"/>
		<nd ref="3140191639"/>
		<nd ref="6515307622"/>
		<nd ref="3105955510"/>
		<nd ref="3105955511"/>
		<nd ref="3105955513"/>
		<nd ref="1238528531"/>
		<tag k="ref" v="1250"/>
		<tag k="railway:track_ref" v="12"/>
		<tag k="usage" v="main"/>
		<tag k="railway" v="rail"/>
		<tag k="level" v="-1"/>
	</way>
	<way id="656092302">
		<nd ref="3934362091"/>
		<nd ref="5859780190"/>
		<nd ref="1677782589"/>
		<nd ref="5859780188"/>
		<nd ref="6002452909"/>
		<nd ref="315220252"/>
		<nd ref="5859777274"/>
		<nd ref="5859777269"/>
		<nd ref="5859777267"/>
		<nd ref="3782190381"/>
		<tag k="ref" v="1250"/>
		<tag k="railway:track_ref" v="11"/>
		<tag k="usage" v="main"/>
		<tag k="railway" v="rail"/>
		<tag k="level" v="-1"/>
	</way>
	<way id="656092303">
		<nd ref="2713160370"/>
		<nd ref="287927785"/>
		<nd ref="3934362092"/>
		<tag k="ref" v="2200"/>
		<tag k="railway:track_ref" v="14"/>
		<tag k="usage" v="main"/>
		<tag k="railway" v="rail"/>
		<tag k="level" v="-1"/>
	</way>
	<way id="656092304">
		<nd ref="3595451434"/>
		<nd ref="52104885"/>
		<nd ref="5715913510"/>
		<nd ref="5715913514"/>
		<nd ref="5715913515"/>
		<nd ref="3140188616"/>
		<nd ref="3749913074"/>
		<tag k="ref" v="2200"/>
		<tag k="railway:track_ref" v="13"/>
		<tag k="usage" v="main"/>
		<tag k="railway" v="rail"/>
		<tag k="level" v="-1"/>
	</way>
	<way id="708153749">
		<nd ref="3398049275"/>
		<nd ref="6654171000"/>
		<nd ref="6654170999"/>
		<nd ref="6654171008"/>
		<nd ref="3930177257"/>
		<tag k="commuting" v="yes"/>
		<tag k="railway:traffic_mode" v="passenger"/>
		<tag k="lines" v="S1;S2;S3"/>
		<tag k="service" v="crossover"/>
		<tag k="railway" v="light_rail"/>
		<tag k="level" v="-1"/>
	</way>
	<relation id="61612">
		<member type="way" ref="127647892" role=""/>
		<member type="way" ref="507874090" role=""/>
		<member type="way" ref="130705850" role=""/>
		<member type="way" ref="42764951" role=""/>
		<member type="way" ref="152813951" role="platform"/>
		<member type="way" ref="107828152" role=""/>
		<tag k="type" v="route"/>
		<tag k="ref" v="S3"/>
		<tag k="colour" v="#5D1D81"/>
		<tag k="route" v="light_rail"/>
		<tag k="from" v="Pinneberg"/>
		<tag k="to" v="Stade"/>
		<tag k="public_transport:version" v="2"/>
		<tag k="text_colour" v="indigo"/>
		<tag k="name" v="S3: Pinneberg =&#62; Stade"/>
	</relation>
	<relation id="76724">
		<member type="way" ref="27632886" role=""/>
		<member type="way" ref="152813941" role="platform_entry_only"/>
		<tag k="type" v="route"/>
		<tag k="ref" v="RE5"/>
		<tag k="route" v="train"/>
		<tag k="from" v="Hamburg Hauptbahnhof"/>
		<tag k="to" v="Cuxhaven"/>
		<tag k="public_transport:version" v="2"/>
		<tag k="name" v="RE5: Hamburg =&#62; Cuxhaven"/>
	</relation>
	<relation id="158487">
		<member type="way" ref="28679359" role=""/>
		<member type="way" ref="554568294" role=""/>
		<member type="way" ref="507874091" role=""/>
		<member type="way" ref="152813951" role="platform"/>
		<member type="way" ref="28680437" role=""/>
		<tag k="type" v="route"/>
		<tag k="ref" v="S11"/>
		<tag k="colour" v="#44A325"/>
		<tag k="route" v="light_rail"/>
		<tag k="from" v="Blankenese"/>
		<tag k="to" v="Poppenbüttel"/>
		<tag k="public_transport:version" v="2"/>
		<tag k="text_colour" v="green"/>
		<tag k="name" v="S11: Blankenese =&#62; Poppenbüttel"/>
	</relation>
	<relation id="189467">
		<member type="way" ref="44329825" role=""/>
		<member type="way" ref="152813958" role="platform_entry_only"/>
		<member type="way" ref="653947839" role=""/>
		<tag k="type" v="route"/>
		<tag k="ref" v="RE1"/>
		<tag k="colour" v="#36803D"/>
		<tag k="service" v="regional"/>
		<tag k="route" v="train"/>
		<tag k="from" v="Hamburg Hauptbahnhof"/>
		<tag k="to" v="Rostock Hauptbahnhof"/>
		<tag k="public_transport:version" v="2"/>
		<tag k="name" v="RE1: Hamburg =&#62; Rostock"/>
	</relation>
	<relation id="225606">
		<member type="way" ref="152813941" role="platform"/>
		<member type="way" ref="152813949" role="platform"/>
		<member type="way" ref="152813958" role="platform"/>
		<member type="way" ref="28679287" role="platform"/>
		<tag k="public_transport" v="stop_area"/>
		<tag k="type" v="public_transport"/>
		<tag k="railway:ref" v="AH"/>
		<tag k="uic_ref" v="8002549"/>
		<tag k="railway:station_category" v="1"/>
		<tag k="uic_name" v="Hamburg Hbf"/>
		<tag k="name" v="Hamburg Hauptbahnhof"/>
	</relation>
	<relation id="280012">
		<member type="way" ref="408897404" role="platform"/>
		<member type="way" ref="99048980" role="platform"/>
		<tag k="public_transport" v="stop_area"/>
		<tag k="type" v="public_transport"/>
		<tag k="bus" v="yes"/>
		<tag k="subway" v="yes"/>
		<tag k="name" v="Hauptbahnhof Süd"/>
	</relation>
	<relation id="289247">
		<member type="way" ref="408855544" role="platform"/>
		<member type="way" ref="43317350" role="platform"/>
		<tag k="public_transport" v="stop_area"/>
		<tag k="type" v="public_transport"/>
		<tag k="subway" v="yes"/>
		<tag k="name" v="Hauptbahnhof Nord"/>
	</relation>
	<relation id="297201">
		<member type="way" ref="127647892" role=""/>
		<member type="way" ref="152813951" role="platform"/>
		<member type="way" ref="130705850" role=""/>
		<member type="way" ref="107828152" role=""/>
		<member type="way" ref="42764951" role=""/>
		<member type="way" ref="507874090" role=""/>
		<tag k="type" v="route"/>
		<tag k="ref" v="S2"/>
		<tag k="colour" v="#A70F47"/>
		<tag k="service" v="commuter"/>
		<tag k="route" v="light_rail"/>
		<tag k="from" v="Altona"/>
		<tag k="to" v="Bergedorf"/>
		<tag k="public_transport:version" v="2"/>
		<tag k="text_colour" v="purple"/>
		<tag k="description:de" v="verkehrt nur in der Hauptverkehrszeit"/>
		<tag k="name" v="S2: Altona =&#62; Bergedorf"/>
	</relation>
	<relation id="369097">
		<member type="way" ref="152813970" role=""/>
		<member type="way" ref="28679287" role="platform"/>
		<tag k="type" v="route"/>
		<tag k="ref" v="RE70"/>
		<tag k="colour" v="#C10831"/>
		<tag k="route" v="train"/>
		<tag k="from" v="Kiel Hauptbahnhof"/>
		<tag k="to" v="Hamburg Hauptbahnhof"/>
		<tag k="public_transport:version" v="2"/>
		<tag k="name" v="RE70: Kiel =&#62; Hamburg"/>
	</relation>
	<relation id="369179">
		<member type="way" ref="152813941" role="platform"/>
		<member type="way" ref="463896642" role=""/>
		<tag k="type" v="route"/>
		<tag k="ref" v="RE7"/>
		<tag k="colour" v="#EF7D00"/>
		<tag k="route" v="train"/>
		<tag k="from" v="Hamburg Hauptbahnhof"/>
		<tag k="to" v="Flensburg"/>
		<tag k="public_transport:version" v="2"/>
		<tag k="name" v="RE7: Hamburg =&#62; Flensburg"/>
	</relation>
	<relation id="1083201">
		<member type="way" ref="653947844" role=""/>
		<member type="way" ref="516304015" role=""/>
		<member type="way" ref="108729982" role=""/>
		<member type="way" ref="152813949" role="platform"/>
		<member type="way" ref="108729987" role=""/>
		<member type="way" ref="353729902" role=""/>
		<member type="way" ref="656092303" role=""/>
		<tag k="type" v="route"/>
		<tag k="ref" v="ICE 20"/>
		<tag k="fee" v="yes"/>
		<tag k="service" v="high_speed"/>
		<tag k="route" v="train"/>
		<tag k="from" v="Hamburg Altona"/>
		<tag k="to" v="Basel Bad Bf"/>
		<tag k="public_transport:version" v="2"/>
		<tag k="comment" v="some trains go not all the way to Basel, route north of Karlsruhe based on ICE 1171"/>
		<tag k="name" v="ICE 20: Hamburg =&#62; Frankfurt =&#62; Basel"/>
	</relation>
	<relation id="1304745">
		<member type="way" ref="28679367" role=""/>
		<member type="way" ref="463896642" role=""/>
		<member type="way" ref="152813941" role="platform"/>
		<member type="way" ref="656092302" role=""/>
		<member type="way" ref="653947841" role=""/>
		<tag k="type" v="route"/>
		<tag k="ref" v="ICE 26"/>
		<tag k="service" v="high_speed"/>
		<tag k="route" v="train"/>
		<tag k="from" v="Ostseebad Binz"/>
		<tag k="to" v="Karlsruhe"/>
		<tag k="public_transport:version" v="2"/>
		<tag k="name" v="ICE 26: Ostseebad Binz =&#62; Karlsruhe"/>
	</relation>
	<relation id="1304746">
		<member type="way" ref="59266484" role=""/>
		<member type="way" ref="507874096" role=""/>
		<member type="way" ref="643685484" role=""/>
		<member type="way" ref="135844323" role=""/>
		<member type="way" ref="28679282" role=""/>
		<member type="way" ref="28679354" role=""/>
		<member type="way" ref="62182013" role=""/>
		<member type="way" ref="152813958" role="platform"/>
		<member type="way" ref="62182020" role=""/>
		<member type="way" ref="62182022" role=""/>
		<member type="way" ref="303082464" role=""/>
		<tag k="type" v="route"/>
		<tag k="ref" v="ICE 26"/>
		<tag k="service" v="high_speed"/>
		<tag k="route" v="train"/>
		<tag k="from" v="Karlsruhe"/>
		<tag k="to" v="Ostseebad Binz"/>
		<tag k="public_transport:version" v="2"/>
		<tag k="fixme" v="part of route missing;add stops"/>
		<tag k="name" v="ICE 26: Karlsruhe =&#62; Ostseebad Binz"/>
	</relation>
	<relation id="1540437">
		<member type="way" ref="152813951" role="platform"/>
		<member type="way" ref="130705848" role=""/>
		<member type="way" ref="130705849" role=""/>
		<member type="way" ref="28679359" role=""/>
		<member type="way" ref="642004108" role=""/>
		<member type="way" ref="554568294" role=""/>
		<member type="way" ref="507874091" role=""/>
		<tag k="type" v="route"/>
		<tag k="ref" v="S1"/>
		<tag k="colour" v="#33b540"/>
		<tag k="route" v="light_rail"/>
		<tag k="from" v="Wedel"/>
		<tag k="to" v="Poppenbüttel"/>
		<tag k="public_transport:version" v="2"/>
		<tag k="name" v="S1: Wedel =&#62; Poppenbüttel"/>
	</relation>
	<relation id="1660618">
		<member type="way" ref="507874093" role=""/>
		<member type="way" ref="44329812" role=""/>
		<member type="way" ref="28680436" role=""/>
		<member type="way" ref="107828136" role=""/>
		<tag k="type" v="route"/>
		<tag k="ref" v="S1"/>
		<tag k="colour" v="#33b540"/>
		<tag k="route" v="light_rail"/>
		<tag k="from" v="Hamburg Airport (Flughafen)"/>
		<tag k="to" v="Wedel"/>
		<tag k="public_transport:version" v="2"/>
		<tag k="name" v="S1: Hamburg Airport (Flughafen) =&#62; Wedel"/>
	</relation>
	<relation id="1660619">
		<member type="way" ref="152813951" role="platform"/>
		<member type="way" ref="130705848" role=""/>
		<member type="way" ref="130705849" role=""/>
		<member type="way" ref="28679359" role=""/>
		<member type="way" ref="642004108" role=""/>
		<member type="way" ref="554568294" role=""/>
		<member type="way" ref="507874091" role=""/>
		<tag k="type" v="route"/>
		<tag k="ref" v="S1"/>
		<tag k="colour" v="#33b540"/>
		<tag k="route" v="light_rail"/>
		<tag k="from" v="Wedel"/>
		<tag k="to" v="Airport (Flughafen)"/>
		<tag k="public_transport:version" v="2"/>
		<tag k="name" v="S1: Wedel =&#62; Airport (Flughafen)"/>
	</relation>
	<relation id="1660621">
		<member type="way" ref="507874093" role=""/>
		<member type="way" ref="44329812" role=""/>
		<member type="way" ref="28680436" role=""/>
		<member type="way" ref="107828136" role=""/>
		<tag k="type" v="route"/>
		<tag k="ref" v="S1"/>
		<tag k="colour" v="#33b540"/>
		<tag k="route" v="light_rail"/>
		<tag k="from" v="Poppenbüttel"/>
		<tag k="to" v="Wedel"/>
		<tag k="public_transport:version" v="2"/>
		<tag k="name" v="S1: Poppenbüttel =&#62; Wedel"/>
	</relation>
	<relation id="1727350">
		<member type="way" ref="127647892" role=""/>
		<member type="way" ref="507874090" role=""/>
		<member type="way" ref="130705850" role=""/>
		<member type="way" ref="42764951" role=""/>
		<member type="way" ref="152813951" role="platform"/>
		<member type="way" ref="28679369" role=""/>
		<tag k="type" v="route"/>
		<tag k="ref" v="S31"/>
		<tag k="colour" v="#5D1D81"/>
		<tag k="route" v="light_rail"/>
		<tag k="from" v="Altona"/>
		<tag k="to" v="Harburg Rathaus"/>
		<tag k="public_transport:version" v="2"/>
		<tag k="name" v="S31: Altona =&#62; Harburg Rathaus"/>
	</relation>
	<relation id="1727351">
		<member type="way" ref="507874092" role=""/>
		<member type="way" ref="127647894" role=""/>
		<member type="way" ref="42712750" role=""/>
		<member type="way" ref="29180363" role=""/>
		<member type="way" ref="44329811" role=""/>
		<tag k="type" v="route"/>
		<tag k="ref" v="S31"/>
		<tag k="colour" v="#5D1D81"/>
		<tag k="route" v="light_rail"/>
		<tag k="from" v="Berliner Tor"/>
		<tag k="to" v="Altona"/>
		<tag k="public_transport:version" v="2"/>
		<tag k="name" v="S31: Berliner Tor =&#62; Altona"/>
	</relation>
	<relation id="1727352">
		<member type="way" ref="42712750" role=""/>
		<member type="way" ref="29180363" role=""/>
		<member type="way" ref="127647894" role=""/>
		<member type="way" ref="507874092" role=""/>
		<member type="way" ref="44329811" role=""/>
		<tag k="type" v="route"/>
		<tag k="ref" v="S31"/>
		<tag k="colour" v="#5D1D81"/>
		<tag k="route" v="light_rail"/>
		<tag k="from" v="Harburg Rathaus"/>
		<tag k="to" v="Altona"/>
		<tag k="public_transport:version" v="2"/>
		<tag k="name" v="S31: Harburg Rathaus =&#62; Altona"/>
	</relation>
	<relation id="1727353">
		<member type="way" ref="28679359" role=""/>
		<member type="way" ref="554568294" role=""/>
		<member type="way" ref="507874091" role=""/>
		<member type="way" ref="152813951" role="platform"/>
		<member type="way" ref="28680437" role=""/>
		<tag k="type" v="route"/>
		<tag k="ref" v="S31"/>
		<tag k="colour" v="#5D1D81"/>
		<tag k="route" v="light_rail"/>
		<tag k="from" v="Altona"/>
		<tag k="to" v="Berliner Tor"/>
		<tag k="public_transport:version" v="2"/>
		<tag k="name" v="S31: Altona =&#62; Berliner Tor"/>
	</relation>
	<relation id="1727354">
		<member type="way" ref="127647892" role=""/>
		<member type="way" ref="507874090" role=""/>
		<member type="way" ref="130705850" role=""/>
		<member type="way" ref="42764951" role=""/>
		<member type="way" ref="152813951" role="platform"/>
		<member type="way" ref="28679369" role=""/>
		<tag k="type" v="route"/>
		<tag k="ref" v="S31"/>
		<tag k="colour" v="#5D1D81"/>
		<tag k="route" v="light_rail"/>
		<tag k="from" v="Altona"/>
		<tag k="to" v="Neugraben"/>
		<tag k="public_transport:version" v="2"/>
		<tag k="name" v="S31: Altona =&#62; Neugraben"/>
	</relation>
	<relation id="1727355">
		<member type="way" ref="42712750" role=""/>
		<member type="way" ref="29180363" role=""/>
		<member type="way" ref="127647894" role=""/>
		<member type="way" ref="507874092" role=""/>
		<member type="way" ref="44329811" role=""/>
		<tag k="type" v="route"/>
		<tag k="ref" v="S31"/>
		<tag k="colour" v="#5D1D81"/>
		<tag k="route" v="light_rail"/>
		<tag k="from" v="Neugraben"/>
		<tag k="to" v="Altona"/>
		<tag k="public_transport:version" v="2"/>
		<tag k="name" v="S31: Neugraben =&#62; Altona"/>
	</relation>
	<relation id="1788865">
		<member type="way" ref="653947843" role=""/>
		<member type="way" ref="353828936" role=""/>
		<member type="way" ref="152813949" role="platform"/>
		<member type="way" ref="355432105" role=""/>
		<member type="way" ref="656092304" role=""/>
		<member type="way" ref="415383438" role=""/>
		<tag k="type" v="route"/>
		<tag k="ref" v="ICE 25"/>
		<tag k="service" v="high_speed"/>
		<tag k="route" v="train"/>
		<tag k="from" v="München Hbf"/>
		<tag k="to" v="Hamburg-Altona"/>
		<tag k="public_transport:version" v="2"/>
		<tag k="ref_trips" v="ICE 582;ICE 586;ICE 588;ICE 706;ICE 784;ICE 788;ICE 880;ICE 886;ICE 888;ICE 1180"/>
		<tag k="name" v="ICE 25: München =&#62; Ingolstadt =&#62; Hamburg-Altona"/>
	</relation>
	<relation id="1856647">
		<member type="way" ref="653947843" role=""/>
		<member type="way" ref="353828936" role=""/>
		<member type="way" ref="152813949" role="platform"/>
		<member type="way" ref="355432105" role=""/>
		<member type="way" ref="656092304" role=""/>
		<member type="way" ref="415383438" role=""/>
		<tag k="type" v="route"/>
		<tag k="ref" v="ICE 20"/>
		<tag k="fee" v="yes"/>
		<tag k="service" v="high_speed"/>
		<tag k="route" v="train"/>
		<tag k="from" v="Basel Bad Bf"/>
		<tag k="to" v="Hamburg Altona"/>
		<tag k="public_transport:version" v="2"/>
		<tag k="comment" v="hält nicht in Fulda und Hanau"/>
		<tag k="name" v="ICE 20: Basel =&#62; Frankfurt =&#62; Hamburg"/>
	</relation>
	<relation id="1926823">
		<member type="way" ref="398613056" role=""/>
		<member type="way" ref="265934253" role=""/>
		<member type="way" ref="28679357" role=""/>
		<member type="way" ref="653947834" role=""/>
		<member type="way" ref="28679287" role="platform"/>
		<tag k="type" v="route"/>
		<tag k="ref" v="ICE 28"/>
		<tag k="service" v="high_speed"/>
		<tag k="route" v="train"/>
		<tag k="from" v="München Hbf"/>
		<tag k="to" v="Hamburg Hbf"/>
		<tag k="public_transport:version" v="2"/>
		<tag k="name" v="ICE 28: München =&#62; Hamburg"/>
	</relation>
	<relation id="2035341">
		<member type="way" ref="152813970" role=""/>
		<member type="way" ref="28679287" role="platform"/>
		<tag k="type" v="route"/>
		<tag k="ref" v="RE70"/>
		<tag k="colour" v="#C10831"/>
		<tag k="route" v="train"/>
		<tag k="from" v="Hamburg Hauptbahnhof"/>
		<tag k="to" v="Kiel Hauptbahnhof"/>
		<tag k="public_transport:version" v="2"/>
		<tag k="name" v="RE70: Hamburg =&#62; Kiel"/>
	</relation>
	<relation id="2064636">
		<member type="way" ref="507874092" role=""/>
		<member type="way" ref="127647894" role=""/>
		<member type="way" ref="42712750" role=""/>
		<member type="way" ref="29180363" role=""/>
		<member type="way" ref="44329811" role=""/>
		<tag k="type" v="route"/>
		<tag k="ref" v="S21"/>
		<tag k="colour" v="#A70F47"/>
		<tag k="route" v="light_rail"/>
		<tag k="from" v="Aumühle"/>
		<tag k="to" v="Elbgaustraße"/>
		<tag k="public_transport:version" v="2"/>
		<tag k="text_colour" v="purple"/>
		<tag k="name" v="S21: Aumühle =&#62; Elbgaustraße"/>
	</relation>
	<relation id="2089730">
		<member type="way" ref="28679369" role=""/>
		<member type="way" ref="127647892" role=""/>
		<member type="way" ref="152813951" role="platform"/>
		<member type="way" ref="130705850" role=""/>
		<member type="way" ref="42764951" role=""/>
		<member type="way" ref="507874090" role=""/>
		<tag k="type" v="route"/>
		<tag k="ref" v="S21"/>
		<tag k="colour" v="#A70F47"/>
		<tag k="route" v="light_rail"/>
		<tag k="from" v="Elbgaustraße"/>
		<tag k="to" v="Aumühle"/>
		<tag k="public_transport:version" v="2"/>
		<tag k="text_colour" v="purple"/>
		<tag k="name" v="S21: Elbgaustraße =&#62; Aumühle"/>
	</relation>
	<relation id="2095512">
		<member type="way" ref="507874092" role=""/>
		<member type="way" ref="127647894" role=""/>
		<member type="way" ref="42712750" role=""/>
		<member type="way" ref="29180363" role=""/>
		<member type="way" ref="44329811" role=""/>
		<tag k="type" v="route"/>
		<tag k="ref" v="S11"/>
		<tag k="colour" v="#44A325"/>
		<tag k="route" v="light_rail"/>
		<tag k="from" v="Poppenbüttel"/>
		<tag k="to" v="Blankenese"/>
		<tag k="public_transport:version" v="2"/>
		<tag k="text_colour" v="green"/>
		<tag k="name" v="S11: Poppenbüttel =&#62; Blankenese"/>
	</relation>
	<relation id="2178679">
		<member type="way" ref="653947844" role=""/>
		<member type="way" ref="516304015" role=""/>
		<member type="way" ref="108729982" role=""/>
		<member type="way" ref="152813949" role="platform"/>
		<member type="way" ref="108729987" role=""/>
		<member type="way" ref="353729902" role=""/>
		<member type="way" ref="656092303" role=""/>
		<tag k="type" v="route"/>
		<tag k="ref" v="ICE 25"/>
		<tag k="service" v="high_speed"/>
		<tag k="route" v="train"/>
		<tag k="from" v="Hamburg-Altona"/>
		<tag k="to" v="München Hbf"/>
		<tag k="public_transport:version" v="2"/>
		<tag k="name" v="ICE 25: Hamburg-Altona =&#62; Ingolstadt =&#62; München"/>
	</relation>
	<relation id="2178680">
		<member type="way" ref="62182013" role=""/>
		<member type="way" ref="152813958" role="platform"/>
		<member type="way" ref="28679354" role=""/>
		<member type="way" ref="643685484" role=""/>
		<member type="way" ref="28679282" role=""/>
		<member type="way" ref="303082464" role=""/>
		<tag k="type" v="route"/>
		<tag k="ref" v="ICE 28"/>
		<tag k="service" v="long_distance"/>
		<tag k="route" v="train"/>
		<tag k="from" v="Hamburg Hbf"/>
		<tag k="to" v="München Hbf"/>
		<tag k="public_transport:version" v="2"/>
		<tag k="name" v="ICE 28: Hamburg =&#62; München"/>
	</relation>
	<relation id="2608999">
		<member type="way" ref="44329825" role=""/>
		<member type="way" ref="152813958" role="platform"/>
		<member type="way" ref="653947839" role=""/>
		<tag k="type" v="route"/>
		<tag k="ref" v="RE1"/>
		<tag k="colour" v="#36803D"/>
		<tag k="service" v="regional"/>
		<tag k="route" v="train"/>
		<tag k="from" v="Rostock Hauptbahnhof"/>
		<tag k="to" v="Hamburg Hauptbahnhof"/>
		<tag k="public_transport:version" v="2"/>
		<tag k="name" v="RE1: Rostock =&#62; Hamburg"/>
	</relation>
	<relation id="2947220">
		<member type="way" ref="653947843" role=""/>
		<member type="way" ref="353828936" role=""/>
		<member type="way" ref="152813949" role="platform"/>
		<member type="way" ref="355432105" role=""/>
		<member type="way" ref="656092304" role=""/>
		<member type="way" ref="415383438" role=""/>
		<tag k="type" v="route"/>
		<tag k="ref" v="IC 30"/>
		<tag k="service" v="long_distance"/>
		<tag k="route" v="train"/>
		<tag k="from" v="Westerland (Sylt)"/>
		<tag k="to" v="Stuttgart"/>
		<tag k="public_transport:version" v="2"/>
		<tag k="name" v="IC 30: Westerland (Sylt) =&#62; Stuttgart"/>
	</relation>
	<relation id="3134320">
		<member type="way" ref="653947844" role=""/>
		<member type="way" ref="516304015" role=""/>
		<member type="way" ref="108729982" role=""/>
		<member type="way" ref="152813949" role="platform"/>
		<member type="way" ref="108729987" role=""/>
		<member type="way" ref="353729902" role=""/>
		<member type="way" ref="656092303" role=""/>
		<tag k="type" v="route"/>
		<tag k="ref" v="ICE 26"/>
		<tag k="service" v="high_speed"/>
		<tag k="route" v="train"/>
		<tag k="from" v="Hamburg-Altona"/>
		<tag k="to" v="Oberstdorf"/>
		<tag k="public_transport:version" v="2"/>
		<tag k="name" v="ICE 26: Hamburg-Altona =&#62; Oberstdorf"/>
	</relation>
	<relation id="3229345">
		<member type="way" ref="516304015" role=""/>
		<member type="way" ref="653947844" role=""/>
		<member type="way" ref="108729982" role=""/>
		<member type="way" ref="152813949" role="platform"/>
		<member type="way" ref="353729902" role=""/>
		<member type="way" ref="28679361" role=""/>
		<member type="way" ref="656092303" role=""/>
		<tag k="type" v="route"/>
		<tag k="ref" v="EC 8"/>
		<tag k="fee" v="yes"/>
		<tag k="service" v="long_distance"/>
		<tag k="route" v="train"/>
		<tag k="from" v="Zürich Hauptbahnhof"/>
		<tag k="to" v="Hamburg Altona"/>
		<tag k="public_transport:version" v="2"/>
		<tag k="headway" v="1440"/>
		<tag k="name" v="EC 8: Zürich =&#62; Hamburg"/>
	</relation>
	<relation id="3310117">
		<member type="way" ref="653947844" role=""/>
		<member type="way" ref="516304015" role=""/>
		<member type="way" ref="108729982" role=""/>
		<member type="way" ref="152813949" role="platform"/>
		<member type="way" ref="108729987" role=""/>
		<member type="way" ref="353729902" role=""/>
		<member type="way" ref="656092303" role=""/>
		<tag k="type" v="route"/>
		<tag k="ref" v="EC 7"/>
		<tag k="fee" v="yes"/>
		<tag k="service" v="long_distance"/>
		<tag k="route" v="train"/>
		<tag k="from" v="Hamburg-Altona"/>
		<tag k="to" v="Interlaken Ost"/>
		<tag k="public_transport:version" v="2"/>
		<tag k="headway" v="1440"/>
		<tag k="name" v="EC 7: Hamburg =&#62; Interlaken Ost"/>
	</relation>
	<relation id="3431945">
		<member type="way" ref="653947844" role=""/>
		<member type="way" ref="516304015" role=""/>
		<member type="way" ref="108729982" role=""/>
		<member type="way" ref="152813949" role="platform"/>
		<member type="way" ref="108729987" role=""/>
		<member type="way" ref="353729902" role=""/>
		<member type="way" ref="656092303" role=""/>
		<tag k="type" v="route"/>
		<tag k="ref" v="ICE 22"/>
		<tag k="brand" v="InterCityExpress"/>
		<tag k="service" v="high_speed"/>
		<tag k="route" v="train"/>
		<tag k="from" v="Hamburg-Altona"/>
		<tag k="to" v="Stuttgart"/>
		<tag k="public_transport:version" v="2"/>
		<tag k="state" v="connection"/>
		<tag k="name" v="ICE 22: Hamburg-Altona =&#62; Stuttgart"/>
	</relation>
	<relation id="3436972">
		<member type="way" ref="653947845" role=""/>
		<member type="way" ref="152813941" role="platform"/>
		<member type="way" ref="27632886" role=""/>
		<member type="way" ref="107828140" role=""/>
		<member type="way" ref="653947842" role=""/>
		<tag k="type" v="route"/>
		<tag k="ref" v="ICE 20"/>
		<tag k="fee" v="yes"/>
		<tag k="service" v="high_speed"/>
		<tag k="route" v="train"/>
		<tag k="from" v="Interlaken Ost"/>
		<tag k="to" v="Kiel"/>
		<tag k="public_transport:version" v="2"/>
		<tag k="headway" v="120"/>
		<tag k="headway:note" v="4 Züge im 2h-Takt tagsüber, am späten Nachmittag nur noch bis Hamburg"/>
		<tag k="headway:evening" v="0"/>
		<tag k="name" v="ICE 20: Interlaken Ost =&#62; Kiel"/>
	</relation>
	<relation id="3573291">
		<member type="way" ref="107889610" role=""/>
		<member type="way" ref="398613056" role=""/>
		<member type="way" ref="28679357" role=""/>
		<member type="way" ref="28679287" role="platform"/>
		<tag k="type" v="route"/>
		<tag k="ref" v="RE80"/>
		<tag k="colour" v="#D83C96"/>
		<tag k="route" v="train"/>
		<tag k="from" v="Hamburg Hauptbahnhof"/>
		<tag k="to" v="Lübeck Hauptbahnhof"/>
		<tag k="public_transport:version" v="2"/>
		<tag k="name" v="RE80: Hamburg =&#62; Lübeck"/>
	</relation>
	<relation id="3573292">
		<member type="way" ref="398613056" role=""/>
		<member type="way" ref="265934253" role=""/>
		<member type="way" ref="28679357" role=""/>
		<member type="way" ref="28679287" role="platform"/>
		<tag k="type" v="route"/>
		<tag k="ref" v="RE80"/>
		<tag k="colour" v="#D83C96"/>
		<tag k="route" v="train"/>
		<tag k="from" v="Lübeck Hauptbahnhof"/>
		<tag k="to" v="Hamburg Hauptbahnhof"/>
		<tag k="public_transport:version" v="2"/>
		<tag k="name" v="RE80: Lübeck =&#62; Hamburg"/>
	</relation>
	<relation id="3779840">
		<member type="way" ref="135844323" role=""/>
		<member type="way" ref="62182013" role=""/>
		<member type="way" ref="152813958" role="platform"/>
		<member type="way" ref="28679354" role=""/>
		<member type="way" ref="643685484" role=""/>
		<member type="way" ref="28679282" role=""/>
		<member type="way" ref="303082464" role=""/>
		<tag k="type" v="route"/>
		<tag k="ref" v="EC 173"/>
		<tag k="colour" v="#9D9D9D"/>
		<tag k="service" v="long_distance"/>
		<tag k="route" v="train"/>
		<tag k="from" v="Hamburg-Altona"/>
		<tag k="to" v="Budapest-Keleti pu."/>
		<tag k="public_transport:version" v="2"/>
		<tag k="name" v="EC 173: Hamburg =&#62; Budapest"/>
	</relation>
	<relation id="3779841">
		<member type="way" ref="135844323" role=""/>
		<member type="way" ref="62182013" role=""/>
		<member type="way" ref="152813958" role="platform"/>
		<member type="way" ref="28679354" role=""/>
		<member type="way" ref="28679282" role=""/>
		<member type="way" ref="643685484" role=""/>
		<member type="way" ref="303082464" role=""/>
		<tag k="type" v="route"/>
		<tag k="ref" v="EC 172"/>
		<tag k="colour" v="#9D9D9D"/>
		<tag k="service" v="long_distance"/>
		<tag k="route" v="train"/>
		<tag k="from" v="Budapest-Keleti pu."/>
		<tag k="to" v="Hamburg-Altona"/>
		<tag k="public_transport:version" v="2"/>
		<tag k="name" v="EC 172: Budapest =&#62; Hamburg"/>
	</relation>
	<relation id="3898004">
		<member type="way" ref="653947843" role=""/>
		<member type="way" ref="353828936" role=""/>
		<member type="way" ref="152813949" role="platform"/>
		<member type="way" ref="355432105" role=""/>
		<member type="way" ref="656092304" role=""/>
		<member type="way" ref="415383438" role=""/>
		<tag k="type" v="route"/>
		<tag k="ref" v="EC 6"/>
		<tag k="fee" v="yes"/>
		<tag k="service" v="long_distance"/>
		<tag k="route" v="train"/>
		<tag k="from" v="Interlaken Ost"/>
		<tag k="to" v="Hamburg Altona"/>
		<tag k="public_transport:version" v="2"/>
		<tag k="headway" v="1440"/>
		<tag k="name" v="EC 6: Interlaken Ost =&#62; Hamburg"/>
	</relation>
	<relation id="4026402">
		<member type="way" ref="152813951" role="platform"/>
		<tag k="public_transport" v="stop_area"/>
		<tag k="type" v="public_transport"/>
		<tag k="railway:ref" v="AHS"/>
		<tag k="name" v="Hamburg Hauptbahnhof (S-Bahn)"/>
		<tag k="railway" v="facility"/>
	</relation>
	<relation id="4256899">
		<member type="way" ref="152813949" role="platform"/>
		<member type="way" ref="353828936" role=""/>
		<tag k="type" v="route"/>
		<tag k="ref" v="RE3"/>
		<tag k="route" v="train"/>
		<tag k="from" v="Uelzen"/>
		<tag k="to" v="Hamburg Hauptbahnhof"/>
		<tag k="public_transport:version" v="2"/>
		<tag k="name" v="RE3: Uelzen =&#62; Hamburg"/>
	</relation>
	<relation id="4425378">
		<member type="way" ref="152813949" role="platform"/>
		<member type="way" ref="353828936" role=""/>
		<tag k="type" v="route"/>
		<tag k="ref" v="RB41"/>
		<tag k="service" v="regional"/>
		<tag k="route" v="train"/>
		<tag k="from" v="Bremen Hauptbahnhof"/>
		<tag k="to" v="Hamburg Hauptbahnhof"/>
		<tag k="public_transport:version" v="2"/>
		<tag k="name" v="RB41: Bremen =&#62; Hamburg"/>
	</relation>
	<relation id="4435261">
		<member type="way" ref="152813949" role="platform_entry_only"/>
		<member type="way" ref="353828936" role=""/>
		<tag k="type" v="route"/>
		<tag k="ref" v="RE3"/>
		<tag k="route" v="train"/>
		<tag k="from" v="Hamburg Hauptbahnhof"/>
		<tag k="to" v="Uelzen"/>
		<tag k="public_transport:version" v="2"/>
		<tag k="name" v="RE3: Hamburg =&#62; Uelzen"/>
	</relation>
	<relation id="4458238">
		<member type="way" ref="653947843" role=""/>
		<member type="way" ref="353828936" role=""/>
		<member type="way" ref="152813949" role="platform"/>
		<member type="way" ref="355432105" role=""/>
		<member type="way" ref="656092304" role=""/>
		<member type="way" ref="415383438" role=""/>
		<tag k="type" v="route"/>
		<tag k="ref" v="IC 31"/>
		<tag k="service" v="long_distance"/>
		<tag k="route" v="train"/>
		<tag k="from" v="Frankfurt (Main) Hauptbahnhof"/>
		<tag k="to" v="Hamburg-Altona"/>
		<tag k="public_transport:version" v="2"/>
		<tag k="name" v="IC 31: Frankfurt =&#62; Koblenz =&#62; Hamburg"/>
	</relation>
	<relation id="4458993">
		<member type="way" ref="653947843" role=""/>
		<member type="way" ref="353828936" role=""/>
		<member type="way" ref="152813949" role="platform"/>
		<member type="way" ref="355432105" role=""/>
		<member type="way" ref="656092304" role=""/>
		<member type="way" ref="415383438" role=""/>
		<tag k="type" v="route"/>
		<tag k="ref" v="FLX 20"/>
		<tag k="colour" v="green"/>
		<tag k="service" v="long_distance"/>
		<tag k="route" v="train"/>
		<tag k="from" v="Köln"/>
		<tag k="to" v="Hamburg"/>
		<tag k="public_transport:version" v="2"/>
		<tag k="name" v="FLX 20: Köln =&#62; Hamburg"/>
	</relation>
	<relation id="4869406">
		<member type="way" ref="137538315" role="outer"/>
		<member type="way" ref="343656006" role="inner"/>
		<member type="way" ref="343201861" role="inner"/>
		<tag k="public_transport" v="platform"/>
		<tag k="type" v="multipolygon"/>
		<tag k="ref" v="1;2"/>
		<tag k="light_rail" v="yes"/>
		<tag k="railway:ref" v="1"/>
		<tag k="passenger_information_display" v="yes"/>
		<tag k="access" v="customers"/>
		<tag k="area" v="yes"/>
		<tag k="bench" v="yes"/>
		<tag k="bin" v="yes"/>
		<tag k="railway" v="platform"/>
		<tag k="level" v="-1"/>
	</relation>
	<relation id="5283182">
		<member type="way" ref="653947843" role=""/>
		<member type="way" ref="152813949" role="platform"/>
		<member type="way" ref="656092304" role=""/>
		<member type="way" ref="353828936" role=""/>
		<tag k="type" v="route"/>
		<tag k="ref" v="RB31"/>
		<tag k="route" v="train"/>
		<tag k="from" v="Lüneburg"/>
		<tag k="to" v="Hamburg Hauptbahnhof"/>
		<tag k="public_transport:version" v="2"/>
		<tag k="name" v="RB31: Lüneburg =&#62; Hamburg"/>
	</relation>
	<relation id="5283405">
		<member type="way" ref="152813949" role="platform"/>
		<member type="way" ref="353828936" role=""/>
		<tag k="type" v="route"/>
		<tag k="ref" v="RB31"/>
		<tag k="route" v="train"/>
		<tag k="from" v="Hamburg Hauptbahnhof"/>
		<tag k="to" v="Lüneburg"/>
		<tag k="public_transport:version" v="2"/>
		<tag k="name" v="RB31: Hamburg =&#62; Lüneburg"/>
	</relation>
	<relation id="5453603">
		<member type="way" ref="507874093" role=""/>
		<member type="way" ref="44329812" role=""/>
		<member type="way" ref="28680436" role=""/>
		<member type="way" ref="107828136" role=""/>
		<tag k="type" v="route"/>
		<tag k="ref" v="S2"/>
		<tag k="colour" v="#A70F47"/>
		<tag k="service" v="commuter"/>
		<tag k="route" v="light_rail"/>
		<tag k="from" v="Bergedorf"/>
		<tag k="to" v="Altona"/>
		<tag k="public_transport:version" v="2"/>
		<tag k="text_colour" v="purple"/>
		<tag k="description:de" v="verkehrt nur in der Hauptverkehrszeit"/>
		<tag k="name" v="S2: Bergedorf =&#62; Altona"/>
	</relation>
	<relation id="5454170">
		<member type="way" ref="507874093" role=""/>
		<member type="way" ref="44329812" role=""/>
		<member type="way" ref="28680436" role=""/>
		<member type="way" ref="107828136" role=""/>
		<tag k="type" v="route"/>
		<tag k="ref" v="S3"/>
		<tag k="colour" v="#5D1D81"/>
		<tag k="route" v="light_rail"/>
		<tag k="from" v="Stade"/>
		<tag k="to" v="Pinneberg"/>
		<tag k="public_transport:version" v="2"/>
		<tag k="text_colour" v="indigo"/>
		<tag k="name" v="S3: Stade =&#62; Pinneberg"/>
	</relation>
	<relation id="5454292">
		<member type="way" ref="135844323" role=""/>
		<member type="way" ref="62182013" role=""/>
		<member type="way" ref="152813958" role="platform"/>
		<member type="way" ref="28679354" role=""/>
		<member type="way" ref="28679282" role=""/>
		<member type="way" ref="643685484" role=""/>
		<member type="way" ref="303082464" role=""/>
		<tag k="type" v="route"/>
		<tag k="ref" v="EC 27"/>
		<tag k="service" v="long_distance"/>
		<tag k="route" v="train"/>
		<tag k="from" v="Decin"/>
		<tag k="to" v="Hamburg Altona"/>
		<tag k="public_transport:version" v="2"/>
		<tag k="name" v="EC 27: Decin =&#62; Dresden =&#62; Hamburg"/>
	</relation>
	<relation id="5455739">
		<member type="way" ref="135844323" role=""/>
		<member type="way" ref="62182013" role=""/>
		<member type="way" ref="152813958" role="platform"/>
		<member type="way" ref="28679354" role=""/>
		<member type="way" ref="643685484" role=""/>
		<member type="way" ref="28679282" role=""/>
		<member type="way" ref="303082464" role=""/>
		<tag k="type" v="route"/>
		<tag k="ref" v="EC 27"/>
		<tag k="service" v="international"/>
		<tag k="route" v="train"/>
		<tag k="from" v="Hamburg Altona"/>
		<tag k="to" v="Decin"/>
		<tag k="public_transport:version" v="2"/>
		<tag k="name" v="EC 27: Hamburg =&#62; Dresden =&#62; Decin"/>
	</relation>
	<relation id="5513686">
		<member type="way" ref="653947843" role=""/>
		<member type="way" ref="152813949" role="platform"/>
		<member type="way" ref="656092304" role=""/>
		<member type="way" ref="353828936" role=""/>
		<tag k="type" v="route"/>
		<tag k="ref" v="RB41"/>
		<tag k="route" v="train"/>
		<tag k="from" v="Hamburg Hauptbahnhof"/>
		<tag k="to" v="Bremen Hauptbahnhof"/>
		<tag k="public_transport:version" v="2"/>
		<tag k="name" v="RB41: Hamburg =&#62; Bremen"/>
	</relation>
	<relation id="5514741">
		<member type="way" ref="653947843" role=""/>
		<member type="way" ref="152813949" role="platform"/>
		<member type="way" ref="656092304" role=""/>
		<member type="way" ref="353828936" role=""/>
		<tag k="type" v="route"/>
		<tag k="ref" v="RE4"/>
		<tag k="service" v="regional"/>
		<tag k="route" v="train"/>
		<tag k="from" v="Bremen Hauptbahnhof"/>
		<tag k="to" v="Hamburg Hauptbahnhof"/>
		<tag k="public_transport:version" v="2"/>
		<tag k="name" v="RE4: Bremen =&#62; Hamburg"/>
	</relation>
	<relation id="5514804">
		<member type="way" ref="152813949" role="platform"/>
		<member type="way" ref="656092304" role=""/>
		<member type="way" ref="353828936" role=""/>
		<tag k="type" v="route"/>
		<tag k="ref" v="RE4"/>
		<tag k="service" v="regional"/>
		<tag k="route" v="train"/>
		<tag k="from" v="Hamburg Hauptbahnhof"/>
		<tag k="to" v="Bremen Hauptbahnhof"/>
		<tag k="public_transport:version" v="2"/>
		<tag k="name" v="RE4: Hamburg =&#62; Bremen"/>
	</relation>
	<relation id="5515482">
		<member type="way" ref="653947843" role=""/>
		<member type="way" ref="353828936" role=""/>
		<member type="way" ref="152813949" role="platform"/>
		<member type="way" ref="355432105" role=""/>
		<member type="way" ref="656092304" role=""/>
		<member type="way" ref="415383438" role=""/>
		<tag k="type" v="route"/>
		<tag k="ref" v="ICE 22"/>
		<tag k="brand" v="InterCityExpress"/>
		<tag k="service" v="high_speed"/>
		<tag k="route" v="train"/>
		<tag k="from" v="Stuttgart"/>
		<tag k="to" v="Hamburg-Altona"/>
		<tag k="public_transport:version" v="2"/>
		<tag k="name" v="ICE 22: Stuttgart =&#62; Hamburg-Altona"/>
	</relation>
	<relation id="5576544">
		<member type="way" ref="27632886" role=""/>
		<member type="way" ref="152813941" role="platform_exit_only"/>
		<tag k="type" v="route"/>
		<tag k="ref" v="RE5"/>
		<tag k="route" v="train"/>
		<tag k="from" v="Cuxhaven"/>
		<tag k="to" v="Hamburg Hauptbahnhof"/>
		<tag k="public_transport:version" v="2"/>
		<tag k="name" v="RE5: Cuxhaven =&#62; Hamburg"/>
	</relation>
	<relation id="5610366">
		<member type="way" ref="507874090" role=""/>
		<member type="way" ref="130705850" role=""/>
		<member type="way" ref="152813951" role="platform"/>
		<member type="way" ref="28679369" role=""/>
		<tag k="type" v="route"/>
		<tag k="ref" v="A1"/>
		<tag k="colour" v="#E79500"/>
		<tag k="route" v="train"/>
		<tag k="from" v="Eidelstedt"/>
		<tag k="to" v="Hauptbahnhof"/>
		<tag k="public_transport:version" v="2"/>
		<tag k="text_colour" v="orange"/>
		<tag k="name" v="A1: Eidelstedt =&#62; Hauptbahnhof"/>
	</relation>
	<relation id="5610367">
		<member type="way" ref="127647894" role=""/>
		<member type="way" ref="507874092" role=""/>
		<tag k="type" v="route"/>
		<tag k="ref" v="A1"/>
		<tag k="colour" v="#E79500"/>
		<tag k="route" v="train"/>
		<tag k="from" v="Hauptbahnhof"/>
		<tag k="to" v="Eidelstedt"/>
		<tag k="public_transport:version" v="2"/>
		<tag k="text_colour" v="orange"/>
		<tag k="name" v="A1: Hauptbahnhof =&#62; Eidelstedt"/>
	</relation>
	<relation id="5950108">
		<member type="way" ref="44329825" role=""/>
		<member type="way" ref="152813958" role="platform"/>
		<member type="way" ref="395470581" role=""/>
		<member type="way" ref="653947839" role=""/>
		<tag k="type" v="route"/>
		<tag k="ref" v="RE1"/>
		<tag k="colour" v="#36803D"/>
		<tag k="service" v="regional"/>
		<tag k="route" v="train"/>
		<tag k="from" v="Hamburg Hauptbahnhof"/>
		<tag k="to" v="Schwerin Hauptbahnhof"/>
		<tag k="public_transport:version" v="2"/>
		<tag k="name" v="RE1: Hamburg =&#62; Schwerin"/>
	</relation>
	<relation id="5950109">
		<member type="way" ref="44329825" role=""/>
		<member type="way" ref="152813958" role="platform"/>
		<member type="way" ref="395470581" role=""/>
		<member type="way" ref="653947839" role=""/>
		<tag k="type" v="route"/>
		<tag k="ref" v="RE1"/>
		<tag k="colour" v="#36803D"/>
		<tag k="service" v="regional"/>
		<tag k="route" v="train"/>
		<tag k="from" v="Schwerin Hauptbahnhof"/>
		<tag k="to" v="Hamburg Hauptbahnhof"/>
		<tag k="public_transport:version" v="2"/>
		<tag k="name" v="RE1: Schwerin =&#62; Hamburg"/>
	</relation>
	<relation id="5989413">
		<member type="way" ref="28679356" role=""/>
		<member type="way" ref="653947835" role=""/>
		<member type="way" ref="28679287" role="platform"/>
		<tag k="type" v="route"/>
		<tag k="ref" v="RE8"/>
		<tag k="colour" v="#90D7EC"/>
		<tag k="route" v="train"/>
		<tag k="from" v="Hamburg Hauptbahnhof"/>
		<tag k="to" v="Lübeck Hauptbahnhof"/>
		<tag k="public_transport:version" v="2"/>
		<tag k="name" v="RE8: Hamburg =&#62; Lübeck"/>
	</relation>
	<relation id="5989414">
		<member type="way" ref="28679356" role=""/>
		<member type="way" ref="653947835" role=""/>
		<member type="way" ref="28679287" role="platform"/>
		<tag k="type" v="route"/>
		<tag k="ref" v="RE8"/>
		<tag k="colour" v="#90D7EC"/>
		<tag k="route" v="train"/>
		<tag k="from" v="Lübeck Hauptbahnhof"/>
		<tag k="to" v="Hamburg Hauptbahnhof"/>
		<tag k="public_transport:version" v="2"/>
		<tag k="name" v="RE8: Lübeck =&#62; Hamburg"/>
	</relation>
	<relation id="6043344">
		<member type="way" ref="398613056" role=""/>
		<member type="way" ref="265934253" role=""/>
		<member type="way" ref="641940800" role=""/>
		<member type="way" ref="28679357" role=""/>
		<member type="way" ref="653947834" role=""/>
		<member type="way" ref="28679287" role="platform"/>
		<tag k="type" v="route"/>
		<tag k="ref" v="RB81"/>
		<tag k="colour" v="#6A8A22"/>
		<tag k="route" v="train"/>
		<tag k="from" v="Bad Oldesloe"/>
		<tag k="to" v="Hamburg Hauptbahnhof"/>
		<tag k="public_transport:version" v="2"/>
		<tag k="name" v="RB81: Bad Oldesloe =&#62; Hamburg"/>
	</relation>
	<relation id="6043345">
		<member type="way" ref="107889610" role=""/>
		<member type="way" ref="398613056" role=""/>
		<member type="way" ref="641940800" role=""/>
		<member type="way" ref="28679357" role=""/>
		<member type="way" ref="653947834" role=""/>
		<member type="way" ref="28679287" role="platform"/>
		<tag k="type" v="route"/>
		<tag k="ref" v="RB81"/>
		<tag k="colour" v="#6A8A22"/>
		<tag k="route" v="train"/>
		<tag k="from" v="Hamburg Hauptbahnhof"/>
		<tag k="to" v="Bad Oldesloe"/>
		<tag k="public_transport:version" v="2"/>
		<tag k="name" v="RB81: Hamburg =&#62; Bad Oldesloe"/>
	</relation>
	<relation id="6188944">
		<member type="way" ref="653947843" role=""/>
		<member type="way" ref="353828936" role=""/>
		<member type="way" ref="152813949" role="platform"/>
		<member type="way" ref="355432105" role=""/>
		<member type="way" ref="656092304" role=""/>
		<member type="way" ref="415383438" role=""/>
		<tag k="type" v="route"/>
		<tag k="ref" v="ICE 1"/>
		<tag k="alt_name" v="ICE Sprinter Hamburg - Köln"/>
		<tag k="service" v="high_speed"/>
		<tag k="route" v="train"/>
		<tag k="from" v="Hamburg-Altona"/>
		<tag k="to" v="Köln Hbf"/>
		<tag k="public_transport:version" v="2"/>
		<tag k="fixme" v="Durchfahrgleise geraten"/>
		<tag k="name" v="ICE 1: Hamburg =&#62; Köln"/>
	</relation>
	<relation id="6188945">
		<member type="way" ref="653947845" role=""/>
		<member type="way" ref="152813941" role="platform"/>
		<member type="way" ref="27632886" role=""/>
		<member type="way" ref="107828140" role=""/>
		<member type="way" ref="653947842" role=""/>
		<tag k="type" v="route"/>
		<tag k="ref" v="ICE 1"/>
		<tag k="alt_name" v="ICE Sprinter Köln - Hamburg"/>
		<tag k="service" v="high_speed"/>
		<tag k="route" v="train"/>
		<tag k="from" v="Köln Hbf"/>
		<tag k="to" v="Hamburg-Altona"/>
		<tag k="public_transport:version" v="2"/>
		<tag k="fixme" v="Durchfahrgleise geraten"/>
		<tag k="name" v="ICE 1: Köln =&#62; Hamburg"/>
	</relation>
	<relation id="6188946">
		<member type="way" ref="653947845" role=""/>
		<member type="way" ref="152813941" role="platform"/>
		<member type="way" ref="27632886" role=""/>
		<member type="way" ref="107828140" role=""/>
		<member type="way" ref="653947842" role=""/>
		<tag k="type" v="route"/>
		<tag k="ref" v="ICE 4"/>
		<tag k="alt_name" v="ICE Sprinter Frankfurt - Hamburg"/>
		<tag k="service" v="high_speed"/>
		<tag k="route" v="train"/>
		<tag k="from" v="Frankfurt (Main) Hbf"/>
		<tag k="to" v="Hamburg-Altona"/>
		<tag k="public_transport:version" v="2"/>
		<tag k="fixme" v="Nur Teilstrecke Hamburg-Harburg - Hamburg-Altona; Durchfahrgleise geraten"/>
		<tag k="name" v="ICE 4: Frankfurt =&#62; Hamburg"/>
	</relation>
	<relation id="6188947">
		<member type="way" ref="653947844" role=""/>
		<member type="way" ref="516304015" role=""/>
		<member type="way" ref="108729982" role=""/>
		<member type="way" ref="152813949" role="platform"/>
		<member type="way" ref="108729987" role=""/>
		<member type="way" ref="353729902" role=""/>
		<member type="way" ref="656092303" role=""/>
		<tag k="type" v="route"/>
		<tag k="ref" v="ICE 4"/>
		<tag k="alt_name" v="ICE Sprinter Hamburg - Frankfurt"/>
		<tag k="service" v="high_speed"/>
		<tag k="route" v="train"/>
		<tag k="from" v="Hamburg-Altona"/>
		<tag k="to" v="Frankfurt (Main) Hbf"/>
		<tag k="public_transport:version" v="2"/>
		<tag k="fixme" v="Durchfahrgleise geraten"/>
		<tag k="name" v="ICE 4: Hamburg =&#62; Frankfurt"/>
	</relation>
	<relation id="6193557">
		<member type="way" ref="516304015" role=""/>
		<member type="way" ref="653947844" role=""/>
		<member type="way" ref="108729982" role=""/>
		<member type="way" ref="152813949" role="platform"/>
		<member type="way" ref="353729902" role=""/>
		<member type="way" ref="28679361" role=""/>
		<member type="way" ref="656092303" role=""/>
		<tag k="type" v="route"/>
		<tag k="ref" v="ICE 26"/>
		<tag k="service" v="high_speed"/>
		<tag k="route" v="train"/>
		<tag k="from" v="Berchtesgaden Hbf"/>
		<tag k="to" v="Hamburg-Altona"/>
		<tag k="public_transport:version" v="2"/>
		<tag k="name" v="ICE 26: Berchtesgaden =&#62; Hamburg-Altona"/>
	</relation>
	<relation id="6193558">
		<member type="way" ref="653947844" role=""/>
		<member type="way" ref="516304015" role=""/>
		<member type="way" ref="108729982" role=""/>
		<member type="way" ref="152813949" role="platform"/>
		<member type="way" ref="108729987" role=""/>
		<member type="way" ref="353729902" role=""/>
		<member type="way" ref="656092303" role=""/>
		<tag k="type" v="route"/>
		<tag k="ref" v="ICE 26"/>
		<tag k="service" v="high_speed"/>
		<tag k="route" v="train"/>
		<tag k="from" v="Hamburg-Altona"/>
		<tag k="to" v="Berchtesgaden Hbf"/>
		<tag k="public_transport:version" v="2"/>
		<tag k="name" v="ICE 26: Hamburg-Altona =&#62; Berchtesgaden"/>
	</relation>
	<relation id="6193559">
		<member type="way" ref="516304015" role=""/>
		<member type="way" ref="653947844" role=""/>
		<member type="way" ref="108729982" role=""/>
		<member type="way" ref="152813949" role="platform"/>
		<member type="way" ref="353729902" role=""/>
		<member type="way" ref="28679361" role=""/>
		<member type="way" ref="656092303" role=""/>
		<tag k="type" v="route"/>
		<tag k="ref" v="ICE 26"/>
		<tag k="service" v="high_speed"/>
		<tag k="route" v="train"/>
		<tag k="from" v="Oberstdorf"/>
		<tag k="to" v="Hamburg-Altona"/>
		<tag k="public_transport:version" v="2"/>
		<tag k="name" v="ICE 26: Oberstdorf =&#62; Hamburg-Altona"/>
	</relation>
	<relation id="6309270">
		<member type="way" ref="653947844" role=""/>
		<member type="way" ref="516304015" role=""/>
		<member type="way" ref="108729982" role=""/>
		<member type="way" ref="152813949" role="platform"/>
		<member type="way" ref="108729987" role=""/>
		<member type="way" ref="353729902" role=""/>
		<member type="way" ref="656092303" role=""/>
		<tag k="type" v="route"/>
		<tag k="ref" v="IC 31"/>
		<tag k="service" v="long_distance"/>
		<tag k="route" v="train"/>
		<tag k="from" v="Hamburg-Altona"/>
		<tag k="to" v="Frankfurt (Main) Hauptbahnhof"/>
		<tag k="public_transport:version" v="2"/>
		<tag k="name" v="IC 31: Hamburg =&#62; Koblenz =&#62; Frankfurt (Main)"/>
	</relation>
	<relation id="6354182">
		<member type="way" ref="653947844" role=""/>
		<member type="way" ref="516304015" role=""/>
		<member type="way" ref="108729982" role=""/>
		<member type="way" ref="152813949" role="platform"/>
		<member type="way" ref="108729987" role=""/>
		<member type="way" ref="353729902" role=""/>
		<member type="way" ref="656092303" role=""/>
		<tag k="type" v="route"/>
		<tag k="ref" v="ICE 22"/>
		<tag k="brand" v="InterCityExpress"/>
		<tag k="service" v="high_speed"/>
		<tag k="route" v="train"/>
		<tag k="from" v="Kiel"/>
		<tag k="to" v="Stuttgart"/>
		<tag k="public_transport:version" v="2"/>
		<tag k="state" v="connection"/>
		<tag k="name" v="ICE 22: Kiel =&#62; Stuttgart"/>
	</relation>
	<relation id="6354183">
		<member type="way" ref="653947843" role=""/>
		<member type="way" ref="353828936" role=""/>
		<member type="way" ref="152813949" role="platform"/>
		<member type="way" ref="355432105" role=""/>
		<member type="way" ref="656092304" role=""/>
		<member type="way" ref="415383438" role=""/>
		<tag k="type" v="route"/>
		<tag k="ref" v="ICE 22"/>
		<tag k="brand" v="InterCityExpress"/>
		<tag k="service" v="high_speed"/>
		<tag k="route" v="train"/>
		<tag k="from" v="Stuttgart"/>
		<tag k="to" v="Kiel"/>
		<tag k="public_transport:version" v="2"/>
		<tag k="name" v="ICE 22: Stuttgart =&#62; Kiel"/>
	</relation>
	<relation id="6357671">
		<member type="way" ref="152813958" role="platform"/>
		<member type="way" ref="28679362" role=""/>
		<tag k="type" v="route"/>
		<tag k="ref" v="IC 76"/>
		<tag k="service" v="long_distance"/>
		<tag k="route" v="train"/>
		<tag k="from" v="Aarhus"/>
		<tag k="to" v="Hamburg"/>
		<tag k="public_transport:version" v="2"/>
		<tag k="name" v="IC 76: Aarhus =&#62; Hamburg"/>
	</relation>
	<relation id="6357672">
		<member type="way" ref="152813958" role="platform"/>
		<member type="way" ref="28679362" role=""/>
		<tag k="type" v="route"/>
		<tag k="ref" v="IC 76"/>
		<tag k="service" v="long_distance"/>
		<tag k="route" v="train"/>
		<tag k="from" v="Hamburg"/>
		<tag k="to" v="Aarhus"/>
		<tag k="public_transport:version" v="2"/>
		<tag k="name" v="IC 76: Hamburg =&#62; Aarhus"/>
	</relation>
	<relation id="6421072">
		<member type="way" ref="653947843" role=""/>
		<member type="way" ref="353828936" role=""/>
		<member type="way" ref="152813949" role="platform"/>
		<member type="way" ref="355432105" role=""/>
		<member type="way" ref="656092304" role=""/>
		<member type="way" ref="415383438" role=""/>
		<tag k="type" v="route"/>
		<tag k="ref" v="ICE 25"/>
		<tag k="service" v="high_speed"/>
		<tag k="route" v="train"/>
		<tag k="from" v="Garmisch-Partenkirchen"/>
		<tag k="to" v="Hamburg-Altona"/>
		<tag k="public_transport:version" v="2"/>
		<tag k="name" v="ICE 25: Garmisch-Partenkirchen =&#62; Hamburg-Altona"/>
	</relation>
	<relation id="6421073">
		<member type="way" ref="653947844" role=""/>
		<member type="way" ref="516304015" role=""/>
		<member type="way" ref="108729982" role=""/>
		<member type="way" ref="152813949" role="platform"/>
		<member type="way" ref="108729987" role=""/>
		<member type="way" ref="353729902" role=""/>
		<member type="way" ref="656092303" role=""/>
		<tag k="type" v="route"/>
		<tag k="ref" v="ICE 25"/>
		<tag k="service" v="high_speed"/>
		<tag k="route" v="train"/>
		<tag k="from" v="Hamburg-Altona"/>
		<tag k="to" v="Garmisch-Partenkirchen"/>
		<tag k="public_transport:version" v="2"/>
		<tag k="name" v="ICE 25: Hamburg-Altona =&#62; Garmisch-Partenkirchen"/>
	</relation>
	<relation id="6851147">
		<member type="way" ref="152813941" role="platform"/>
		<member type="way" ref="463896642" role=""/>
		<tag k="type" v="route"/>
		<tag k="ref" v="RE7"/>
		<tag k="colour" v="#EF7D00"/>
		<tag k="route" v="train"/>
		<tag k="from" v="Flensburg"/>
		<tag k="to" v="Hamburg Hauptbahnhof"/>
		<tag k="public_transport:version" v="2"/>
		<tag k="name" v="RE7: Flensburg =&#62; Hamburg"/>
	</relation>
	<relation id="6854677">
		<member type="way" ref="415383438" role=""/>
		<member type="way" ref="355432105" role=""/>
		<member type="way" ref="152813949" role="platform"/>
		<tag k="type" v="route"/>
		<tag k="ref" v="RB61"/>
		<tag k="colour" v="#164194"/>
		<tag k="route" v="train"/>
		<tag k="from" v="Itzehoe"/>
		<tag k="to" v="Hamburg Hauptbahnhof"/>
		<tag k="public_transport:version" v="2"/>
		<tag k="name" v="RB61: Itzehoe =&#62; Hamburg"/>
	</relation>
	<relation id="6854678">
		<member type="way" ref="415383438" role=""/>
		<member type="way" ref="355432105" role=""/>
		<member type="way" ref="152813949" role="platform"/>
		<tag k="type" v="route"/>
		<tag k="ref" v="RB61"/>
		<tag k="colour" v="#164194"/>
		<tag k="route" v="train"/>
		<tag k="from" v="Hamburg Hauptbahnhof"/>
		<tag k="to" v="Itzehoe"/>
		<tag k="public_transport:version" v="2"/>
		<tag k="name" v="RB61: Hamburg =&#62; Itzehoe"/>
	</relation>
	<relation id="6864466">
		<member type="way" ref="653947845" role=""/>
		<member type="way" ref="152813941" role="platform"/>
		<member type="way" ref="27632886" role=""/>
		<member type="way" ref="107828140" role=""/>
		<member type="way" ref="653947842" role=""/>
		<tag k="type" v="route"/>
		<tag k="ref" v="FLX 20"/>
		<tag k="colour" v="green"/>
		<tag k="service" v="long_distance"/>
		<tag k="route" v="train"/>
		<tag k="from" v="Hamburg-Altona"/>
		<tag k="to" v="Köln"/>
		<tag k="public_transport:version" v="2"/>
		<tag k="name" v="FLX 20: Hamburg =&#62; Köln"/>
	</relation>
	<relation id="7796960">
		<member type="way" ref="398613056" role=""/>
		<member type="way" ref="265934253" role=""/>
		<member type="way" ref="28679357" role=""/>
		<member type="way" ref="653947834" role=""/>
		<member type="way" ref="28679287" role="platform"/>
		<tag k="type" v="route"/>
		<tag k="ref" v="ICE 18"/>
		<tag k="service" v="high_speed"/>
		<tag k="route" v="train"/>
		<tag k="from" v="München Hbf"/>
		<tag k="to" v="Hamburg Hbf"/>
		<tag k="public_transport:version" v="2"/>
		<tag k="name" v="ICE 18: München =&#62; Berlin =&#62; Hamburg Hbf"/>
	</relation>
	<relation id="7796961">
		<member type="way" ref="62182013" role=""/>
		<member type="way" ref="152813958" role="platform"/>
		<member type="way" ref="28679354" role=""/>
		<member type="way" ref="643685484" role=""/>
		<member type="way" ref="28679282" role=""/>
		<member type="way" ref="303082464" role=""/>
		<tag k="type" v="route"/>
		<tag k="ref" v="ICE 18"/>
		<tag k="service" v="long_distance"/>
		<tag k="route" v="train"/>
		<tag k="from" v="Hamburg Hbf"/>
		<tag k="to" v="München Hbf"/>
		<tag k="public_transport:version" v="2"/>
		<tag k="name" v="ICE 18: Hamburg =&#62; Berlin =&#62; München"/>
	</relation>
	<relation id="7819672">
		<member type="way" ref="653947845" role=""/>
		<member type="way" ref="152813941" role="platform"/>
		<member type="way" ref="27632886" role=""/>
		<member type="way" ref="107828140" role=""/>
		<member type="way" ref="653947842" role=""/>
		<tag k="type" v="route"/>
		<tag k="ref" v="ICE 26"/>
		<tag k="service" v="high_speed"/>
		<tag k="route" v="train"/>
		<tag k="from" v="Karlsruhe"/>
		<tag k="to" v="Hamburg-Altona"/>
		<tag k="public_transport:version" v="2"/>
		<tag k="name" v="ICE 26: Karlsruhe =&#62; Hamburg-Altona"/>
	</relation>
	<relation id="8865584">
		<member type="way" ref="653947844" role=""/>
		<member type="way" ref="516304015" role=""/>
		<member type="way" ref="108729982" role=""/>
		<member type="way" ref="152813949" role="platform"/>
		<member type="way" ref="108729987" role=""/>
		<member type="way" ref="353729902" role=""/>
		<member type="way" ref="656092303" role=""/>
		<tag k="type" v="route"/>
		<tag k="ref" v="EC 9"/>
		<tag k="fee" v="yes"/>
		<tag k="service" v="long_distance"/>
		<tag k="route" v="train"/>
		<tag k="from" v="Hamburg-Altona"/>
		<tag k="to" v="Zürich Hauptbahnhof"/>
		<tag k="public_transport:version" v="2"/>
		<tag k="headway" v="1440"/>
		<tag k="name" v="EC 9: Hamburg =&#62; Zürich"/>
	</relation>
	<relation id="8865697">
		<member type="way" ref="28679356" role=""/>
		<member type="way" ref="653947835" role=""/>
		<member type="way" ref="398625583" role=""/>
		<member type="way" ref="152813970" role=""/>
		<member type="way" ref="653947840" role=""/>
		<tag k="type" v="route"/>
		<tag k="ref" v="EC 379"/>
		<tag k="service" v="long_distance"/>
		<tag k="route" v="train"/>
		<tag k="from" v="Kiel Hbf"/>
		<tag k="to" v="Praha hlavní nádraží"/>
		<tag k="public_transport:version" v="2"/>
		<tag k="name" v="EC 379: Kiel =&#62; Praha"/>
	</relation>
	<relation id="8885541">
		<member type="way" ref="107889610" role=""/>
		<member type="way" ref="398613056" role=""/>
		<member type="way" ref="641940800" role=""/>
		<member type="way" ref="28679357" role=""/>
		<member type="way" ref="653947834" role=""/>
		<member type="way" ref="28679363" role=""/>
		<tag k="type" v="route"/>
		<tag k="ref" v="EC 378"/>
		<tag k="service" v="long_distance"/>
		<tag k="route" v="train"/>
		<tag k="from" v="Praha hlavní nádraží"/>
		<tag k="to" v="Kiel Hbf"/>
		<tag k="public_transport:version" v="2"/>
		<tag k="name" v="EC 378: Praha =&#62; Kiel"/>
	</relation>
	<relation id="8973440">
		<member type="way" ref="62182013" role=""/>
		<member type="way" ref="152813958" role="platform"/>
		<member type="way" ref="28679354" role=""/>
		<member type="way" ref="28679282" role=""/>
		<member type="way" ref="643685484" role=""/>
		<member type="way" ref="303082464" role=""/>
		<tag k="type" v="route"/>
		<tag k="ref" v="IC 30"/>
		<tag k="brand" v="DB InterCity"/>
		<tag k="service" v="long_distance"/>
		<tag k="route" v="train"/>
		<tag k="from" v="Fehmarn-Burg"/>
		<tag k="to" v="Hamburg Hbf"/>
		<tag k="public_transport:version" v="2"/>
		<tag k="train_numbers" v="IC 2415"/>
		<tag k="name" v="IC 30: Fehmarn-Burg =&#62; Hamburg Hbf"/>
	</relation>
	<relation id="9345802">
		<member type="way" ref="127647892" role=""/>
		<member type="way" ref="507874090" role=""/>
		<member type="way" ref="130705850" role=""/>
		<member type="way" ref="42764951" role=""/>
		<member type="way" ref="152813951" role="platform"/>
		<member type="way" ref="107828152" role=""/>
		<tag k="type" v="route"/>
		<tag k="ref" v="S3"/>
		<tag k="colour" v="#5D1D81"/>
		<tag k="route" v="train"/>
		<tag k="from" v="Elbgaustraße"/>
		<tag k="to" v="Buxtehude"/>
		<tag k="public_transport:version" v="2"/>
		<tag k="text_colour" v="indigo"/>
		<tag k="name" v="S3: Elbgaustraße =&#62; Buxtehude"/>
	</relation>
	<relation id="9345803">
		<member type="way" ref="507874093" role=""/>
		<member type="way" ref="44329812" role=""/>
		<member type="way" ref="28680436" role=""/>
		<member type="way" ref="107828136" role=""/>
		<tag k="type" v="route"/>
		<tag k="ref" v="S3"/>
		<tag k="colour" v="#5D1D81"/>
		<tag k="route" v="train"/>
		<tag k="from" v="Buxtehude"/>
		<tag k="to" v="Elbgaustraße"/>
		<tag k="public_transport:version" v="2"/>
		<tag k="text_colour" v="indigo"/>
		<tag k="name" v="S3: Buxtehude =&#62; Elbgaustraße"/>
	</relation>
	<relation id="9352029">
		<member type="way" ref="653947845" role=""/>
		<member type="way" ref="152813941" role="platform"/>
		<member type="way" ref="27632886" role=""/>
		<member type="way" ref="107828140" role=""/>
		<member type="way" ref="653947842" role=""/>
		<tag k="type" v="route"/>
		<tag k="ref" v="IC 26.1"/>
		<tag k="route" v="train"/>
		<tag k="from" v="Karlsruhe"/>
		<tag k="to" v="Westerland (Sylt)"/>
		<tag k="public_transport:version" v="2"/>
		<tag k="name" v="IC 26.1: Karlsruhe =&#62; Westerland (Sylt)"/>
	</relation>
	<relation id="9352200">
		<member type="way" ref="28679367" role=""/>
		<member type="way" ref="463896642" role=""/>
		<member type="way" ref="152813941" role="platform"/>
		<member type="way" ref="656092302" role=""/>
		<member type="way" ref="653947841" role=""/>
		<tag k="type" v="route"/>
		<tag k="ref" v="ICE 26"/>
		<tag k="service" v="high_speed"/>
		<tag k="route" v="train"/>
		<tag k="from" v="Hamburg-Altona"/>
		<tag k="to" v="Karlsruhe"/>
		<tag k="public_transport:version" v="2"/>
		<tag k="name" v="ICE 26: Hamburg-Altona =&#62; Karlsruhe"/>
	</relation>
	<relation id="9477227">
		<member type="way" ref="653947844" role=""/>
		<member type="way" ref="516304015" role=""/>
		<member type="way" ref="108729982" role=""/>
		<member type="way" ref="152813949" role="platform"/>
		<member type="way" ref="108729987" role=""/>
		<member type="way" ref="353729902" role=""/>
		<member type="way" ref="656092303" role=""/>
		<tag k="type" v="route"/>
		<tag k="ref" v="NJ 491"/>
		<tag k="brand" v="ÖBB Nightjet"/>
		<tag k="brand:wikidata" v="Q28127371"/>
		<tag k="brand:wikipedia" v="de:ÖBB Nightjet"/>
		<tag k="service" v="night;motorail"/>
		<tag k="route" v="train"/>
		<tag k="from" v="Hamburg-Altona"/>
		<tag k="to" v="Wien Hbf Autoreisezug"/>
		<tag k="public_transport:version" v="2"/>
		<tag k="name" v="NJ 491: Hamburg-Altona =&#62; Wien"/>
	</relation>
	<relation id="9477481">
		<member type="way" ref="653947844" role=""/>
		<member type="way" ref="516304015" role=""/>
		<member type="way" ref="108729982" role=""/>
		<member type="way" ref="152813949" role="platform"/>
		<member type="way" ref="108729987" role=""/>
		<member type="way" ref="353729902" role=""/>
		<member type="way" ref="656092303" role=""/>
		<tag k="type" v="route"/>
		<tag k="ref" v="NJ 40491"/>
		<tag k="brand" v="ÖBB Nightjet"/>
		<tag k="brand:wikidata" v="Q28127371"/>
		<tag k="brand:wikipedia" v="de:ÖBB Nightjet"/>
		<tag k="service" v="night;motorail"/>
		<tag k="route" v="train"/>
		<tag k="from" v="Hamburg-Altona"/>
		<tag k="to" v="Innsbruck Hbf"/>
		<tag k="public_transport:version" v="2"/>
		<tag k="name" v="NJ 40491: Hamburg-Altona =&#62; Innsbruck"/>
	</relation>
	<relation id="9491221">
		<member type="way" ref="28679367" role=""/>
		<member type="way" ref="463896642" role=""/>
		<member type="way" ref="152813941" role="platform"/>
		<member type="way" ref="656092302" role=""/>
		<member type="way" ref="653947841" role=""/>
		<tag k="type" v="route"/>
		<tag k="ref" v="IC 26.1"/>
		<tag k="route" v="train"/>
		<tag k="from" v="Westerland (Sylt)"/>
		<tag k="to" v="Karlsruhe"/>
		<tag k="public_transport:version" v="2"/>
		<tag k="name" v="IC 26.1: Westerland (Sylt) =&#62; Karlsruhe"/>
	</relation>
	<relation id="9511959">
		<member type="way" ref="653947844" role=""/>
		<member type="way" ref="516304015" role=""/>
		<member type="way" ref="108729982" role=""/>
		<member type="way" ref="152813949" role="platform"/>
		<member type="way" ref="108729987" role=""/>
		<member type="way" ref="353729902" role=""/>
		<member type="way" ref="656092303" role=""/>
		<tag k="type" v="route"/>
		<tag k="ref" v="ICE 25"/>
		<tag k="service" v="high_speed"/>
		<tag k="route" v="train"/>
		<tag k="from" v="Hamburg-Altona"/>
		<tag k="to" v="München Hbf"/>
		<tag k="public_transport:version" v="2"/>
		<tag k="ref_trips" v="ICE 587"/>
		<tag k="name" v="ICE 25: Hamburg-Altona =&#62; Augsburg =&#62; München"/>
	</relation>
	<relation id="10094455">
		<member type="way" ref="28679367" role=""/>
		<member type="way" ref="152813941" role="platform_entry_only"/>
		<member type="way" ref="656092302" role=""/>
		<member type="way" ref="653947841" role=""/>
		<tag k="type" v="route"/>
		<tag k="ref" v="RE1"/>
		<tag k="colour" v="#36803D"/>
		<tag k="service" v="regional"/>
		<tag k="route" v="train"/>
		<tag k="from" v="Hamburg Hauptbahnhof"/>
		<tag k="to" v="Büchen"/>
		<tag k="public_transport:version" v="2"/>
		<tag k="name" v="RE1: Hamburg =&#62; Büchen"/>
	</relation>
	<relation id="10249418">
		<member type="way" ref="28679367" role=""/>
		<member type="way" ref="152813941" role="platform_exit_only"/>
		<member type="way" ref="656092302" role=""/>
		<member type="way" ref="653947841" role=""/>
		<tag k="type" v="route"/>
		<tag k="ref" v="RE1"/>
		<tag k="colour" v="#36803D"/>
		<tag k="service" v="regional"/>
		<tag k="route" v="train"/>
		<tag k="from" v="Büchen"/>
		<tag k="to" v="Hamburg Hauptbahnhof"/>
		<tag k="public_transport:version" v="2"/>
		<tag k="name" v="RE1: Büchen =&#62; Hamburg"/>
	</relation>
	<relation id="10381525">
		<member type="way" ref="43178595" role="outer"/>
		<member type="way" ref="408897434" role="inner"/>
		<tag k="public_transport" v="platform"/>
		<tag k="type" v="multipolygon"/>
		<tag k="ref" v="1;2"/>
		<tag k="subway" v="yes"/>
		<tag k="passenger_information_display" v="yes"/>
		<tag k="access" v="customers"/>
		<tag k="bench" v="yes"/>
		<tag k="bin" v="yes"/>
		<tag k="railway" v="platform"/>
		<tag k="level" v="-2"/>
	</relation>
</osm>
