[{"name": "Дражањ-Шепшин", "name:sr": "Дражањ-Шепшин", "name:sr-Latn": "Dražanj-Šepšin", "longitude": 44.5711298, "latitude": 20.6890167}, {"name": "Рипањ", "name:sr": "Рипањ", "name:sr-Latn": "Ripanj", "longitude": 44.6623345, "latitude": 20.5069485}, {"name": "Zlatica", "name:sr": "Златица", "longitude": 42.469043, "latitude": 19.2954508}, {"name": "Врбас", "name:sr": "Врбас", "name:sr-Latn": "Vrbas", "longitude": 45.5734156, "latitude": 19.6233725}, {"name": "Podgorica", "name:sr": "Подгорица", "name:sr-Latn": "Podgorica", "longitude": 42.4320076, "latitude": 19.2694151}, {"name": "Сомбор", "name:hu": "Zombor", "name:sr": "Сомбор", "name:sr-Latn": "Sombor", "longitude": 45.7859981, "latitude": 19.1140701}, {"name": "Буковачки салаши", "name:hu": "Bükkszállás", "name:sr": "Буковачки салаши", "name:sr-Latn": "Bukovački salaši", "longitude": 45.7405531, "latitude": 19.0735172}, {"name": "Пригревица", "name:hu": "Bácsszentiván;Priglevicza-Szt.-Iván", "name:sr": "Пригревица", "name:sr-Latn": "Prigrevica", "longitude": 45.6758755, "latitude": 19.0973335}, {"name": "Чонопља", "name:de": "Tschonopel", "name:en": "Conoplja", "name:hr": "Čonoplja", "name:hu": "Csonoplya", "name:sr": "Чонопља", "name:sr-Latn": "Čonoplja", "longitude": 45.7977291, "latitude": 19.2480173}, {"name": "Сивац", "name:hu": "Szivác", "name:sr": "Сивац", "name:sr-Latn": "Sivac", "longitude": 45.6931334, "latitude": 19.3779905}, {"name": "Кула", "name:en": "Kula", "name:hu": "Kula", "name:sr": "Кула", "name:sr-Latn": "Kula", "longitude": 45.6044465, "latitude": 19.5152263}, {"name": "Бајмок", "name:en": "Bajmok", "name:hu": "Bajmok", "name:sr": "Бајмок", "name:sr-Latn": "Bajmok", "longitude": 45.9768382, "latitude": 19.4130931}, {"name": "Ратково", "name:hu": "Paripás", "name:sr": "Ратково", "name:sr-Latn": "Ratkovo", "longitude": 45.4481747, "latitude": 19.326947}, {"name": "Параге", "name:sr": "Параге", "name:sr-Latn": "Parage", "longitude": 45.4081196, "latitude": 19.3828387}, {"name": "Гајдобра", "name:hu": "Szépliget", "name:sr": "Гајдобра", "name:sr-Latn": "Gajdobra", "longitude": 45.3565232, "latitude": 19.456257}, {"name": "Бачки Маглић", "name:sr": "Бачки Маглић", "name:sr-Latn": "Bački Maglić", "longitude": 45.3517035, "latitude": 19.5364535}, {"name": "Футог", "name:hu": "Futak", "name:sr": "Футог", "name:sr-Latn": "Futog", "longitude": 45.2547257, "latitude": 19.7008112}, {"name": "Сонта", "name:sr": "Сонта", "name:sr-Latn": "Sonta", "longitude": 45.5994517, "latitude": 19.1106131}, {"name": "Богојево", "name:hu": "Gombos", "name:sr": "Богојево", "name:sr-Latn": "Bogojevo", "longitude": 45.5447549, "latitude": 19.1038981}, {"name": "Богојево Село", "name:hu": "Gombos falu", "name:sr": "Богојево Село", "name:sr-Latn": "Bogojevo Selo", "longitude": 45.5328745, "latitude": 19.1379638}, {"name": "Каравуково", "name:hu": "Bácsordas", "name:sr": "Каравуково", "name:sr-Latn": "Karavukovo", "longitude": 45.5017762, "latitude": 19.2084892}, {"name": "Оџаци Калварија", "name:hu": "Hódság-Kálvária", "name:sr": "Оџаци Калварија", "name:sr-Latn": "Odžaci Kalvarija", "longitude": 45.5106746, "latitude": 19.2551256}, {"name": "Žari", "longitude": 42.9850094, "latitude": 19.617934}, {"name": "Пријепоље", "name:de": "Prijepolje", "name:en": "Prijepolje", "name:sr": "Пријепоље", "name:sr-Latn": "Prijepolje", "longitude": 43.392852, "latitude": 19.6399692}, {"name": "Прибој", "name:sr": "Прибој", "name:sr-Latn": "Priboj", "longitude": 43.5818528, "latitude": 19.5249314}, {"name": "Барајево центар", "name:sr": "Барајево Центар", "name:sr-Latn": "Barajevo Centar", "longitude": 44.5772798, "latitude": 20.4121206}, {"name": "Вреоци", "name:en": "Vreoci", "name:sr": "Вреоци", "name:sr-Latn": "Vreoci", "longitude": 44.4489723, "latitude": 20.2794586}, {"name": "Лазаревац", "name:en": "Lazarevac", "name:sr": "Лазаревац", "name:sr-Latn": "Lazarevac", "longitude": 44.3848662, "latitude": 20.2454598}, {"name": "Рума", "name:hu": "Ruma", "name:sr": "Рума", "name:sr-Latn": "Ruma", "longitude": 44.9893798, "latitude": 19.8269889}, {"name": "Ужице", "name:sr": "Ужице", "name:sr-Latn": "Užice", "longitude": 43.8534481, "latitude": 19.8396941}, {"name": "Бранешци", "name:sr": "Бранешци", "name:sr-Latn": "Branešci", "longitude": 43.7792339, "latitude": 19.6816796}, {"name": "Пожега", "name:en": "Pozega", "name:sr": "Пожега", "name:sr-Latn": "Požega", "longitude": 43.8403374, "latitude": 20.028855}, {"name": "Књажевац", "name:en": "Knjazevac", "name:sr": "Књажевац", "name:sr-Latn": "Knjaževac", "longitude": 43.5714176, "latitude": 22.2513857}, {"name": "Стубал", "name:en": "Stubal", "name:sr": "Стубал", "name:sr-Latn": "Stubal", "longitude": 42.6326079, "latitude": 22.0374516}, {"name": "Владичин Хан", "name:en": "Vladicin Han", "name:sr": "Владичин Хан", "name:sr-Latn": "Vladičin Han", "longitude": 42.7102375, "latitude": 22.0621597}, {"name": "Шелинце", "name:sr": "Шелинце", "name:sr-Latn": "Šelince", "longitude": 42.7337988, "latitude": 22.0591591}, {"name": "Палојска Росуља", "name:sr": "Палојска Росуља", "name:sr-Latn": "Palojska Rosulja", "longitude": 42.8606831, "latitude": 22.1196968}, {"name": "Грделица", "name:en": "Grdelica", "name:sr": "Грделица", "name:sr-Latn": "Grdelica", "longitude": 42.8955235, "latitude": 22.0572153}, {"name": "Дољевац", "name:en": "Doljevac", "name:sr": "Дољевац", "name:sr-Latn": "Doljevac", "longitude": 43.2016555, "latitude": 21.8335793}, {"name": "Белотинце", "name:sr": "Белотинце", "name:sr-Latn": "Belotince", "longitude": 43.2646506, "latitude": 21.8418449}, {"name": "Bioče", "name:sr": "Биоче", "longitude": 42.5277939, "latitude": 19.367311}, {"name": "Bratonožići", "longitude": 42.5563743, "latitude": 19.3489753}, {"name": "Lutovo", "longitude": 42.6279981, "latitude": 19.3856978}, {"name": "Mojkovac", "longitude": 42.9528609, "latitude": 19.5863282}, {"name": "Štitarička Rijeka", "longitude": 42.9289381, "latitude": 19.5723404}, {"name": "Oblutak", "longitude": 42.8636988, "latitude": 19.5360467}, {"name": "Stagovë", "longitude": 42.2753967, "latitude": 21.2456185}, {"name": "Fushlot", "longitude": 42.48122, "latitude": 21.149144}, {"name": "Miradi", "longitude": 42.6108837, "latitude": 21.0809187}, {"name": "Qarrat", "longitude": 42.6046643, "latitude": 20.7484669}, {"name": "Ujëmir", "longitude": 42.6144428, "latitude": 20.6991745}, {"name": "Grykas", "longitude": 42.6172006, "latitude": 20.7867408}, {"name": "Gurkat / Pogragja", "longitude": 42.6287284, "latitude": 20.6401825}, {"name": "Kaçanik i Vjetër", "name:sr": "Стари Качаник", "longitude": 42.3010221, "latitude": 21.2297886}, {"name": "Jarinjë", "name:sr": "Јариње", "name_full_nd:sr": "Železnička Stanica Jerina", "name_generic:sr": "Železnička Stanica", "name_sort:sr": "ZELEZNICKASTANICAJERINA", "longitude": 43.2118518, "latitude": 20.6969941}, {"name": "Мокра Гора", "name:sr": "Мокра Гора", "name:sr-Latn": "Mokra Gora", "longitude": 43.7925424, "latitude": 19.5076139}, {"name": "Божурат", "name:sr": "Божурат", "name:sr-Latn": "Božurat", "longitude": 43.1424706, "latitude": 22.5991023}, {"name": "Црквица", "name:sr": "Црквица", "name:sr-Latn": "Crkvica", "longitude": 43.2257944, "latitude": 22.3611383}, {"name": "Рударе", "name:en": "Rudare", "name:sr": "Рударе", "name:sr-Latn": "Rudare", "longitude": 43.0655468, "latitude": 21.3190869}, {"name": "Суково", "name:en": "Sukovo", "name:sr": "Суково", "name:sr-Latn": "Sukovo", "longitude": 43.0722005, "latitude": 22.6681171}, {"name": "Станичење", "name:en": "Stanicenje", "name:sr": "Станичење", "name:sr-Latn": "Staničenje", "longitude": 43.2132486, "latitude": 22.5121417}, {"name": "Црвенчево", "name:en": "Crvencevo", "name:sr": "Црвенчево", "name:sr-Latn": "Crvenčevo", "longitude": 43.2203256, "latitude": 22.4926206}, {"name": "Сопот Космајски", "name:sr": "Сопот Космајски", "name:sr-Latn": "Sopot Kosmajski", "longitude": 44.5237627, "latitude": 20.611635}, {"name": "Ковачевац", "name:sr": "Ковачевац", "name:sr-Latn": "Kovačevac", "longitude": 44.3992415, "latitude": 20.7503274}, {"name": "Рабровац", "name:sr": "Рабровац", "name:sr-Latn": "Rabrovac", "longitude": 44.3847484, "latitude": 20.7749796}, {"name": "Кусадак", "name:en": "Kusadak", "name:sr": "Кусадак", "name:sr-Latn": "Kusadak", "longitude": 44.3759908, "latitude": 20.8289016}, {"name": "Глибовац", "name:sr": "Глибовац", "name:sr-Latn": "Glibovac", "longitude": 44.368487, "latitude": 20.9052635}, {"name": "Велика Плана", "name:en": "Velika Plana", "name:sr": "Велика Плана", "name:sr-Latn": "Velika Plana", "longitude": 44.325157, "latitude": 21.0825983}, {"name": "Марковац", "name:en": "Markovac", "name:sr": "Марковац", "name:sr-Latn": "Markovac", "longitude": 44.2391251, "latitude": 21.0963972}, {"name": "Лапово Варош", "name:en": "Lapovo Varos", "name:sr": "Лапово Варош", "name:sr-Latn": "Lapovo Varoš", "longitude": 44.1865277, "latitude": 21.1025772}, {"name": "Лапово", "name:en": "Lapovo", "name:sr": "Лапово", "name:sr-Latn": "Lapovo", "longitude": 44.1577489, "latitude": 21.1022257}, {"name": "Милатовац", "name:sr": "Милатовац", "name:sr-Latn": "Milatovac", "longitude": 44.0899334, "latitude": 20.9833107}, {"name": "Бадњевац", "name:sr": "Бадњевац", "name:sr-Latn": "Badnjevac", "longitude": 44.1300281, "latitude": 20.9801588}, {"name": "Баточина", "name:sr": "Баточина", "name:sr-Latn": "Batočina", "longitude": 44.155588, "latitude": 21.0752592}, {"name": "Градац", "name:sr": "Градац", "name:sr-Latn": "Gradac", "longitude": 44.1464152, "latitude": 21.0216575}, {"name": "Јовановац", "name:sr": "Јовановац", "name:sr-Latn": "Jovanovac", "longitude": 44.0556424, "latitude": 20.9766929}, {"name": "Завод", "name:sr": "Завод", "name:sr-Latn": "Zavod", "longitude": 44.0084844, "latitude": 20.9139879}, {"name": "Грошница", "name:en": "Grosnica", "name:sr": "Грошница", "name:sr-Latn": "Grošnica", "longitude": 43.9949038, "latitude": 20.8765475}, {"name": "Драгобраћа", "name:en": "Dragobraca", "name:sr": "Драгобраћа", "name:sr-Latn": "Dragobraća", "longitude": 43.9732298, "latitude": 20.8206323}, {"name": "Кнић", "name:sr": "Кнић", "name:sr-Latn": "Knić", "longitude": 43.9329084, "latitude": 20.7485551}, {"name": "Гружа", "name:en": "Gruza", "name:sr": "Гружа", "name:sr-Latn": "Gruža", "longitude": 43.8923477, "latitude": 20.7678428}, {"name": "Губеревац", "name:sr": "Губеревац", "name:sr-Latn": "Guberevac", "longitude": 43.8387412, "latitude": 20.7738496}, {"name": "Витковац", "name:sr": "Витковац", "name:sr-Latn": "Vitkovac", "longitude": 43.7914417, "latitude": 20.7904669}, {"name": "Милавчићи", "name:sr": "Милавчићи", "name:sr-Latn": "Milavčići", "longitude": 43.760698, "latitude": 20.8055834}, {"name": "Витановац", "name:sr": "Витановац", "name:sr-Latn": "Vitanovac", "longitude": 43.7270385, "latitude": 20.8016324}, {"name": "Шумарице", "name:sr": "Шумарице", "name:sr-Latn": "Šumarice", "longitude": 43.7264159, "latitude": 20.7603541}, {"name": "Сирча", "name:sr": "Сирча", "name:sr-Latn": "Sirča", "longitude": 43.7273789, "latitude": 20.7259507}, {"name": "Краљево", "name:de": "Kraljevo", "name:en": "Kraljevo", "name:hr": "Kraljevo", "name:ru": "Кралево", "name:sl": "Kraljevo", "name:sr": "Краљево", "name:sr-Latn": "Kraljevo", "longitude": 43.72856, "latitude": 20.6934509}, {"name": "Матарушка Бања", "name:sr": "Матарушка Бања", "name:sr-Latn": "Mataruška Banja", "longitude": 43.6969848, "latitude": 20.6016322}, {"name": "Прогорелица", "name:sr": "Прогорелица", "name:sr-Latn": "Progorelica", "longitude": 43.6813495, "latitude": 20.5721815}, {"name": "Богутовачка Бања", "name:sr": "Богутовачка Бања", "name:sr-Latn": "Bogutovačka Banja", "longitude": 43.6527791, "latitude": 20.5575185}, {"name": "Полумир", "name:sr": "Полумир", "name:sr-Latn": "Polumir", "longitude": 43.5329006, "latitude": 20.6099163}, {"name": "Пусто Поље", "name:sr": "Пусто Поље", "name:sr-Latn": "Pusto Polje", "longitude": 43.4931935, "latitude": 20.6106583}, {"name": "Ушће", "name:sr": "Ушће", "name:sr-Latn": "Ušće", "longitude": 43.4654872, "latitude": 20.6243013}, {"name": "Лозно", "name:sr": "Лозно", "name:sr-Latn": "Lozno", "longitude": 43.4357983, "latitude": 20.6627275}, {"name": "Јошаничка Бања", "name:sr": "Јошаничка Бања", "name:sr-Latn": "Jošanička Banja", "longitude": 43.410719, "latitude": 20.6589489}, {"name": "Пискања", "name:sr": "Пискања", "name:sr-Latn": "Piskanja", "longitude": 43.3888535, "latitude": 20.6464813}, {"name": "Бревник", "name:sr": "Бревник", "name:sr-Latn": "Brevnik", "longitude": 43.3558684, "latitude": 20.6450854}, {"name": "Рашка", "name:en": "Raska", "name:sr": "Рашка", "name:sr-Latn": "Raška", "longitude": 43.2907918, "latitude": 20.616678}, {"name": "Казновићи", "name:sr": "Казновићи", "name:sr-Latn": "Kaznovići", "longitude": 43.2603878, "latitude": 20.662196}, {"name": "Рудница", "name:sr": "Рудница", "name:sr-Latn": "Rudnica", "longitude": 43.2374142, "latitude": 20.6808002}, {"name": "Leshak", "name:sq": "Stacioni i Trenit i Leshakut", "name:sr": "Лешак", "name:sr-Latn": "Lešak", "longitude": 43.168815, "latitude": 20.7390162}, {"name": "Plehnistë", "name:sr": "Пландиште", "name:sr-Latn": "Plandište", "longitude": 43.0148166, "latitude": 20.8166181}, {"name": "Han i Elezit", "name:sq": "Han i Elezit", "name:sr": "Ђенерал Јанковић", "name:sr-Latn": "Đeneral Janković", "longitude": 42.1494263, "latitude": 21.2941161}, {"name": "Lugdren", "longitude": 42.6308589, "latitude": 20.8258102}, {"name": "Нова Пазова", "name:en": "Nova Pazova", "name:sr": "Нова Пазова", "name:sr-Latn": "Nova Pazova", "longitude": 44.9376742, "latitude": 20.2100069}, {"name": "Смедеревска Паланка", "longitude": 44.3628409, "latitude": 20.959777}, {"name": "Земун", "name:de": "Semlin", "name:en": "Zemun", "name:hu": "Zimony", "name:sr": "Земун", "name:sr-Latn": "Zemun", "longitude": 44.8367127, "latitude": 20.3717998}, {"name": "Зајечар", "name:bg": "Зайчар", "name:de": "Zaječar", "name:en": "Zajecar", "name:ro": "Zăiceari", "name:ru": "Заечар", "name:sr": "Зајечар", "name:sr-Latn": "Zaječar", "longitude": 43.9048878, "latitude": 22.2729177}, {"name": "Неготин", "name:sr": "Неготин", "name:sr-Latn": "Negotin", "longitude": 44.2289345, "latitude": 22.5401173}, {"name": "Суботица", "name:hu": "Szabadka", "name:pl": "Subotica", "name:sr": "Суботица", "name:sr-Latn": "Subotica", "longitude": 46.1019634, "latitude": 19.6712504}, {"name": "Суботица предграђе", "name:hu": "Szabadka", "name:sr": "Суботица предграђе", "name:sr-Latn": "Subotica predgrađe", "longitude": 46.1091658, "latitude": 19.6388919}, {"name": "Палић", "name:hu": "Palics", "name:sr": "Палић", "name:sr-Latn": "Palić", "longitude": 46.1034122, "latitude": 19.7605979}, {"name": "Сента", "name:hu": "Zenta", "name:sr": "Сента", "name:sr-Latn": "Senta", "longitude": 45.9296815, "latitude": 20.071685}, {"name": "Шабац", "name:de": "Šabac", "name:en": "Sabac", "name:hr": "Šabac", "name:hu": "Szabács", "name:ru": "Шабац", "name:sl": "Šabac", "name:sr": "Шабац", "name:sr-Latn": "Šabac", "longitude": 44.7589136, "latitude": 19.7014928}, {"name": "Крушевац", "name:de": "Kruschewatz", "name:en": "Kruševac", "name:sr": "Крушевац", "name:sr-Latn": "Kruševac", "longitude": 43.5875493, "latitude": 21.3274127}, {"name": "Прешево", "name:en": "Presevo", "name:sq": "Presheva", "name:sr": "Прешево", "name:sr-Latn": "Preševo", "longitude": 42.3005437, "latitude": 21.6846454}, {"name": "Нишка Бања", "name:en": "Niska Banja", "name:sr": "Нишка Бања", "name:sr-Latn": "Niška Banja", "longitude": 43.3005042, "latitude": 22.0040157}, {"name": "Брезоник", "name:sr": "Брезоник", "name:sr-Latn": "Brezonik", "longitude": 44.1011608, "latitude": 22.0793408}, {"name": "Бачка Топола", "name:en": "Backa Topola", "name:hu": "Topolya", "name:sr": "Бачка Топола", "name:sr-Latn": "Bačka Topola", "longitude": 45.8179729, "latitude": 19.6496424}, {"name": "Лесковац", "name:en": "Leskovac", "name:sr": "Лесковац", "name:sr-Latn": "Leskovac", "longitude": 42.9964485, "latitude": 21.9574836}, {"name": "Жедник", "name:sr": "Жедник", "name:sr-Latn": "Žednik", "longitude": 45.9398703, "latitude": 19.6683235}, {"name": "Селеуш", "longitude": 45.1300119, "latitude": 20.9193579}, {"name": "Дреновачки Кик", "name:sr": "Дреновачки Кик", "name:sr-Latn": "Drenovački Kik", "longitude": 44.088042, "latitude": 19.8860018}, {"name": "Црвенка", "name:hu": "Cservenka", "name:sr": "Црвенка", "name:sr-Latn": "Crvenka", "longitude": 45.650935, "latitude": 19.4517124}, {"name": "Lješnica", "longitude": 43.0374418, "latitude": 19.7460738}, {"name": "Бистрица на Лиму", "name:sr": "Бистрица на Лиму", "name:sr-Latn": "Bistrica na Limu", "longitude": 43.4832109, "latitude": 19.646331}, {"name": "Предејане", "name:en": "Predejane", "name:sr": "Предејане", "name:sr-Latn": "Predejane", "longitude": 42.8295859, "latitude": 22.129289}, {"name": "Голубићи", "name:sr": "Голубићи", "name:sr-Latn": "Golubići", "longitude": 43.7972375, "latitude": 19.5211245}, {"name": "Јатаре", "name:sr": "Јатаре", "name:sr-Latn": "Jatare", "longitude": 43.8027519, "latitude": 19.5181219}, {"name": "Шарган Витаси", "name:sr": "Шарган Витаси", "name:sr-Latn": "Šargan Vitasi", "longitude": 43.8298885, "latitude": 19.5421702}, {"name": "Вељково", "name:sr": "Вељково", "name:sr-Latn": "Veljkovo", "longitude": 44.1284246, "latitude": 22.6041187}, {"name": "Добре стране", "name:sr": "Добре стране", "name:sr-Latn": "Dobre strane", "longitude": 43.5948737, "latitude": 20.5711666}, {"name": "Рвати", "name:sr": "Рвати", "name:sr-Latn": "Rvati", "longitude": 43.3266924, "latitude": 20.63706}, {"name": "Кљајићево", "name:hu": "Kerény", "name:sr": "Кљајићево", "name:sr-Latn": "Kljajićevo", "longitude": 45.765441, "latitude": 19.2731237}, {"alt_name:de": "Syrmisch-Karlowitz", "name": "Сремски Карловци", "name:de": "Karlowitz", "name:en": "Sremski Karlovci", "name:hu": "Karlóca", "name:sr": "Сремски Карловци", "name:sr-Latn": "Sremski Karlovci", "longitude": 45.2077859, "latitude": 19.9298943}, {"name": "Уљма", "name:sr": "Уљма", "name:sr-Latn": "Uljma", "longitude": 45.0511059, "latitude": 21.1555459}, {"name": "Путинци", "name:sr": "Путинци", "name:sr-Latn": "Putinci", "longitude": 44.980638, "latitude": 19.9663189}, {"name": "Вогањ", "name:sr": "Вогањ", "name:sr-Latn": "Voganj", "longitude": 44.9884584, "latitude": 19.7183936}, {"name": "Шид", "name:bs": "Šid", "name:de": "Schid", "name:en": "Šid", "name:hu": "Sid", "name:ru": "Шид", "name:sr": "Шид", "name:sr-Latn": "Šid", "longitude": 45.1175081, "latitude": 19.2216703}, {"name": "Степановићево", "name:sr": "Степановићево", "name:sr-Latn": "Stepanovićevo", "longitude": 45.414773, "latitude": 19.7012868}, {"name": "Змајево", "name:en": "Zmajevo", "name:sr": "Змајево", "name:sr-Latn": "Zmajevo", "longitude": 45.4599482, "latitude": 19.673566}, {"name": "Панчево Војловица", "name:sr": "Панчево Војловица", "name:sr-Latn": "Pančevo Vojlovica", "longitude": 44.8592465, "latitude": 20.6555222}, {"name": "Кикинда", "name:de": "Großkikinda", "name:en": "Kikinda", "name:hu": "Nagykikinda", "name:ro": "Chichinda Mare", "name:ru": "Кикинда", "name:sk": "Kikinda", "name:sr": "Кикинда", "name:sr-Latn": "Kikinda", "longitude": 45.8379255, "latitude": 20.4887835}, {"name": "Рибари", "name:sr": "Рибари", "name:sr-Latn": "Ribari", "longitude": 44.7165271, "latitude": 19.4207474}, {"name": "Врбница", "name:de": "Vrbnica", "name:fr": "Vrbnica", "name:sr": "Врбница", "name:sr-Latn": "Vrbnica", "longitude": 43.1550654, "latitude": 19.7812415}, {"name": "Пантелеј", "name:sr-Latn": "Pantelej", "longitude": 43.340042, "latitude": 21.9158347}, {"name": "Матејевац", "name:sr": "Матејевац", "name:sr-Latn": "Matejevac", "longitude": 43.3492214, "latitude": 21.9560094}, {"name": "Грамада", "name:sr": "Грамада", "name:sr-Latn": "Gramada", "longitude": 43.3777182, "latitude": 22.0479152}, {"name": "Горње Зуниче", "name:sr": "Горње Зуниче", "name:sr-Latn": "Gornje Zuniče", "longitude": 43.6004411, "latitude": 22.2715736}, {"name": "Доње Зуниче", "name:sr": "Доње Зуниче", "name:sr-Latn": "Donje Zuniče", "longitude": 43.6241516, "latitude": 22.2738397}, {"name": "Водањ", "name:sr": "Водањ", "name:sr-Latn": "Vodanj", "longitude": 44.5906544, "latitude": 20.835393}, {"name": "Мала Плана", "name:en": "Mala Plana", "name:sr": "Мала Плана", "name:sr-Latn": "Mala Plana", "longitude": 44.3368602, "latitude": 21.0349553}, {"name": "Пријепоље теретна", "name:sr": "Пријепоље теретна", "name:sr-Latn": "Prijepolje teretna", "longitude": 43.3664514, "latitude": 19.6335099}, {"name": "Pejë", "name:en": "Pejë", "name:sr": "Пећ", "longitude": 42.6604877, "latitude": 20.3049484}, {"alt_name": "Drenica,Stanica Drenica", "name": "Drenas", "name:alt": "Železnička Stanica Drenica", "longitude": 42.6244027, "latitude": 20.8978942}, {"name": "Бачки Виногради", "name:hu": "Királyhalom", "name:sr": "Бачки Виногради", "name:sr-Latn": "Bački Vinogradi", "longitude": 46.1276843, "latitude": 19.8579773}, {"name": "Златибор", "name:sr": "Златибор", "name:sr-Latn": "Zlatibor", "longitude": 43.7350387, "latitude": 19.6144021}, {"name": "Алексинац", "name:en": "Aleksinac", "name:ru": "Алексинац", "name:sr": "Алексинац", "name:sr-Latn": "Aleksinac", "longitude": 43.5081673, "latitude": 21.6934397}, {"name": "Бујановац", "name:de": "Bujanovac", "name:en": "Bujanovac", "name:sq": "Bujanoci", "name:sr": "Бујановац", "name:sr-Latn": "Bujanovac", "longitude": 42.4396374, "latitude": 21.7583925}, {"name": "Ристовац", "name:sr": "Ристовац", "name:sr-Latn": "Ristovac", "longitude": 42.4663338, "latitude": 21.8427883}, {"name": "Врање", "name:bg": "Враня", "name:de": "Vranje", "name:el": "Βράνιε", "name:en": "Vranje", "name:gr": "Βαρανεια", "name:hr": "Vranje", "name:ru": "Вране", "name:sr": "Врање", "name:sr-Latn": "Vranje", "name:tr": "Vranya", "longitude": 42.5372678, "latitude": 21.9228433}, {"name": "Сталаћ", "name:sr": "Сталаћ", "name:sr-Latn": "Stalać", "longitude": 43.6822332, "latitude": 21.4149603}, {"name": "Трупале", "name:en": "Trupale", "name:sr": "Трупале", "name:sr-Latn": "Trupale", "longitude": 43.3575802, "latitude": 21.8190728}, {"name": "Ниш", "name:sr": "Ниш", "name:sr-Latn": "Niš", "longitude": 43.3166079, "latitude": 21.877303}, {"name": "Речица", "name:en": "Recica", "name:sr": "Речица", "name:sr-Latn": "Rečica", "longitude": 43.1938665, "latitude": 21.6941994}, {"name": "Житорађа Центар", "name:sr": "Житорађа Центар", "name:sr-Latn": "Žitorađa Centar", "longitude": 43.1893092, "latitude": 21.7130794}, {"name": "Prishtinë", "longitude": 42.658934, "latitude": 21.151067}, {"name": "Влаоле Село", "name:sr": "Влаоле Село", "name:sr-Latn": "Vlaole Selo", "longitude": 44.2705775, "latitude": 21.9807865}, {"name": "Дебели Луг", "name:en": "Debeli Lug", "name:sr": "Дебели Луг", "name:sr-Latn": "Debeli Lug", "longitude": 44.3656569, "latitude": 21.9089851}, {"name": "Мајданпек", "longitude": 44.3819166, "latitude": 21.8892784}, {"name": "Шушулајка", "name:sr": "Шушулајка", "name:sr-Latn": "Šušulajka", "longitude": 44.2153554, "latitude": 22.0202821}, {"name": "Волуја", "name:en": "Voluja", "name:sr": "Волуја", "name:sr-Latn": "Voluja", "longitude": 44.4836999, "latitude": 21.7787428}, {"name": "Печењевце", "name:en": "Pecenjevce", "name:sr": "Печењевце", "name:sr-Latn": "Pečenjevce", "longitude": 43.1001618, "latitude": 21.9324976}, {"name": "Ковиљача", "name:en": "Koviljaca", "name:sr": "Ковиљача", "name:sr-Latn": "Koviljača", "longitude": 44.5171004, "latitude": 19.1619706}, {"name": "Лозница фабрика", "name:sr": "Лозница фабрика", "name:sr-Latn": "Loznica fabrika", "longitude": 44.5300878, "latitude": 19.201691}, {"name": "Липница", "name:sr": "Липница", "name:sr-Latn": "Lipnica", "longitude": 44.57242, "latitude": 19.2704512}, {"name": "Прокупље", "name:de": "Prokuplje", "name:en": "Prokuplje", "name:sr": "Прокупље", "name:sr-Latn": "Prokuplje", "longitude": 43.2281443, "latitude": 21.592906}, {"name": "Севојно", "name:en": "Sevojno", "name:sr": "Севојно", "name:sr-Latn": "Sevojno", "longitude": 43.8377952, "latitude": 19.9044591}, {"name": "Ражана", "name:sr": "Ражана", "name:sr-Latn": "Ražana", "longitude": 44.0606429, "latitude": 19.9086884}, {"name": "Лесковице", "name:sr": "Лесковице", "name:sr-Latn": "Leskovice", "longitude": 44.1727768, "latitude": 19.867844}, {"name": "Барлово", "name:de": "Barlovo", "name:en": "Barlovo", "name:sr": "Барлово", "name:sr-Latn": "Barlovo", "longitude": 43.1743778, "latitude": 21.3500384}, {"name": "Плочник", "name:en": "Plocnik", "name:sr": "Плочник", "name:sr-Latn": "Pločnik", "longitude": 43.2071995, "latitude": 21.3628086}, {"name": "Бресничићи", "name:en": "Bresnicici", "name:sr": "Бресничићи", "name:sr-Latn": "Bresničići", "longitude": 43.2421066, "latitude": 21.4480535}, {"name": "Пепељевац", "name:en": "Pepeljevac", "name:sr": "Пепељевац", "name:sr-Latn": "Pepeljevac", "longitude": 43.1480689, "latitude": 21.3059821}, {"name": "Косаница", "name:sr": "Косаница", "name:sr-Latn": "Kosanica", "longitude": 42.9770587, "latitude": 21.2989466}, {"name": "Васиљевац стајалиште", "name:sr": "Васиљевац стајалиште", "name:sr-Latn": "Vasiljevac stajalište", "longitude": 42.9348843, "latitude": 21.2850907}, {"name": "Радаљ", "name:sr": "Радаљ", "name:sr-Latn": "Radalj", "longitude": 44.4132284, "latitude": 19.1490523}, {"name": "Зворник", "name:de": "Zvornik", "name:en": "Zvornik", "name:sr": "Зворник", "name:sr-Latn": "Zvornik", "longitude": 44.4003018, "latitude": 19.1215998}, {"name": "Доња Борина", "name:sr": "Доња Борина", "name:sr-Latn": "Donja Borina", "longitude": 44.4396261, "latitude": 19.1533612}, {"name": "Брасина", "name:en": "Brasina", "name:sr": "Брасина", "name:sr-Latn": "Brasina", "longitude": 44.4598899, "latitude": 19.14724}, {"name": "Тубићи", "name:sr": "Тубићи", "name:sr-Latn": "Tubići", "longitude": 43.9730022, "latitude": 19.9538892}, {"name": "Грејач", "name:en": "Greyach", "name:ru": "Грейач", "name:sr": "Грејач", "name:sr-Latn": "Grejač", "longitude": 43.4224386, "latitude": 21.7477976}, {"name": "Сушица", "name:en": "Susica", "name:sr": "Сушица", "name:sr-Latn": "Sušica", "longitude": 43.7886892, "latitude": 19.7529074}, {"name": "Пожаревац", "name:en": "Pozarevac", "name:sr": "Пожаревац", "name:sr-Latn": "Požarevac", "longitude": 44.6140312, "latitude": 21.1870761}, {"name": "Мала Крсна", "name:en": "Mala Krsna", "name:sr": "Мала Крсна", "name:sr-Latn": "Mala Krsna", "longitude": 44.5846832, "latitude": 21.0024483}, {"name": "Овчар Бања", "name:sr": "Овчар Бања", "name:sr-Latn": "Ovčar Banja", "longitude": 43.9034825, "latitude": 20.1927366}, {"name": "Kruševo", "longitude": 43.0023523, "latitude": 19.735084}, {"name": "Косанчић Иван", "name:sr": "Косанчић Иван", "name:sr-Latn": "Kosančić Ivan", "longitude": 42.9584006, "latitude": 21.2873039}, {"name": "Панчевачки мост", "name:sr": "Панчевачки мост", "name:sr-Latn": "Pančevački most", "longitude": 44.8200339, "latitude": 20.4903693}, {"name": "Карађорђев парк", "name:en": "Karadjordje's Park", "name:ru": "Караджорджев парк", "name:sr": "Карађорђев парк", "name:sr-Latn": "Karađorđev park", "longitude": 44.7938465, "latitude": 20.4660021}, {"name": "Нови Бечеј", "name:de": "Neu-Betsche", "name:en": "Novi Becej", "name:hu": "Törökbecse", "name:ru": "Нови Бечей", "name:sr": "Нови Бечеј", "name:sr-Latn": "Novi Bečej", "longitude": 45.6038174, "latitude": 20.1524238}, {"name": "Сараорци", "name:sr": "Сараорци", "name:sr-Latn": "Saraorci", "longitude": 44.4896291, "latitude": 21.0689258}, {"name": "Vranjina", "name:sr": "Врањина", "longitude": 42.2784658, "latitude": 19.1292583}, {"name": "Кукујевци - Ердевик", "name:en": "Kukujevci - Erdevik", "name:sr": "Кукујевци - Ердевик", "name:sr-Latn": "Kukujevci - Erdevik", "longitude": 45.0623394, "latitude": 19.3426453}, {"name": "Мартинци", "name:hu": "Szávaszentmárton", "name:sr": "Мартинци", "name:sr-Latn": "Martinci", "longitude": 45.0209702, "latitude": 19.4683088}, {"name": "Адрани", "name:sr": "Адрани", "name:sr-Latn": "Adrani", "longitude": 43.7653286, "latitude": 20.6286243}, {"name": "Адровац", "name:en": "Adrovac", "name:ru": "Адровац", "name:sr": "Адровац", "name:sr-Latn": "Adrovac", "longitude": 43.5215104, "latitude": 21.6535043}, {"name": "Алекса Шантић", "name:en": "Aleksa Santic", "name:hu": "Babapuszta", "name:sr": "Алекса Шантић", "name:sr-Latn": "Aleksa Šantić", "longitude": 45.9247571, "latitude": 19.3488783}, {"name": "Александрово предграђе", "name:sr": "Александрово предграђе", "name:sr-Latn": "Aleksandrovo predgrađe", "longitude": 46.0663635, "latitude": 19.6878986}, {"name": "Багрдан", "name:en": "Bagrdan", "name:sr": "Багрдан", "name:sr-Latn": "Bagrdan", "longitude": 44.0831647, "latitude": 21.1801143}, {"name": "Балуга", "name:sr": "Балуга", "name:sr-Latn": "Baluga", "longitude": 43.8573914, "latitude": 20.4198139}, {"name": "Кривељски мост", "name:sr": "Кривељски мост", "name:sr-Latn": "Kriveljski most", "longitude": 44.167585, "latitude": 22.0182152}, {"name": "Шебешић", "name:hu": "Sebesicspuszta", "name:sr": "Шебешић", "name:sr-Latn": "Šebešić", "longitude": 46.0846577, "latitude": 19.5889142}, {"name": "Љутово", "name:hu": "Mérges", "name:sr": "Љутово", "name:sr-Latn": "Ljutovo", "longitude": 46.0590196, "latitude": 19.5365467}, {"name": "Таванкут", "name:en": "Tavankut", "name:hu": "Tavankút", "name:sr": "Таванкут", "name:sr-Latn": "Tavankut", "longitude": 46.042579, "latitude": 19.5029825}, {"name": "Скендерево", "name:hu": "Kunbaja;Tavankúti megálló", "name:sr": "Скендерево", "name:sr-Latn": "Skenderevo", "longitude": 46.0242494, "latitude": 19.4657594}, {"name": "Светозар Милетић", "name:sr": "Светозар Милетић", "name:sr-Latn": "Svetozar Miletić", "longitude": 45.8431437, "latitude": 19.2098295}, {"name": "Габрић", "name:en": "Gabric", "name:hu": "Vörösegyháza", "name:sr": "Габрић", "name:sr-Latn": "Gabrić", "longitude": 46.0037348, "latitude": 19.7949695}, {"name": "Ором", "name:en": "Orom", "name:hu": "Orom", "name:sr": "Ором", "name:sr-Latn": "Orom", "longitude": 45.9780737, "latitude": 19.8317736}, {"name": "Долине", "name:hu": "Völgyes", "name:sr": "Долине", "name:sr-Latn": "Doline", "longitude": 45.9580986, "latitude": 19.8719864}, {"name": "Горњи Брег", "name:en": "Gornji Breg", "name:hu": "Felsőhegy", "name:sr": "Горњи Брег", "name:sr-Latn": "Gornji Breg", "longitude": 45.9321941, "latitude": 20.0158973}, {"name": "Чока", "name:en": "Coka", "name:sr": "Чока", "name:sr-Latn": "Čoka", "longitude": 45.9429697, "latitude": 20.1355286}, {"name": "Остојићево", "name:en": "Ostojicevo", "name:sr": "Остојићево", "name:sr-Latn": "Ostojićevo", "longitude": 45.8911338, "latitude": 20.15274}, {"name": "Падеј", "name:sr": "Падеј", "name:sr-Latn": "Padej", "longitude": 45.8295499, "latitude": 20.1716416}, {"name": "Бочар", "name:en": "Bocar", "name:hu": "Bocsár", "name:sr": "Бочар", "name:sr-Latn": "Bočar", "longitude": 45.7612169, "latitude": 20.2854955}, {"name": "Банатско Милошево", "name:en": "Banatsko Milosevo", "name:hu": "Karlova", "name:sr": "Банатско Милошево", "name:sr-Latn": "Banatsko Miloševo", "longitude": 45.7263452, "latitude": 20.3200029}, {"name": "Ловћенац", "name:en": "Lovcenac", "name:hu": "Szeghegy", "name:sr": "Ловћенац", "name:sr-Latn": "Lovćenac", "longitude": 45.6736016, "latitude": 19.6492488}, {"name": "Мали Иђош Поље", "name:sr": "Мали Иђош Поље", "name:sr-Latn": "Mali Iđoš Polje", "longitude": 45.7457749, "latitude": 19.6489599}, {"name": "Наумовићево", "name:en": "Naumovicevo", "name:hu": "Somsichtanya", "name:sr": "Наумовићево", "name:sr-Latn": "Naumovićevo", "longitude": 46.0235676, "latitude": 19.6811931}, {"name": "Верушић", "name:sr": "Верушић", "name:sr-Latn": "Verušić", "longitude": 45.9859631, "latitude": 19.6755394}, {"name": "Старо Трубарево", "name:sr": "Старо Трубарево", "name:sr-Latn": "Staro Trubarevo", "longitude": 43.6099731, "latitude": 21.4859458}, {"name": "Никинци", "name:sr": "Никинци", "name:sr-Latn": "Nikinci", "longitude": 44.8575835, "latitude": 19.8211957}, {"name": "Буђановци", "name:sr": "Буђановци", "name:sr-Latn": "Buđanovci", "longitude": 44.8973228, "latitude": 19.8562341}, {"name": "Платичево", "name:sr": "Платичево", "name:sr-Latn": "Platičevo", "longitude": 44.8294941, "latitude": 19.7788528}, {"name": "Банатско Ново Село", "name:en": "Banatsko Novo Selo", "name:sr": "Банатско Ново Село", "name:sr-Latn": "Banatsko Novo Selo", "longitude": 44.9763701, "latitude": 20.7856585}, {"name": "Банатски Карловац", "name:en": "Banatski Karlovac", "name:hu": "Nagykárolyfalva", "name:sr": "Банатски Карловац", "name:sr-Latn": "Banatski Karlovac", "longitude": 45.0557832, "latitude": 21.0162563}, {"name": "Николинци", "name:sr": "Николинци", "name:sr-Latn": "Nikolinci", "longitude": 45.0604904, "latitude": 21.0662095}, {"name": "Влајковац", "name:sr": "Влајковац", "name:sr-Latn": "Vlajkovac", "longitude": 45.0664852, "latitude": 21.2114653}, {"name": "Себеш", "name:sr": "Себеш", "name:sr-Latn": "Sebeš", "longitude": 44.8612511, "latitude": 20.5195171}, {"name": "Рипањ тунел", "name:sr": "Рипањ тунел", "name:sr-Latn": "Ripanj tunel", "longitude": 44.6003147, "latitude": 20.5321424}, {"name": "Раља", "name:sr": "Раља", "name:sr-Latn": "Ralja", "longitude": 44.5680929, "latitude": 20.5613006}, {"name": "Ратаре", "name:sr": "Ратаре", "name:sr-Latn": "Ratare", "longitude": 44.3680557, "latitude": 20.8665908}, {"name": "Велико Орашје", "name:sr": "Велико Орашје", "name:sr-Latn": "Veliko Orašje", "longitude": 44.3725632, "latitude": 21.078363}, {"name": "Крњево-Трновче", "name:sr": "Крњево-Трновче", "name:sr-Latn": "Krnjevo-Trnovče", "longitude": 44.410286, "latitude": 21.0727624}, {"name": "Милошевац", "name:sr": "Милошевац", "name:sr-Latn": "Miloševac", "longitude": 44.4384165, "latitude": 21.0762674}, {"name": "Лозовик-Сараорци", "name:sr": "Лозовик-Сараорци", "name:sr-Latn": "Lozovik-Saraorci", "longitude": 44.4770299, "latitude": 21.0702398}, {"name": "Лугавчина", "name:en": "Lugavcina", "name:sr": "Лугавчина", "name:sr-Latn": "Lugavčina", "longitude": 44.5205012, "latitude": 21.0633588}, {"name": "Осипаоница", "name:en": "Osipaonica", "name:sr": "Осипаоница", "name:sr-Latn": "Osipaonica", "longitude": 44.5347305, "latitude": 21.0561886}, {"name": "Скобаљ", "name:sr": "Скобаљ", "name:sr-Latn": "Skobalj", "longitude": 44.5624701, "latitude": 21.0214687}, {"name": "Враново", "name:sr": "Враново", "name:sr-Latn": "Vranovo", "longitude": 44.5975088, "latitude": 20.9885633}, {"name": "Радинац", "name:en": "Radinac", "name:sr": "Радинац", "name:sr-Latn": "Radinac", "longitude": 44.6166776, "latitude": 20.9683807}, {"name": "Годомин", "name:sr": "Годомин", "name:sr-Latn": "Godomin", "longitude": 44.6449389, "latitude": 20.952628}, {"name": "Раља Смедеревска", "name:sr": "Раља Смедеревска", "name:sr-Latn": "Ralja Smederevska", "longitude": 44.5872589, "latitude": 20.9739531}, {"name": "Колари", "name:sr": "Колари", "name:sr-Latn": "Kolari", "longitude": 44.5817088, "latitude": 20.9002178}, {"name": "Умчари", "name:sr": "Умчари", "name:sr-Latn": "Umčari", "longitude": 44.5789882, "latitude": 20.74493}, {"name": "Мали Пожаревац", "name:sr": "Мали Пожаревац", "name:sr-Latn": "Mali Požarevac", "longitude": 44.569259, "latitude": 20.6656349}, {"name": "Мала Иванча", "name:sr": "Мала Иванча", "name:sr-Latn": "Mala Ivanča", "longitude": 44.5772494, "latitude": 20.6148951}, {"name": "Липе", "name:sr": "Липе", "name:sr-Latn": "Lipe", "longitude": 44.6197358, "latitude": 20.5808268}, {"name": "Врчин", "name:sr": "Врчин", "name:sr-Latn": "Vrčin", "longitude": 44.671416, "latitude": 20.5822872}, {"name": "Бели Поток", "name:sr": "Бели Поток", "name:sr-Latn": "Beli Potok", "longitude": 44.7147297, "latitude": 20.5194912}, {"name": "Бела Река", "name:sr": "Бела Река", "name:sr-Latn": "Bela Reka", "longitude": 44.6560956, "latitude": 20.4728048}, {"name": "Велики Борак", "name:sr": "Велики Борак", "name:sr-Latn": "Veliki Borak", "longitude": 44.5403537, "latitude": 20.3779351}, {"name": "Степојевац", "name:sr": "Степојевац", "name:sr-Latn": "Stepojevac", "longitude": 44.4967343, "latitude": 20.3103624}, {"name": "Лајковац", "name:en": "Lajkovac", "name:sr": "Лајковац", "name:sr-Latn": "Lajkovac", "longitude": 44.367859, "latitude": 20.1642257}, {"name": "Словац", "name:sr": "Словац", "name:sr-Latn": "Slovac", "longitude": 44.3471782, "latitude": 20.0931827}, {"name": "Дивци", "name:sr": "Дивци", "name:sr-Latn": "Divci", "longitude": 44.3003146, "latitude": 20.0279721}, {"name": "Млађево", "name:sr": "Млађево", "name:sr-Latn": "Mlađevo", "longitude": 44.3124952, "latitude": 20.0631005}, {"name": "Иверак", "name:sr": "Иверак", "name:sr-Latn": "Iverak", "longitude": 44.2917421, "latitude": 19.9589299}, {"name": "Глумач", "name:sr": "Глумач", "name:sr-Latn": "Glumač", "longitude": 43.8778099, "latitude": 19.9995115}, {"name": "Отањ", "name:sr": "Отањ", "name:sr-Latn": "Otanj", "longitude": 43.8968754, "latitude": 19.9972439}, {"name": "Каленић", "name:sr": "Каленић", "name:sr-Latn": "Kalenić", "longitude": 43.9274747, "latitude": 19.9895379}, {"name": "Ново Село", "name:en": "Novo Selo", "name:sr": "Ново Село", "name:sr-Latn": "Novo Selo", "longitude": 44.2621002, "latitude": 21.0919118}, {"name": "Старо Село", "name:sr": "Старо Село", "name:sr-Latn": "Staro Selo", "longitude": 44.2944003, "latitude": 21.0897855}, {"name": "Лапово ранжирна", "name:sr": "Лапово ранжирна", "name:sr-Latn": "Lapovo ranžirna", "longitude": 44.1681545, "latitude": 21.0989908}, {"name": "Заблаће", "name:en": "Zablace", "name:sr": "Заблаће", "name:sr-Latn": "Zablaće", "longitude": 43.844001, "latitude": 20.4476684}, {"name": "Мрсаћ", "name:sr": "Мрсаћ", "name:sr-Latn": "Mrsać", "longitude": 43.7691678, "latitude": 20.593532}, {"name": "Самаила", "name:sr": "Самаила", "name:sr-Latn": "Samaila", "longitude": 43.7776853, "latitude": 20.5594714}, {"name": "Горичани", "name:sr": "Горичани", "name:sr-Latn": "Goričani", "longitude": 43.7957298, "latitude": 20.51457}, {"name": "Мршинци", "name:sr": "Мршинци", "name:sr-Latn": "Mršinci", "longitude": 43.8182869, "latitude": 20.4829474}, {"name": "Кукићи", "name:sr": "Кукићи", "name:sr-Latn": "Kukići", "longitude": 43.8338425, "latitude": 20.4654709}, {"name": "Пријевор", "name:sr": "Пријевор", "name:sr-Latn": "Prijevor", "longitude": 43.9086238, "latitude": 20.2822463}, {"name": "Јелен До", "name:sr": "Јелен До", "name:sr-Latn": "Jelen Do", "longitude": 43.8904124, "latitude": 20.1196034}, {"name": "Драгачево", "name:sr": "Драгачево", "name:sr-Latn": "Dragačevo", "longitude": 43.880676, "latitude": 20.1144802}, {"name": "Борачко", "name:sr": "Борачко", "name:sr-Latn": "Boračko", "longitude": 43.8483069, "latitude": 20.0693229}, {"name": "Расна", "name:sr": "Расна", "name:sr-Latn": "Rasna", "longitude": 43.8079745, "latitude": 20.0239474}, {"name": "Узићи", "name:sr": "Узићи", "name:sr-Latn": "Uzići", "longitude": 43.8121056, "latitude": 19.9806285}, {"name": "Злакуса", "name:sr": "Злакуса", "name:sr-Latn": "Zlakusa", "longitude": 43.8062362, "latitude": 19.9537944}, {"name": "Ристановића Поље", "name:sr": "Ристановића Поље", "name:sr-Latn": "Ristanovića Polje", "longitude": 43.8291245, "latitude": 19.744671}, {"name": "Трипкова", "name:sr": "Трипкова", "name:sr-Latn": "Tripkova", "longitude": 43.8072765, "latitude": 19.7420245}, {"name": "Рача", "name:sr": "Рача", "name:sr-Latn": "Rača", "longitude": 43.6202494, "latitude": 19.5009269}, {"name": "Пољице", "name:sr": "Пољице", "name:sr-Latn": "Poljice", "longitude": 43.5638743, "latitude": 19.5418847}, {"name": "Џурово", "name:sr": "Џурово", "name:sr-Latn": "Džurovo", "longitude": 43.4433486, "latitude": 19.6331742}, {"name": "Бродарево", "name:sr": "Бродарево", "name:sr-Latn": "Brodarevo", "longitude": 43.2438055, "latitude": 19.7236496}, {"name": "Брзан", "name:sr": "Брзан", "name:sr-Latn": "Brzan", "longitude": 44.1241651, "latitude": 21.1347936}, {"name": "Милошево", "name:sr": "Милошево", "name:sr-Latn": "Miloševo", "longitude": 44.1071188, "latitude": 21.1605078}, {"name": "Ланиште", "name:sr": "Ланиште", "name:sr-Latn": "Lanište", "longitude": 44.0429986, "latitude": 21.236287}, {"name": "Буковче", "name:sr": "Буковче", "name:sr-Latn": "Bukovče", "longitude": 44.0081759, "latitude": 21.2320783}, {"name": "Јагодина", "name:de": "Jagodina", "name:en": "Jagodina", "name:hr": "Jagodina", "name:sl": "Jagodina", "name:sr": "Јагодина", "name:sr-Latn": "Jagodina", "longitude": 43.9822908, "latitude": 21.2634033}, {"name": "Параћин", "name:sr": "Параћин", "name:sr-Latn": "Paraćin", "longitude": 43.8648285, "latitude": 21.3988206}, {"name": "Сикирица-Ратари", "name:sr": "Сикирица-Ратари", "name:sr-Latn": "Sikirica-Ratari", "longitude": 43.7917703, "latitude": 21.4220136}, {"name": "Дреновац", "name:en": "Drenovac", "name:sr": "Дреновац", "name:sr-Latn": "Drenovac", "longitude": 43.7642134, "latitude": 21.4279078}, {"name": "Браљина", "name:sr": "Браљина", "name:sr-Latn": "Braljina", "longitude": 43.6573632, "latitude": 21.4832712}, {"name": "Церово-Ражањ", "name:sr": "Церово-Ражањ", "name:sr-Latn": "Cerovo-Ražanj", "longitude": 43.6259142, "latitude": 21.4860676}, {"name": "Ђунис", "name:sr": "Ђунис", "name:sr-Latn": "Đunis", "longitude": 43.6049095, "latitude": 21.5132537}, {"name": "Витковац", "name:sr": "Витковац", "name:sr-Latn": "Vitkovac", "longitude": 43.5908386, "latitude": 21.5523708}, {"name": "Доњи Љубеш", "name:sr": "Доњи Љубеш", "name:sr-Latn": "Donji Ljubeš", "longitude": 43.5784656, "latitude": 21.5709456}, {"name": "Горњи Љубеш", "name:sr": "Горњи Љубеш", "name:sr-Latn": "Gornji Ljubeš", "longitude": 43.5657535, "latitude": 21.5936851}, {"name": "Корман", "name:sr": "Корман", "name:sr-Latn": "Korman", "longitude": 43.5526839, "latitude": 21.6124369}, {"name": "Трњани", "name:sr": "Трњани", "name:sr-Latn": "Trnjani", "longitude": 43.5357173, "latitude": 21.6337947}, {"name": "Нозрина", "name:en": "Nozrina", "name:ru": "Нозрина", "name:sr": "Нозрина", "name:sr-Latn": "Nozrina", "longitude": 43.4822881, "latitude": 21.7133088}, {"name": "Лужане", "name:en": "Luzhane", "name:ru": "Лужане", "name:sr": "Лужане", "name:sr-Latn": "Lužane", "longitude": 43.4716181, "latitude": 21.7203321}, {"name": "Тешица", "name:en": "Tesica", "name:ru": "Тешица", "name:sr": "Тешица", "name:sr-Latn": "Tešica", "longitude": 43.4443363, "latitude": 21.7367229}, {"name": "Суповачки мост", "name:ru": "Суповачки мост", "name:sr": "Суповачки мост", "name:sr-Latn": "Supovački most", "longitude": 43.396319, "latitude": 21.7661235}, {"name": "Мезграја", "name:en": "Mezgraya", "name:ru": "Мезграйя", "name:sr": "Мезграја", "name:sr-Latn": "Mezgraja", "longitude": 43.3926102, "latitude": 21.7796868}, {"name": "Вртиште", "name:en": "Vrtishte", "name:ru": "Вртиште", "name:sr": "Вртиште", "name:sr-Latn": "Vrtište", "longitude": 43.3751386, "latitude": 21.808518}, {"name": "Leposavić", "name:sr": "Лепосавић", "name:sr-Latn": "Leposavić", "longitude": 43.1055757, "latitude": 20.7986051}, {"name": "Sllatinë", "name:sq": "Sllatina e Ibrit", "name:sr": "Ибарска Слатина", "longitude": 43.0339726, "latitude": 20.8174395}, {"name": "Valaq", "name:sq": "Vallaq", "name:sr": "Валач", "longitude": 42.9285833, "latitude": 20.827458}, {"name": "Zvečan", "name:sq": "Zveçan", "name:sr": "Звечан", "name:sr-Latn": "Zvečan", "longitude": 42.9098995, "latitude": 20.845161}, {"name": "Хаџићево", "name:sr": "Хаџићево", "name:sr-Latn": "Hadžićevo", "longitude": 43.398072, "latitude": 22.0504174}, {"name": "Подвис", "name:sr": "Подвис", "name:sr-Latn": "Podvis", "longitude": 43.5454818, "latitude": 22.1884094}, {"name": "Ргоште", "name:en": "Rgoste", "name:sr": "Ргоште", "name:sr-Latn": "Rgošte", "longitude": 43.5511315, "latitude": 22.2082742}, {"name": "Минићево", "name:sr": "Минићево", "name:sr-Latn": "Minićevo", "longitude": 43.684035, "latitude": 22.2896741}, {"name": "Селачка Река", "name:sr": "Селачка Река", "name:sr-Latn": "Selačka Reka", "longitude": 43.7079811, "latitude": 22.3006673}, {"name": "Мали Извор", "name:sr": "Мали Извор", "name:sr-Latn": "Mali Izvor", "longitude": 43.7290685, "latitude": 22.3052835}, {"name": "Вратарница", "name:sr": "Вратарница", "name:sr-Latn": "Vratarnica", "longitude": 43.7989026, "latitude": 22.3029899}, {"name": "Грљан", "name:en": "Grljan", "name:sr": "Грљан", "name:sr-Latn": "Grljan", "longitude": 43.8558898, "latitude": 22.2901492}, {"name": "Тимок", "name:sr": "Тимок", "name:sr-Latn": "Timok", "longitude": 43.8942498, "latitude": 22.2906088}, {"name": "Вражогрнац", "name:sr": "Вражогрнац", "name:sr-Latn": "Vražogrnac", "longitude": 43.9536647, "latitude": 22.324409}, {"name": "Рготина", "name:en": "Rgotina", "name:sr": "Рготина", "name:sr-Latn": "Rgotina", "longitude": 44.0071878, "latitude": 22.2796042}, {"name": "Кривељски поток", "name:sr": "Кривељски поток", "name:sr-Latn": "Kriveljski potok", "longitude": 44.1416044, "latitude": 22.042182}, {"name": "Мали Кривељ", "name:sr": "Мали Кривељ", "name:sr-Latn": "Mali Krivelj", "longitude": 44.1185951, "latitude": 22.0641925}, {"name": "Влаоле", "name:sr": "Влаоле", "name:sr-Latn": "Vlaole", "longitude": 44.2573026, "latitude": 22.0023087}, {"name": "Церово", "name:sr": "Церово", "name:sr-Latn": "Cerovo", "longitude": 44.1874244, "latitude": 22.0156168}, {"name": "Трнавац", "name:en": "Trnovac", "name:sr": "Трнавац", "name:sr-Latn": "Trnavac", "longitude": 43.997416, "latitude": 22.3275267}, {"name": "Чокоњар", "name:en": "Cokonjar", "name:sr": "Чокоњар", "name:sr-Latn": "Čokonjar", "longitude": 44.0160363, "latitude": 22.3522799}, {"name": "Соколовица", "name:sr": "Соколовица", "name:sr-Latn": "Sokolovica", "longitude": 44.0324559, "latitude": 22.3706035}, {"name": "Табаковачка Река", "name:sr": "Табаковачка Река", "name:sr-Latn": "Tabakovačka Reka", "longitude": 44.0676059, "latitude": 22.432077}, {"name": "Брусник", "name:sr": "Брусник", "name:sr-Latn": "Brusnik", "longitude": 44.0978924, "latitude": 22.4828655}, {"name": "Тамнич", "name:en": "Tamnic", "name:sr": "Тамнич", "name:sr-Latn": "Tamnič", "longitude": 44.0866995, "latitude": 22.5112848}, {"name": "Рајац", "name:en": "Rajac", "name:sr": "Рајац", "name:sr-Latn": "Rajac", "longitude": 44.0895866, "latitude": 22.5611381}, {"name": "Рогљево", "name:en": "Rogljevo", "name:sr": "Рогљево", "name:sr-Latn": "Rogljevo", "longitude": 44.1164213, "latitude": 22.5735546}, {"name": "Прахово", "name:en": "Prahovo", "name:sr": "Прахово", "name:sr-Latn": "Prahovo", "longitude": 44.2874608, "latitude": 22.5880135}, {"name": "Прахово пристаниште", "name:sr": "Прахово пристаниште", "name:sr-Latn": "Prahovo pristanište", "longitude": 44.2911137, "latitude": 22.6081176}, {"name": "Пирот", "name:de": "Pirot", "name:en": "Pirot", "name:ru": "Пирот", "name:sr": "Пирот", "name:sr-Latn": "Pirot", "longitude": 43.1699646, "latitude": 22.5864658}, {"name": "Међурово", "name:sr": "Међурово", "name:sr-Latn": "Međurovo", "longitude": 43.3039475, "latitude": 21.8301081}, {"name": "Чапљинац", "name:sr": "Чапљинац", "name:sr-Latn": "Čapljinac", "longitude": 43.2512618, "latitude": 21.8458262}, {"name": "Малошиште", "name:sr": "Малошиште", "name:sr-Latn": "Malošište", "longitude": 43.2375759, "latitude": 21.849091}, {"name": "Шајиновац", "name:sr": "Шајиновац", "name:sr-Latn": "Šajinovac", "longitude": 43.187806, "latitude": 21.8028825}, {"name": "Топлички Бадњевац", "name:sr": "Топлички Бадњевац", "name:sr-Latn": "Toplički Badnjevac", "longitude": 43.1836607, "latitude": 21.786639}, {"name": "Јасеница", "name:sr": "Јасеница", "name:sr-Latn": "Jasenica", "longitude": 43.1811037, "latitude": 21.7651974}, {"name": "Лукомир", "name:en": "Lukomir", "name:sr": "Лукомир", "name:sr-Latn": "Lukomir", "longitude": 43.2034128, "latitude": 21.672086}, {"name": "Подина", "name:en": "Podina", "name:sr": "Подина", "name:sr-Latn": "Podina", "longitude": 43.212476, "latitude": 21.6602493}, {"name": "Топличка Мала Плана", "name:sr": "Топличка Мала Плана", "name:sr-Latn": "Toplička Mala Plana", "longitude": 43.2399501, "latitude": 21.4809761}, {"name": "Белољин", "name:en": "Beloljin", "name:sr": "Белољин", "name:sr-Latn": "Beloljin", "longitude": 43.2296384, "latitude": 21.4112227}, {"name": "Кочане", "name:sr": "Кочане", "name:sr-Latn": "Kočane", "longitude": 43.1862031, "latitude": 21.8404379}, {"name": "Пуковац", "name:en": "Pukovac", "name:sr": "Пуковац", "name:sr-Latn": "Pukovac", "longitude": 43.1660143, "latitude": 21.8558592}, {"name": "Липовица", "name:sr": "Липовица", "name:sr-Latn": "Lipovica", "longitude": 43.1310378, "latitude": 21.8940461}, {"name": "Брестовац", "name:sr": "Брестовац", "name:sr-Latn": "Brestovac", "longitude": 43.1513245, "latitude": 21.871906}, {"name": "Прибој Лесковачки", "name:sr": "Прибој Лесковачки", "name:sr-Latn": "Priboj Leskovački", "longitude": 43.057347, "latitude": 21.93924}, {"name": "Живково", "name:en": "Zivkovo", "name:sr": "Живково", "name:sr-Latn": "Živkovo", "longitude": 43.0717962, "latitude": 21.940753}, {"name": "Винарци", "name:sr": "Винарци", "name:sr-Latn": "Vinarci", "longitude": 43.0436025, "latitude": 21.9377879}, {"name": "Џеп", "name:en": "Dzep", "name:sr": "Џеп", "name:sr-Latn": "Džep", "longitude": 42.77982, "latitude": 22.0935531}, {"name": "Момин камен", "name:sr": "Момин камен", "name:sr-Latn": "Momin kamen", "longitude": 42.7528768, "latitude": 22.0827735}, {"name": "Лепенички мост", "name:sr": "Лепенички мост", "name:sr-Latn": "Lepenički most", "longitude": 42.6565254, "latitude": 22.0460093}, {"name": "Прибој Врањски", "name:sr": "Прибој Врањски", "name:sr-Latn": "Priboj Vranjski", "longitude": 42.6145693, "latitude": 22.022632}, {"name": "Šušanj", "name:sr": "Шушањ", "longitude": 42.1104273, "latitude": 19.1000162}, {"name": "Crmnica", "longitude": 42.2108109, "latitude": 19.0750204}, {"name": "Zeta", "longitude": 42.2956575, "latitude": 19.1586691}, {"name": "Golubovci", "name:sr": "Голубовци", "longitude": 42.3436453, "latitude": 19.2182648}, {"name": "Morača", "longitude": 42.3155645, "latitude": 19.2067082}, {"alt_name": "Trebješica", "name": "Trebešica", "longitude": 42.6859459, "latitude": 19.4755144}, {"name": "Kruševački Potok", "longitude": 42.6637172, "latitude": 19.4141793}, {"name": "Kos", "longitude": 42.7422532, "latitude": 19.4962108}, {"name": "Selište", "longitude": 42.7261478, "latitude": 19.484473}, {"name": "Mijatovo Kolo", "longitude": 42.9844308, "latitude": 19.6524737}, {"name": "Ravna Rijeka", "longitude": 42.9870117, "latitude": 19.7101545}, {"name": "Ostrog", "longitude": 42.6539263, "latitude": 19.0306505}, {"name": "Bardh", "longitude": 42.629992, "latitude": 21.0232709}, {"name": "Mjekaj", "longitude": 42.6747291, "latitude": 20.9697497}, {"name": "Damanek", "name:sr": "Доманек", "longitude": 42.6175666, "latitude": 20.85534}, {"name": "Aqarevë", "name:sr": "Алурај", "longitude": 42.6292169, "latitude": 20.7167103}, {"name": "Klinë", "longitude": 42.6236507, "latitude": 20.5838141}, {"name": "Budisalc", "longitude": 42.6679614, "latitude": 20.493858}, {"name": "Shëngjergj", "longitude": 42.6379273, "latitude": 20.5338714}, {"name": "Arbanë", "longitude": 42.6602604, "latitude": 20.4200727}, {"name": "Ђорђево", "name:en": "Djordjevo", "name:sr": "Ђорђево", "name:sr-Latn": "Đorđevo", "longitude": 42.9347612, "latitude": 22.0127932}, {"name": "Кисач", "name:sr": "Кисач", "name:sr-Latn": "Kisač", "longitude": 45.3591919, "latitude": 19.7338946}, {"name": "Зуце", "name:sr": "Зуце", "name:sr-Latn": "Zuce", "longitude": 44.7052835, "latitude": 20.5644298}, {"name": "Јабланица", "name:sr": "Јабланица", "name:sr-Latn": "Jablanica", "longitude": 43.7009213, "latitude": 19.5204246}, {"name": "Томинац стајалиште", "name:en": "Tominac halt", "name:sr": "Томинац стајалиште", "name:sr-Latn": "Tominac stajalište", "longitude": 43.6517442, "latitude": 20.8812882}, {"name": "Рибница Златиборска", "name:sr": "Рибница Златиборска", "name:sr-Latn": "Ribnica Zlatiborska", "longitude": 43.7079921, "latitude": 19.5733908}, {"name": "Стапари", "name:sr": "Стапари", "name:sr-Latn": "Stapari", "longitude": 43.8456908, "latitude": 19.76231}, {"name": "Ljubičevski most", "longitude": 44.5871017, "latitude": 21.1322064}, {"name": "Spuž", "longitude": 42.5133054, "latitude": 19.2011835}, {"name": "Danilovgrad", "name:lt": "Danilovgradas", "name:sr": "Даниловград", "longitude": 42.5591576, "latitude": 19.1136307}, {"name": "Ћеле кула", "name:sr": "Ћеле кула", "name:sr-Latn": "Ćele kula", "longitude": 43.3082766, "latitude": 21.9430349}, {"name": "Просек", "name:en": "Prosek", "name:sr": "Просек", "name:sr-Latn": "Prosek", "longitude": 43.3125286, "latitude": 22.0516007}, {"name": "Сићево", "name:en": "Sicevo", "name:sr": "Сићево", "name:sr-Latn": "Sićevo", "longitude": 43.3288986, "latitude": 22.0624088}, {"name": "Островица", "name:en": "Ostrovica", "name:sr": "Островица", "name:sr-Latn": "Ostrovica", "longitude": 43.3331536, "latitude": 22.1183385}, {"name": "Мајдан Островица", "name:sr": "Мајдан Островица", "name:sr-Latn": "Majdan Ostrovica", "longitude": 43.3347464, "latitude": 22.1326517}, {"name": "Срећковац", "name:en": "Sreckovac", "name:sr": "Срећковац", "name:sr-Latn": "Srećkovac", "longitude": 43.0311403, "latitude": 22.721114}, {"name": "Чиниглавци", "name:en": "Ciniglavci", "name:nl": "Ciniglavci", "name:sr": "Чиниглавци", "name:sr-Latn": "Činiglavci", "name:tr": "Çiniglavci", "longitude": 43.0455288, "latitude": 22.7045485}, {"name": "Велики Јовановац", "name:sr": "Велики Јовановац", "name:sr-Latn": "Veliki Jovanovac", "longitude": 43.1042548, "latitude": 22.6346487}, {"name": "Сињац", "name:en": "Sinjac", "name:sr": "Сињац", "name:sr-Latn": "Sinjac", "longitude": 43.2285973, "latitude": 22.4361413}, {"name": "Чифлик", "name:en": "Ciflik", "name:sr": "Чифлик", "name:sr-Latn": "Čiflik", "longitude": 43.2257916, "latitude": 22.4093683}, {"name": "Белановац", "name:sr": "Белановац", "name:sr-Latn": "Belanovac", "longitude": 43.2437232, "latitude": 22.2657706}, {"name": "Црвена Река", "name:sr": "Црвена Река", "name:sr-Latn": "Crvena Reka", "longitude": 43.267642, "latitude": 22.2467822}, {"name": "Црвени Брег", "name:sr": "Црвени Брег", "name:sr-Latn": "Crveni Breg", "longitude": 43.2784829, "latitude": 22.2264499}, {"name": "Долац", "name:en": "Dolac", "name:sr": "Долац", "name:sr-Latn": "Dolac", "longitude": 43.2958605, "latitude": 22.2072103}, {"name": "Врњачка Бања", "name:en": "Vrnjačka Banja", "name:sr": "Врњачка Бања", "name:sr-Latn": "Vrnjačka Banja", "longitude": 43.6390228, "latitude": 20.9259921}, {"name": "Кошеви", "name:en": "Kosevi", "name:sr": "Кошеви", "name:sr-Latn": "Koševi", "longitude": 43.585452, "latitude": 21.2473634}, {"name": "Pridvoricë", "name:sr": "Придворица", "name:sr-Latn": "Pridvorica", "longitude": 43.0629036, "latitude": 20.8039408}, {"name": "Pričelje", "longitude": 42.5039966, "latitude": 19.2232553}, {"name": "Ljutotuk", "longitude": 42.550492, "latitude": 19.1582872}, {"name": "Slap", "longitude": 42.6043835, "latitude": 19.0888658}, {"alt_name": "Bare Šumanovića", "name": "Šumanovića Bare", "longitude": 42.6193055, "latitude": 19.0780664}, {"name": "Šobajići", "longitude": 42.6326134, "latitude": 19.0615491}, {"name": "Dabovići", "name:en": "Dabovichi", "name:ru": "Дабовичи", "longitude": 42.6758982, "latitude": 19.0169594}, {"name": "Stubica", "longitude": 42.7042569, "latitude": 18.971023}, {"name": "Косаничка Рача", "name:sr": "Косаничка Рача", "name:sr-Latn": "Kosanička Rača", "longitude": 43.0048317, "latitude": 21.3194402}, {"name": "Дешишка", "name:sr": "Дешишка", "name:sr-Latn": "Dešiška", "longitude": 43.0260916, "latitude": 21.3150824}, {"name": "Љуша", "name:en": "Ljusa", "name:sr": "Љуша", "name:sr-Latn": "Ljuša", "longitude": 43.0808313, "latitude": 21.3093469}, {"name": "Висока", "name:sr": "Висока", "name:sr-Latn": "Visoka", "longitude": 43.093623, "latitude": 21.3092913}, {"name": "Лазарево", "name:en": "Lazarevo", "name:sr": "Лазарево", "name:sr-Latn": "Lazarevo", "longitude": 45.3800997, "latitude": 20.5405501}, {"name": "Dritan", "longitude": 42.6678072, "latitude": 20.9431544}, {"name": "Ferizaj", "name:de": "Ferizaj", "name:en": "Ferizaj", "name:sq": "Ferizaj", "name:sr": "Урошевац", "longitude": 42.3687437, "latitude": 21.1536304}, {"name": "Gurëz", "longitude": 42.3114977, "latitude": 21.2119027}, {"name": "Ковин", "longitude": 44.7518269, "latitude": 20.9660503}, {"name": "Баваниште", "longitude": 44.8101539, "latitude": 20.8916612}, {"name": "Banjskë", "name:sq": "Banjskë", "name:sr": "Бањска", "name:sr-Latn": "Banjska", "longitude": 42.9781066, "latitude": 20.8225315}, {"name": "Јасеновик", "name:sr": "Јасеновик", "name:sr-Latn": "Jasenovik", "longitude": 43.3639327, "latitude": 22.0291205}, {"name": "Сврљишки Миљковац", "name:sr": "Сврљишки Миљковац", "name:sr-Latn": "Svrljiški Miljkovac", "longitude": 43.4893019, "latitude": 22.1348821}, {"name": "Горњане", "name:sr": "Горњане", "name:sr-Latn": "Gornjane", "longitude": 44.2324484, "latitude": 22.0160643}, {"name": "Јасиково", "name:sr": "Јасиково", "name:sr-Latn": "Jasikovo", "longitude": 44.2847929, "latitude": 21.9561933}, {"name": "Лесково", "name:en": "Leskovo", "name:sr": "Лесково", "name:sr-Latn": "Leskovo", "longitude": 44.3168155, "latitude": 21.9419113}, {"name": "Мала Иванча", "name:sr": "Мала Иванча", "name:sr-Latn": "Mala Ivanča", "longitude": 44.577289, "latitude": 20.6148814}, {"name": "Касаповац", "name:sr": "Касаповац", "name:sr-Latn": "Kasapovac", "longitude": 44.6465501, "latitude": 20.5760161}, {"name": "Томића брдо", "name:sr": "Томића брдо", "name:sr-Latn": "Tomića brdo", "longitude": 43.8050586, "latitude": 20.7878281}, {"name": "Димитровград", "name:en": "Dimitrovgrad", "name:sr": "Димитровград", "name:sr-Latn": "Dimitrovgrad", "longitude": 43.0111291, "latitude": 22.7648827}, {"name": "Стиг", "name:en": "Stig", "name:sr": "Стиг", "name:sr-Latn": "Stig", "longitude": 44.6725755, "latitude": 21.3149202}, {"name": "Чешљева Бара", "name:en": "Cesljeva Bara", "name:sr": "Чешљева Бара", "name:sr-Latn": "Češljeva Bara", "longitude": 44.6241346, "latitude": 21.4899203}, {"name": "Раброво-Клење", "name:sr": "Раброво-Клење", "name:sr-Latn": "Rabrovo-Klenje", "longitude": 44.5960231, "latitude": 21.5135511}, {"name": "Мустапић", "name:en": "Mustapic", "name:sr": "Мустапић", "name:sr-Latn": "Mustapić", "longitude": 44.5530197, "latitude": 21.551607}, {"name": "Звижд", "name:en": "Zvizd", "name:sr": "Звижд", "name:sr-Latn": "Zvižd", "longitude": 44.5315581, "latitude": 21.5945748}, {"name": "Кучевска Турија", "name:en": "Kucevska Turija", "name:sr": "Кучевска Турија", "name:sr-Latn": "Kučevska Turija", "longitude": 44.5211385, "latitude": 21.6390491}, {"name": "Каона", "name:en": "Kaona", "name:sr": "Каона", "name:sr-Latn": "Kaona", "longitude": 44.4891322, "latitude": 21.6351939}, {"name": "Кучево", "name:en": "Kucevo", "name:sr": "Кучево", "name:sr-Latn": "Kučevo", "longitude": 44.4722513, "latitude": 21.6752875}, {"name": "Бродица", "name:en": "Brodica", "name:sr": "Бродица", "name:sr-Latn": "Brodica", "longitude": 44.4840807, "latitude": 21.821628}, {"name": "Slijepač Most", "longitude": 42.989664, "latitude": 19.686007}, {"name": "Kosovska Mitrovica Sever", "name:sq": "Mitrovicë Veriore", "name:sr": "Косовска Митровица Север", "name:sr-Latn": "Kosovska Mitrovica Sever", "longitude": 42.8997943, "latitude": 20.8706124}, {"name": "Ратина", "name:en": "Ratina", "name:sr": "Ратина", "name:sr-Latn": "Ratina", "longitude": 43.7131688, "latitude": 20.7524483}, {"name": "Врба стајалиште", "name:en": "Vrba halt", "name:sr": "Врба стајалиште", "name:sr-Latn": "Vrba stajalište", "longitude": 43.6904561, "latitude": 20.7844262}, {"name": "Подунавци", "name:en": "Podunavci", "name:sr": "Подунавци", "name:sr-Latn": "Podunavci", "longitude": 43.6725562, "latitude": 20.8337837}, {"name": "Липова стајалиште", "name:en": "Lipova halt", "name:sr": "Липова стајалиште", "name:sr-Latn": "Lipova stajalište", "longitude": 43.6608467, "latitude": 20.8523183}, {"name": "Почековина", "name:sr": "Почековина", "name:sr-Latn": "Počekovina", "longitude": 43.5919323, "latitude": 21.0759143}, {"name": "Прибој", "name:sr": "Прибој", "name:sr-Latn": "Priboj", "longitude": 43.5818895, "latitude": 19.5249285}, {"name": "Нови Сад", "name:sr": "Нови Сад", "name:sr-Latn": "Novi Sad", "longitude": 45.2658353, "latitude": 19.8291172}, {"name": "Сува Морава", "name:en": "Suva Morava", "name:sr": "Сува Морава", "name:sr-Latn": "Suva Morava", "longitude": 42.6746146, "latitude": 22.0505126}, {"name": "Sh. Ekonomike", "longitude": 42.65123, "latitude": 21.1413227}, {"name": "Панчево варош", "name:hu": "Pancsova-Józsefváros", "name:sr": "Панчево варош", "name:sr-Latn": "Pančevo varoš", "longitude": 44.8790337, "latitude": 20.6605465}, {"name": "Панчево главна", "name:hu": "Pancsova főpályaudvar", "name:sr-Latn": "Pančevo glavna", "longitude": 44.8874942, "latitude": 20.6374145}, {"name": "Панчево Стрелиште", "name:sr": "Панчево Стрелиште", "name:sr-Latn": "Pančevo Strelište", "longitude": 44.8698514, "latitude": 20.6661033}, {"name": "Кленак", "name:en": "Klenak", "name:sr": "Кленак", "name:sr-Latn": "Klenak", "longitude": 44.7817905, "latitude": 19.714467}, {"name": "Оџаци", "name:en": "Odzaci", "name:hu": "Hódság", "name:sr": "Оџаци", "name:sr-Latn": "Odžaci", "longitude": 45.5144084, "latitude": 19.2737473}, {"name": "Овча", "name:en": "Ovča", "name:hu": "Bárányos", "name:sr": "Овча", "name:sr-Latn": "Ovča", "longitude": 44.8755249, "latitude": 20.5445353}, {"name": "Црвени Крст", "name:sr": "Црвени Крст", "name:sr-Latn": "Crveni Krst", "longitude": 43.3324047, "latitude": 21.8814703}, {"name": "Trebaljevo", "longitude": 42.8883217, "latitude": 19.5421275}, {"name": "Kolašin", "longitude": 42.819552, "latitude": 19.5373501}, {"name": "Padež", "longitude": 42.7935175, "latitude": 19.5484301}, {"name": "Mateševo", "longitude": 42.7688691, "latitude": 19.5338654}, {"name": "Радов Дол", "longitude": 43.3051369, "latitude": 22.1843826}, {"name": "Стопања", "name:en": "Stopanja", "name:sr": "Стопања", "name:sr-Latn": "Stopanja", "longitude": 43.5771498, "latitude": 21.153334}, {"name": "Бор теретна", "name:en": "Bor teretna", "name:sr": "Бор теретна", "name:sr-Latn": "Bor teretna", "longitude": 44.0599177, "latitude": 22.1251978}, {"name": "Ђурђево Поље", "name:en": "Djurdjevo Polje", "name:sr": "Ђурђево Поље", "name:sr-Latn": "Đurđevo Polje", "longitude": 43.2311162, "latitude": 22.4584832}, {"name": "Гиље", "name:sr-Latn": "Gilje", "longitude": 43.9541925, "latitude": 21.3177274}, {"name": "Prelluzhë", "longitude": 42.7326263, "latitude": 21.0264449}, {"name": "Lipjan", "name:de": "Lipjan", "name:en": "Lipjan", "name:sr": "Липљан", "name:sr-Latn": "Lipljan", "longitude": 42.5221171, "latitude": 21.1241508}, {"name": "Bablak", "longitude": 42.4465163, "latitude": 21.1546725}, {"name": "Kodrion", "name:sort:sr": "ZELEZNICKASTANICAKOSIN", "longitude": 42.4171877, "latitude": 21.1348527}, {"name": "Fushë Kosovë", "name:sr": "Косово Поље", "name:sr-Latn": "Kosovo Polje", "longitude": 42.6348137, "latitude": 21.0809567}, {"name": "Бабин Поток", "name:sr": "Бабин Поток", "name:sr-Latn": "Babin Potok", "longitude": 43.2225403, "latitude": 21.6318895}, {"name": "Мердаре", "name:sr": "Мердаре", "name:sr-Latn": "Merdare", "longitude": 42.9475303, "latitude": 21.2628941}, {"name": "Дедина", "longitude": 43.5925772, "latitude": 21.3534533}, {"name": "Seperant", "name:en": "Seperant", "name:sq": "Seperant", "longitude": 42.6582763, "latitude": 20.3873241}, {"name": "Крњача мост", "name:en": "Krnjaca Bridge", "name:sr": "Крњача мост", "name:sr-Latn": "Krnjača most", "longitude": 44.8407965, "latitude": 20.4979348}, {"name": "Голубинци", "name:en": "Golubinci", "name:sr": "Голубинци", "name:sr-Latn": "Golubinci", "longitude": 45.0162234, "latitude": 20.051528}, {"name": "Лозница", "name:sr": "Лозница", "name:sr-Latn": "Loznica", "longitude": 44.5354651, "latitude": 19.215995}, {"name": "Јадарска Стража", "name:sr": "Јадарска Стража", "name:sr-Latn": "Jadarska Straža", "longitude": 44.624331, "latitude": 19.3039286}, {"name": "Лешница", "name:sr": "Лешница", "name:sr-Latn": "Lešnica", "longitude": 44.656531, "latitude": 19.3212032}, {"name": "Подрињско Ново Село", "name:sr": "Подрињско Ново Село", "name:sr-Latn": "Podrinjsko Novo Selo", "longitude": 44.6733199, "latitude": 19.3421735}, {"name": "Прњавор Мачвански", "name:sr": "Прњавор Мачвански", "name:sr-Latn": "Prnjavor Mačvanski", "longitude": 44.6965335, "latitude": 19.3770188}, {"name": "Петловача", "name:sr": "Петловача", "name:sr-Latn": "Petlovača", "longitude": 44.7285369, "latitude": 19.4481723}, {"name": "Дубље Мачванско", "name:sr": "Дубље Мачванско", "name:sr-Latn": "Dublje Mačvansko", "longitude": 44.7565523, "latitude": 19.5355028}, {"name": "Штитар", "name:sr": "Штитар", "name:sr-Latn": "Štitar", "longitude": 44.7802584, "latitude": 19.6102468}, {"name": "Кнежевац", "name:en": "Knezevac", "name:sr": "Кнежевац", "name:sr-Latn": "Kneževac", "longitude": 44.7316219, "latitude": 20.4312026}, {"name": "Кијево", "name:en": "Kijevo", "name:sr": "Кијево", "name:sr-Latn": "Kijevo", "longitude": 44.7233675, "latitude": 20.4369419}, {"alt_name:en": "Belgrade Centre", "name": "Београд центар", "name:de": "Belgrad Zentrum", "name:en": "Belgrade Center", "name:hu": "Belgrád Központi", "name:sr": "Београд центар", "name:sr-Latn": "Beograd centar", "longitude": 44.7936304, "latitude": 20.4531284}, {"name": "Бешка", "name:en": "Beska", "name:sr": "Бешка", "name:sr-Latn": "Beška", "longitude": 45.1409407, "latitude": 20.0416141}, {"name": "Сталаћ Град", "name:en": "Stalac Grad", "name:sr": "Сталаћ Град", "name:sr-Latn": "Stalać Grad", "longitude": 43.6743762, "latitude": 21.4045227}, {"name": "Ћићевац", "longitude": 43.7204266, "latitude": 21.4381152}, {"name": "Neresnica", "longitude": 44.4670292, "latitude": 21.7396917}, {"name": "Borska Slatina", "longitude": 44.0503749, "latitude": 22.1514716}, {"name": "Лучина", "name:sr": "Лучина", "name:sr-Latn": "Lučina", "longitude": 43.702774, "latitude": 21.4300015}, {"name": "Осипаоница стајалиште", "longitude": 44.5446198, "latitude": 21.0453939}, {"name": "Краљевци", "name:sr-Latn": "Kraljevci", "longitude": 44.9843776, "latitude": 19.8874872}, {"name": "Топлица Милан", "name:en": "Toplica Milan", "longitude": 43.2177111, "latitude": 21.3806618}, {"name": "Горња Драгања", "name:en": "Gornja Draganja", "longitude": 43.2286264, "latitude": 21.5616512}, {"name": "Гугаљ", "longitude": 43.8663232, "latitude": 20.0979837}, {"name": "Mrzenica", "longitude": 43.6572022, "latitude": 21.3851806}, {"name": "Читлук", "longitude": 43.5906874, "latitude": 21.2699381}, {"name": "Рипањ колонија", "name:sr-Latn": "Ripanj kolonija", "longitude": 44.6683305, "latitude": 20.4950157}, {"name": "Горња Ковиљача", "name:sr": "Горња Ковиљача", "name:sr-Latn": "Gornja Koviljača", "longitude": 44.4897873, "latitude": 19.1366194}, {"name": "Tuzi", "longitude": 42.3613236, "latitude": 19.3379404}, {"name": "Virpazar", "name:sr": "Вирпазар", "longitude": 42.2394916, "latitude": 19.0840459}, {"name": "Sutomore", "name:sr": "Сутоморе", "longitude": 42.1397242, "latitude": 19.0502516}, {"name": "Bijelo Polje", "longitude": 43.0543475, "latitude": 19.7694321}, {"name": "Bar", "longitude": 42.0872623, "latitude": 19.1054896}, {"name": "Aerodrom", "name:sr": "Аеродром", "longitude": 42.3653064, "latitude": 19.2345325}, {"name": "Врањска Бања", "name:en": "Vranjska Banja", "name:sr": "Врањска Бања", "name:sr-Latn": "Vranjska Banja", "longitude": 42.5686799, "latitude": 21.9826607}, {"name": "Владимировац", "name:sr": "Владимировац", "name:sr-Latn": "Vladimirovac", "longitude": 45.0314395, "latitude": 20.8927449}, {"name": "Бачки Петровац - Гложан", "name:sr": "Бачки Петровац - Гложан", "name:sr-Latn": "Bački Petrovac - Gložan", "longitude": 45.3289906, "latitude": 19.5820533}, {"name": "Ужице теретна", "name:sr": "Ужице теретна", "name:sr-Latn": "Užice teretna", "longitude": 43.8466886, "latitude": 19.8584157}, {"name": "Косјерић", "longitude": 44.0004133, "latitude": 19.9189732}, {"name": "Прибојска Бања", "name:sr": "Прибојска Бања", "name:sr-Latn": "Pribojska Banja", "longitude": 43.5293142, "latitude": 19.5711478}, {"name": "Рибница Златиборска", "name:sr": "Рибница Златиборска", "name:sr-Latn": "Ribnica Zlatiborska", "longitude": 43.7080883, "latitude": 19.5731644}, {"name": "Батајница", "name:sr": "Батајница", "name:sr-Latn": "Batajnica", "longitude": 44.8990744, "latitude": 20.2718514}, {"name": "Нови Београд", "name:de": "Neu-Belgrad", "name:en": "New Belgrade", "name:pl": "Nowy Belgrad", "name:ru": "Новый Белград", "name:sr": "Нови Београд", "name:sr-Latn": "Novi Beograd", "longitude": 44.8069189, "latitude": 20.4178455}, {"name": "Вуков споменик", "name:ru": "Памятник Вуку", "name:sr": "Вуков споменик", "name:sr-Latn": "Vukov spomenik", "longitude": 44.8051519, "latitude": 20.4776373}, {"name": "Тошин бунар", "name:en": "Tosin Bunar", "name:sr": "Тошин бунар", "name:sr-Latn": "Tošin bunar", "longitude": 44.8163487, "latitude": 20.3972576}, {"name": "Смедерево", "name:en": "Smederevo", "name:sr": "Смедерево", "name:sr-Latn": "Smederevo", "longitude": 44.6678003, "latitude": 20.926878}, {"name": "Tabakovac", "name:sr": "Табаковац", "name:sr-Latn": "Tabakovac", "longitude": 44.0576393, "latitude": 22.4140242}, {"name": "Влашко Поље", "name:sr": "Влашко Поље", "name:sr-Latn": "Vlaško Polje", "longitude": 44.4805787, "latitude": 20.660348}, {"name": "Вршац", "name:en": "Vršac", "name:sr": "Вршац", "name:sr-Latn": "Vršac", "longitude": 45.1057392, "latitude": 21.2831718}, {"name": "Мраморак", "longitude": 44.8573741, "latitude": 20.9963082}, {"name": "Локве", "longitude": 45.1618155, "latitude": 21.0189344}, {"name": "Сврљиг", "name:sr": "Сврљиг", "name:sr-Latn": "Svrljig", "longitude": 43.4142983, "latitude": 22.1181103}, {"name": "Палилула", "name:sr-Latn": "Palilula", "longitude": 43.4892077, "latitude": 22.1111404}, {"name": "Горња Врежина", "name:sr-Latn": "Gornja Vrežina", "longitude": 43.3320808, "latitude": 21.9968469}, {"name": "Нишевац", "name:sr-Latn": "Niševac", "longitude": 43.4585801, "latitude": 22.1025392}, {"name": "Ужице", "name:sr": "Ужице", "name:sr-Latn": "Užice", "longitude": 43.8534335, "latitude": 19.8397078}, {"name": "Зрењанин теретна", "name:sr": "Зрењанин теретна", "name:sr-Latn": "Zrenjanin teretna", "longitude": 45.3859365, "latitude": 20.3733517}, {"name": "Клење", "name:sr": "Клење", "name:sr-Latn": "Klenje", "longitude": 44.6417284, "latitude": 20.5328266}, {"name": "Лесковац Колубарски", "name:sr": "Лесковац Колубарски", "name:sr-Latn": "Leskovac Kolubarski", "longitude": 44.5084434, "latitude": 20.3422352}, {"name": "Камендин", "longitude": 44.8671907, "latitude": 20.3205853}, {"name": "Младеновац", "name:en": "Mladenovac", "name:sr": "Младеновац", "name:sr-Latn": "Mladenovac", "longitude": 44.4401959, "latitude": 20.6912696}, {"name": "Алтина", "name:en": "Altina", "longitude": 44.8501954, "latitude": 20.3455439}, {"name": "Земунско поље", "name:en": "Zemunsko polje", "name:sr": "Земунско поље", "name:sr-Latn": "Zemunsko polje", "longitude": 44.8577732, "latitude": 20.3346914}, {"name": "Банатско Велико Село", "name:sr": "Банатско Велико Село", "name:sr-Latn": "Banatsko Veliko Selo", "longitude": 45.8093469, "latitude": 20.615616}, {"name": "Раковица", "name:sr": "Раковица", "name:sr-Latn": "Rakovica", "longitude": 44.7466503, "latitude": 20.4429542}, {"name": "Ресник", "name:sr": "Ресник", "name:sr-Latn": "Resnik", "longitude": 44.7044453, "latitude": 20.4484192}, {"name": "Инђија", "name:en": "Inđija", "name:sr-Latn": "Inđija", "longitude": 45.0484566, "latitude": 20.0923406}, {"name": "Dren", "name:sr": "Дрен", "name:sr-Latn": "Dren", "longitude": 43.1293205, "latitude": 20.7684383}, {"name": "Хоргош", "name:hu": "Horgos", "name:sr": "Хоргош", "name:sr-Latn": "Horgoš", "longitude": 46.1558819, "latitude": 19.9577222}, {"name": "Зрењанин", "name:sr": "Зрењанин", "name:sr-Latn": "Zrenjanin", "longitude": 45.3780363, "latitude": 20.3789828}, {"name": "Стара Пазова", "name:sr": "Стара Пазова", "name:sr-Latn": "Stara Pazova", "longitude": 44.9866097, "latitude": 20.1374427}, {"name": "Јајинци", "name:sr": "Јајинци", "name:sr-Latn": "Jajinci", "longitude": 44.7217287, "latitude": 20.4571091}, {"name": "Ћуприја", "name:de": "Ćuprija", "name:en": "Cuprija", "name:sr": "Ћуприја", "name:sr-Latn": "Ćuprija", "longitude": 43.9162921, "latitude": 21.3653629}, {"name": "Палилулска рампа", "name:sr-Latn": "Palilulska rampa", "longitude": 43.3130581, "latitude": 21.8976455}, {"name": "Букаревац", "name:sr": "Букаревац", "name:sr-Latn": "Bukarevac", "longitude": 42.3447333, "latitude": 21.7063534}, {"name": "Бела Паланка", "longitude": 43.2216649, "latitude": 22.3176187}, {"alt_name": "Крњача укрсница", "alt_name:sr": "Крњача укрсница", "alt_name:sr-Latn": "Krnjača ukrsnica", "name": "Крњача", "name:en": "Krnjaca", "name:sr": "Крњача", "name:sr-Latn": "Krnjača", "longitude": 44.8479666, "latitude": 20.5054794}, {"name": "Мајур", "name:en": "Majur", "name:sr": "Мајур", "name:sr-Latn": "Majur", "longitude": 44.7718315, "latitude": 19.6556995}, {"name": "Барајево", "name:sr": "Барајево", "name:sr-Latn": "Barajevo", "longitude": 44.5939358, "latitude": 20.4252123}, {"name": "Ваљево", "name:en": "Valjevo", "name:sr": "Ваљево", "name:sr-Latn": "Valjevo", "longitude": 44.2705598, "latitude": 19.9072281}, {"name": "Ваљево", "name:en": "Valjevo", "name:sr": "Ваљево", "name:sr-Latn": "Valjevo", "longitude": 44.2706001, "latitude": 19.9072271}, {"name": "Ластра", "name:sr": "Ластра", "name:sr-Latn": "Lastra", "longitude": 44.1562863, "latitude": 19.8864444}, {"name": "Самари", "name:sr": "Самари", "name:sr-Latn": "Samari", "longitude": 44.1234785, "latitude": 19.8578578}, {"name": "Косјерић", "name:sr": "Косјерић", "name:sr-Latn": "Kosjerić", "longitude": 44.0004081, "latitude": 19.9189554}, {"name": "Пожега", "name:en": "Pozega", "name:sr": "Пожега", "name:sr-Latn": "Požega", "longitude": 43.8405367, "latitude": 20.0288706}, {"name": "Ужице теретна", "name:sr": "Ужице теретна", "name:sr-Latn": "Užice teretna", "longitude": 43.8467322, "latitude": 19.8583838}, {"name": "Пријепоље", "name:de": "Prijepolje", "name:en": "Prijepolje", "name:sr": "Пријепоље", "name:sr-Latn": "Prijepolje", "longitude": 43.3928506, "latitude": 19.6400264}, {"name": "Пријепоље теретна", "name:en": "Prijepolje cargo", "name:sr": "Пријепоље теретна", "name:sr-Latn": "Prijepolje teretna", "longitude": 43.3664279, "latitude": 19.633481}, {"name": "Меленци", "name:hu": "Melence", "name:sr": "Меленци", "name:sr-Latn": "Melenci", "longitude": 45.5085728, "latitude": 20.2976662}, {"name": "Кумане", "name:hu": "Kumán", "name:sr": "Кумане", "name:sr-Latn": "Kumane", "longitude": 45.5482413, "latitude": 20.2320742}, {"name": "Банат. Милошево Поље", "name:sr": "Банат. Милошево Поље", "name:sr-Latn": "Banat. Miloševo Polje", "longitude": 45.6927896, "latitude": 20.2958293}, {"name": "Богараш", "name:en": "Bogaras", "name:hu": "Bogaras", "name:sr": "Богараш", "name:sr-Latn": "Bogaraš", "longitude": 45.9351409, "latitude": 19.9273342}, {"name": "Долине", "name:hu": "Völgyes", "name:sr": "Долине", "name:sr-Latn": "Doline", "longitude": 45.9580843, "latitude": 19.8719749}, {"name": "Биково", "name:en": "Bikovo", "name:hu": "Békova", "name:sr": "Биково", "name:sr-Latn": "Bikovo", "longitude": 46.0196577, "latitude": 19.7718681}, {"name": "Сопот Пожаревачки", "name:sr": "Сопот Пожаревачки", "name:sr-Latn": "Sopot Požarevački", "longitude": 44.6337858, "latitude": 21.1938387}, {"name": "Бистрица на Лиму", "name:sr": "Бистрица на Лиму", "name:sr-Latn": "Bistrica na Limu", "longitude": 43.4832126, "latitude": 19.6463724}, {"name": "Панчевачки Мост (Дунавски перон)", "name:sr": "Панчевачки Мост (Дунавски перон)", "name:sr-Latn": "Pančevački Most (Dunavski peron)", "longitude": 44.8195683, "latitude": 20.4889603}, {"name": "Nikšić", "longitude": 42.7702531, "latitude": 18.9449419}, {"name": "Чачак", "name:sr-Latn": "Čačak", "longitude": 43.8899798, "latitude": 20.356164}, {"name": "Врба", "name:en": "Vrba", "name:sr": "Врба", "name:sr-Latn": "Vrba", "longitude": 43.6904882, "latitude": 20.7844903}, {"name": "Подунавци", "name:en": "Podunavci", "name:sr": "Подунавци", "name:sr-Latn": "Podunavci", "longitude": 43.672089, "latitude": 20.8346595}, {"name": "Трстеник", "name:en": "Trstenik", "name:sh": "Трстеник", "name:sr-Latn": "Trstenik", "longitude": 43.6150143, "latitude": 20.9976271}, {"name": "Севојно", "name:en": "Sevojno", "name:sr": "Севојно", "name:sr-Latn": "Sevojno", "longitude": 43.8379267, "latitude": 19.9044583}, {"name": "Сремска Митровица", "name:sr": "Сремска Митровица", "name:sr-Latn": "Sremska Mitrovica", "longitude": 44.9824191, "latitude": 19.6136426}, {"name": "Хајдуково", "name:sr": "Хајдуково", "name:sr-Latn": "Hajdukovo", "longitude": 46.115119, "latitude": 19.8103344}, {"name": "Ковачица", "name:sr": "Ковачица", "name:sr-Latn": "Kovačica", "longitude": 45.1118912, "latitude": 20.6107713}, {"name": "Иланџа", "longitude": 45.1706904, "latitude": 20.9269956}, {"name": "Зрењанин фабрика", "name:en": "Zrenjanin factory", "name:sr": "Зрењанин фабрика", "name:sr-Latn": "Zrenjanin fabrika", "longitude": 45.3712412, "latitude": 20.4261241}, {"name": "Елемир", "name:en": "Elemir", "name:sr": "Елемир", "name:sr-Latn": "Elemir", "longitude": 45.4372886, "latitude": 20.311206}, {"name": "Врбас Нова", "longitude": 45.5549662, "latitude": 19.6286387}, {"name": "Петроварадин", "name:en": "Petrovaradin", "name:sr": "Петроварадин", "name:sr-Latn": "Petrovaradin", "longitude": 45.2404343, "latitude": 19.8882012}, {"name": "Крагујевац", "name:en": "Kragujevac", "name:sr": "Крагујевац", "name:sr-Latn": "Kragujevac", "longitude": 44.0101302, "latitude": 20.9284269}]