[{"name": "\u0414\u0440\u0430\u0436\u0430\u045a-\u0428\u0435\u043f\u0448\u0438\u043d", "name:sr": "\u0414\u0440\u0430\u0436\u0430\u045a-\u0428\u0435\u043f\u0448\u0438\u043d", "name:sr-Latn": "Dra\u017eanj-\u0160ep\u0161in", "longitude": 44.5711298, "latitude": 20.6890167}, {"name": "\u0420\u0438\u043f\u0430\u045a", "name:sr": "\u0420\u0438\u043f\u0430\u045a", "name:sr-Latn": "Ripanj", "longitude": 44.6623345, "latitude": 20.5069485}, {"name": "Zlatica", "name:sr": "\u0417\u043b\u0430\u0442\u0438\u0446\u0430", "longitude": 42.469043, "latitude": 19.2954508}, {"name": "\u0412\u0440\u0431\u0430\u0441", "name:sr": "\u0412\u0440\u0431\u0430\u0441", "name:sr-Latn": "Vrbas", "longitude": 45.5734156, "latitude": 19.6233725}, {"name": "Podgorica", "name:sr": "\u041f\u043e\u0434\u0433\u043e\u0440\u0438\u0446\u0430", "name:sr-Latn": "Podgorica", "longitude": 42.4320076, "latitude": 19.2694151}, {"name": "\u0421\u043e\u043c\u0431\u043e\u0440", "name:hu": "Zombor", "name:sr": "\u0421\u043e\u043c\u0431\u043e\u0440", "name:sr-Latn": "Sombor", "longitude": 45.7859981, "latitude": 19.1140701}, {"name": "\u0411\u0443\u043a\u043e\u0432\u0430\u0447\u043a\u0438 \u0441\u0430\u043b\u0430\u0448\u0438", "name:hu": "B\u00fckksz\u00e1ll\u00e1s", "name:sr": "\u0411\u0443\u043a\u043e\u0432\u0430\u0447\u043a\u0438 \u0441\u0430\u043b\u0430\u0448\u0438", "name:sr-Latn": "Bukova\u010dki sala\u0161i", "longitude": 45.7405531, "latitude": 19.0735172}, {"name": "\u041f\u0440\u0438\u0433\u0440\u0435\u0432\u0438\u0446\u0430", "name:hu": "B\u00e1csszentiv\u00e1n;Priglevicza-Szt.-Iv\u00e1n", "name:sr": "\u041f\u0440\u0438\u0433\u0440\u0435\u0432\u0438\u0446\u0430", "name:sr-Latn": "Prigrevica", "longitude": 45.6758755, "latitude": 19.0973335}, {"name": "\u0427\u043e\u043d\u043e\u043f\u0459\u0430", "name:de": "Tschonopel", "name:en": "Conoplja", "name:hr": "\u010conoplja", "name:hu": "Csonoplya", "name:sr": "\u0427\u043e\u043d\u043e\u043f\u0459\u0430", "name:sr-Latn": "\u010conoplja", "longitude": 45.7977291, "latitude": 19.2480173}, {"name": "\u0421\u0438\u0432\u0430\u0446", "name:hu": "Sziv\u00e1c", "name:sr": "\u0421\u0438\u0432\u0430\u0446", "name:sr-Latn": "Sivac", "longitude": 45.6931334, "latitude": 19.3779905}, {"name": "\u041a\u0443\u043b\u0430", "name:en": "Kula", "name:hu": "Kula", "name:sr": "\u041a\u0443\u043b\u0430", "name:sr-Latn": "Kula", "longitude": 45.6044465, "latitude": 19.5152263}, {"name": "\u0411\u0430\u0458\u043c\u043e\u043a", "name:en": "Bajmok", "name:hu": "Bajmok", "name:sr": "\u0411\u0430\u0458\u043c\u043e\u043a", "name:sr-Latn": "Bajmok", "longitude": 45.9768382, "latitude": 19.4130931}, {"name": "\u0420\u0430\u0442\u043a\u043e\u0432\u043e", "name:hu": "Parip\u00e1s", "name:sr": "\u0420\u0430\u0442\u043a\u043e\u0432\u043e", "name:sr-Latn": "Ratkovo", "longitude": 45.4481747, "latitude": 19.326947}, {"name": "\u041f\u0430\u0440\u0430\u0433\u0435", "name:sr": "\u041f\u0430\u0440\u0430\u0433\u0435", "name:sr-Latn": "Parage", "longitude": 45.4081196, "latitude": 19.3828387}, {"name": "\u0413\u0430\u0458\u0434\u043e\u0431\u0440\u0430", "name:hu": "Sz\u00e9pliget", "name:sr": "\u0413\u0430\u0458\u0434\u043e\u0431\u0440\u0430", "name:sr-Latn": "Gajdobra", "longitude": 45.3565232, "latitude": 19.456257}, {"name": "\u0411\u0430\u0447\u043a\u0438 \u041c\u0430\u0433\u043b\u0438\u045b", "name:sr": "\u0411\u0430\u0447\u043a\u0438 \u041c\u0430\u0433\u043b\u0438\u045b", "name:sr-Latn": "Ba\u010dki Magli\u0107", "longitude": 45.3517035, "latitude": 19.5364535}, {"name": "\u0424\u0443\u0442\u043e\u0433", "name:hu": "Futak", "name:sr": "\u0424\u0443\u0442\u043e\u0433", "name:sr-Latn": "Futog", "longitude": 45.2547257, "latitude": 19.7008112}, {"name": "\u0421\u043e\u043d\u0442\u0430", "name:sr": "\u0421\u043e\u043d\u0442\u0430", "name:sr-Latn": "Sonta", "longitude": 45.5994517, "latitude": 19.1106131}, {"name": "\u0411\u043e\u0433\u043e\u0458\u0435\u0432\u043e", "name:hu": "Gombos", "name:sr": "\u0411\u043e\u0433\u043e\u0458\u0435\u0432\u043e", "name:sr-Latn": "Bogojevo", "longitude": 45.5447549, "latitude": 19.1038981}, {"name": "\u0411\u043e\u0433\u043e\u0458\u0435\u0432\u043e \u0421\u0435\u043b\u043e", "name:hu": "Gombos falu", "name:sr": "\u0411\u043e\u0433\u043e\u0458\u0435\u0432\u043e \u0421\u0435\u043b\u043e", "name:sr-Latn": "Bogojevo Selo", "longitude": 45.5328745, "latitude": 19.1379638}, {"name": "\u041a\u0430\u0440\u0430\u0432\u0443\u043a\u043e\u0432\u043e", "name:hu": "B\u00e1csordas", "name:sr": "\u041a\u0430\u0440\u0430\u0432\u0443\u043a\u043e\u0432\u043e", "name:sr-Latn": "Karavukovo", "longitude": 45.5017762, "latitude": 19.2084892}, {"name": "\u041e\u045f\u0430\u0446\u0438 \u041a\u0430\u043b\u0432\u0430\u0440\u0438\u0458\u0430", "name:hu": "H\u00f3ds\u00e1g-K\u00e1lv\u00e1ria", "name:sr": "\u041e\u045f\u0430\u0446\u0438 \u041a\u0430\u043b\u0432\u0430\u0440\u0438\u0458\u0430", "name:sr-Latn": "Od\u017eaci Kalvarija", "longitude": 45.5106746, "latitude": 19.2551256}, {"name": "\u017dari", "longitude": 42.9850094, "latitude": 19.617934}, {"name": "\u041f\u0440\u0438\u0458\u0435\u043f\u043e\u0459\u0435", "name:de": "Prijepolje", "name:en": "Prijepolje", "name:sr": "\u041f\u0440\u0438\u0458\u0435\u043f\u043e\u0459\u0435", "name:sr-Latn": "Prijepolje", "longitude": 43.392852, "latitude": 19.6399692}, {"name": "\u041f\u0440\u0438\u0431\u043e\u0458", "name:sr": "\u041f\u0440\u0438\u0431\u043e\u0458", "name:sr-Latn": "Priboj", "longitude": 43.5818528, "latitude": 19.5249314}, {"name": "\u0411\u0430\u0440\u0430\u0458\u0435\u0432\u043e \u0446\u0435\u043d\u0442\u0430\u0440", "name:sr": "\u0411\u0430\u0440\u0430\u0458\u0435\u0432\u043e \u0426\u0435\u043d\u0442\u0430\u0440", "name:sr-Latn": "Barajevo Centar", "longitude": 44.5772798, "latitude": 20.4121206}, {"name": "\u0412\u0440\u0435\u043e\u0446\u0438", "name:en": "Vreoci", "name:sr": "\u0412\u0440\u0435\u043e\u0446\u0438", "name:sr-Latn": "Vreoci", "longitude": 44.4489723, "latitude": 20.2794586}, {"name": "\u041b\u0430\u0437\u0430\u0440\u0435\u0432\u0430\u0446", "name:en": "Lazarevac", "name:sr": "\u041b\u0430\u0437\u0430\u0440\u0435\u0432\u0430\u0446", "name:sr-Latn": "Lazarevac", "longitude": 44.3848662, "latitude": 20.2454598}, {"name": "\u0420\u0443\u043c\u0430", "name:hu": "Ruma", "name:sr": "\u0420\u0443\u043c\u0430", "name:sr-Latn": "Ruma", "longitude": 44.9893798, "latitude": 19.8269889}, {"name": "\u0423\u0436\u0438\u0446\u0435", "name:sr": "\u0423\u0436\u0438\u0446\u0435", "name:sr-Latn": "U\u017eice", "longitude": 43.8534481, "latitude": 19.8396941}, {"name": "\u0411\u0440\u0430\u043d\u0435\u0448\u0446\u0438", "name:sr": "\u0411\u0440\u0430\u043d\u0435\u0448\u0446\u0438", "name:sr-Latn": "Brane\u0161ci", "longitude": 43.7792339, "latitude": 19.6816796}, {"name": "\u041f\u043e\u0436\u0435\u0433\u0430", "name:en": "Pozega", "name:sr": "\u041f\u043e\u0436\u0435\u0433\u0430", "name:sr-Latn": "Po\u017eega", "longitude": 43.8403374, "latitude": 20.028855}, {"name": "\u041a\u045a\u0430\u0436\u0435\u0432\u0430\u0446", "name:en": "Knjazevac", "name:sr": "\u041a\u045a\u0430\u0436\u0435\u0432\u0430\u0446", "name:sr-Latn": "Knja\u017eevac", "longitude": 43.5714176, "latitude": 22.2513857}, {"name": "\u0421\u0442\u0443\u0431\u0430\u043b", "name:en": "Stubal", "name:sr": "\u0421\u0442\u0443\u0431\u0430\u043b", "name:sr-Latn": "Stubal", "longitude": 42.6326079, "latitude": 22.0374516}, {"name": "\u0412\u043b\u0430\u0434\u0438\u0447\u0438\u043d \u0425\u0430\u043d", "name:en": "Vladicin Han", "name:sr": "\u0412\u043b\u0430\u0434\u0438\u0447\u0438\u043d \u0425\u0430\u043d", "name:sr-Latn": "Vladi\u010din Han", "longitude": 42.7102375, "latitude": 22.0621597}, {"name": "\u0428\u0435\u043b\u0438\u043d\u0446\u0435", "name:sr": "\u0428\u0435\u043b\u0438\u043d\u0446\u0435", "name:sr-Latn": "\u0160elince", "longitude": 42.7337988, "latitude": 22.0591591}, {"name": "\u041f\u0430\u043b\u043e\u0458\u0441\u043a\u0430 \u0420\u043e\u0441\u0443\u0459\u0430", "name:sr": "\u041f\u0430\u043b\u043e\u0458\u0441\u043a\u0430 \u0420\u043e\u0441\u0443\u0459\u0430", "name:sr-Latn": "Palojska Rosulja", "longitude": 42.8606831, "latitude": 22.1196968}, {"name": "\u0413\u0440\u0434\u0435\u043b\u0438\u0446\u0430", "name:en": "Grdelica", "name:sr": "\u0413\u0440\u0434\u0435\u043b\u0438\u0446\u0430", "name:sr-Latn": "Grdelica", "longitude": 42.8955235, "latitude": 22.0572153}, {"name": "\u0414\u043e\u0459\u0435\u0432\u0430\u0446", "name:en": "Doljevac", "name:sr": "\u0414\u043e\u0459\u0435\u0432\u0430\u0446", "name:sr-Latn": "Doljevac", "longitude": 43.2016555, "latitude": 21.8335793}, {"name": "\u0411\u0435\u043b\u043e\u0442\u0438\u043d\u0446\u0435", "name:sr": "\u0411\u0435\u043b\u043e\u0442\u0438\u043d\u0446\u0435", "name:sr-Latn": "Belotince", "longitude": 43.2646506, "latitude": 21.8418449}, {"name": "Bio\u010de", "name:sr": "\u0411\u0438\u043e\u0447\u0435", "longitude": 42.5277939, "latitude": 19.367311}, {"name": "Bratono\u017ei\u0107i", "longitude": 42.5563743, "latitude": 19.3489753}, {"name": "Lutovo", "longitude": 42.6279981, "latitude": 19.3856978}, {"name": "Mojkovac", "longitude": 42.9528609, "latitude": 19.5863282}, {"name": "\u0160titari\u010dka Rijeka", "longitude": 42.9289381, "latitude": 19.5723404}, {"name": "Oblutak", "longitude": 42.8636988, "latitude": 19.5360467}, {"name": "Stagov\u00eb", "longitude": 42.2753967, "latitude": 21.2456185}, {"name": "Fushlot", "longitude": 42.48122, "latitude": 21.149144}, {"name": "Miradi", "longitude": 42.6108837, "latitude": 21.0809187}, {"name": "Qarrat", "longitude": 42.6046643, "latitude": 20.7484669}, {"name": "Uj\u00ebmir", "longitude": 42.6144428, "latitude": 20.6991745}, {"name": "Grykas", "longitude": 42.6172006, "latitude": 20.7867408}, {"name": "Gurkat / Pogragja", "longitude": 42.6287284, "latitude": 20.6401825}, {"name": "Ka\u00e7anik i Vjet\u00ebr", "name:sr": "\u0421\u0442\u0430\u0440\u0438 \u041a\u0430\u0447\u0430\u043d\u0438\u043a", "longitude": 42.3010221, "latitude": 21.2297886}, {"name": "Jarinj\u00eb", "name:sr": "\u0408\u0430\u0440\u0438\u045a\u0435", "name_full_nd:sr": "\u017delezni\u010dka Stanica Jerina", "name_generic:sr": "\u017delezni\u010dka Stanica", "name_sort:sr": "ZELEZNICKASTANICAJERINA", "longitude": 43.2118518, "latitude": 20.6969941}, {"name": "\u041c\u043e\u043a\u0440\u0430 \u0413\u043e\u0440\u0430", "name:sr": "\u041c\u043e\u043a\u0440\u0430 \u0413\u043e\u0440\u0430", "name:sr-Latn": "Mokra Gora", "longitude": 43.7925424, "latitude": 19.5076139}, {"name": "\u0411\u043e\u0436\u0443\u0440\u0430\u0442", "name:sr": "\u0411\u043e\u0436\u0443\u0440\u0430\u0442", "name:sr-Latn": "Bo\u017eurat", "longitude": 43.1424706, "latitude": 22.5991023}, {"name": "\u0426\u0440\u043a\u0432\u0438\u0446\u0430", "name:sr": "\u0426\u0440\u043a\u0432\u0438\u0446\u0430", "name:sr-Latn": "Crkvica", "longitude": 43.2257944, "latitude": 22.3611383}, {"name": "\u0420\u0443\u0434\u0430\u0440\u0435", "name:en": "Rudare", "name:sr": "\u0420\u0443\u0434\u0430\u0440\u0435", "name:sr-Latn": "Rudare", "longitude": 43.0655468, "latitude": 21.3190869}, {"name": "\u0421\u0443\u043a\u043e\u0432\u043e", "name:en": "Sukovo", "name:sr": "\u0421\u0443\u043a\u043e\u0432\u043e", "name:sr-Latn": "Sukovo", "longitude": 43.0722005, "latitude": 22.6681171}, {"name": "\u0421\u0442\u0430\u043d\u0438\u0447\u0435\u045a\u0435", "name:en": "Stanicenje", "name:sr": "\u0421\u0442\u0430\u043d\u0438\u0447\u0435\u045a\u0435", "name:sr-Latn": "Stani\u010denje", "longitude": 43.2132486, "latitude": 22.5121417}, {"name": "\u0426\u0440\u0432\u0435\u043d\u0447\u0435\u0432\u043e", "name:en": "Crvencevo", "name:sr": "\u0426\u0440\u0432\u0435\u043d\u0447\u0435\u0432\u043e", "name:sr-Latn": "Crven\u010devo", "longitude": 43.2203256, "latitude": 22.4926206}, {"name": "\u0421\u043e\u043f\u043e\u0442 \u041a\u043e\u0441\u043c\u0430\u0458\u0441\u043a\u0438", "name:sr": "\u0421\u043e\u043f\u043e\u0442 \u041a\u043e\u0441\u043c\u0430\u0458\u0441\u043a\u0438", "name:sr-Latn": "Sopot Kosmajski", "longitude": 44.5237627, "latitude": 20.611635}, {"name": "\u041a\u043e\u0432\u0430\u0447\u0435\u0432\u0430\u0446", "name:sr": "\u041a\u043e\u0432\u0430\u0447\u0435\u0432\u0430\u0446", "name:sr-Latn": "Kova\u010devac", "longitude": 44.3992415, "latitude": 20.7503274}, {"name": "\u0420\u0430\u0431\u0440\u043e\u0432\u0430\u0446", "name:sr": "\u0420\u0430\u0431\u0440\u043e\u0432\u0430\u0446", "name:sr-Latn": "Rabrovac", "longitude": 44.3847484, "latitude": 20.7749796}, {"name": "\u041a\u0443\u0441\u0430\u0434\u0430\u043a", "name:en": "Kusadak", "name:sr": "\u041a\u0443\u0441\u0430\u0434\u0430\u043a", "name:sr-Latn": "Kusadak", "longitude": 44.3759908, "latitude": 20.8289016}, {"name": "\u0413\u043b\u0438\u0431\u043e\u0432\u0430\u0446", "name:sr": "\u0413\u043b\u0438\u0431\u043e\u0432\u0430\u0446", "name:sr-Latn": "Glibovac", "longitude": 44.368487, "latitude": 20.9052635}, {"name": "\u0412\u0435\u043b\u0438\u043a\u0430 \u041f\u043b\u0430\u043d\u0430", "name:en": "Velika Plana", "name:sr": "\u0412\u0435\u043b\u0438\u043a\u0430 \u041f\u043b\u0430\u043d\u0430", "name:sr-Latn": "Velika Plana", "longitude": 44.325157, "latitude": 21.0825983}, {"name": "\u041c\u0430\u0440\u043a\u043e\u0432\u0430\u0446", "name:en": "Markovac", "name:sr": "\u041c\u0430\u0440\u043a\u043e\u0432\u0430\u0446", "name:sr-Latn": "Markovac", "longitude": 44.2391251, "latitude": 21.0963972}, {"name": "\u041b\u0430\u043f\u043e\u0432\u043e \u0412\u0430\u0440\u043e\u0448", "name:en": "Lapovo Varos", "name:sr": "\u041b\u0430\u043f\u043e\u0432\u043e \u0412\u0430\u0440\u043e\u0448", "name:sr-Latn": "Lapovo Varo\u0161", "longitude": 44.1865277, "latitude": 21.1025772}, {"name": "\u041b\u0430\u043f\u043e\u0432\u043e", "name:en": "Lapovo", "name:sr": "\u041b\u0430\u043f\u043e\u0432\u043e", "name:sr-Latn": "Lapovo", "longitude": 44.1577489, "latitude": 21.1022257}, {"name": "\u041c\u0438\u043b\u0430\u0442\u043e\u0432\u0430\u0446", "name:sr": "\u041c\u0438\u043b\u0430\u0442\u043e\u0432\u0430\u0446", "name:sr-Latn": "Milatovac", "longitude": 44.0899334, "latitude": 20.9833107}, {"name": "\u0411\u0430\u0434\u045a\u0435\u0432\u0430\u0446", "name:sr": "\u0411\u0430\u0434\u045a\u0435\u0432\u0430\u0446", "name:sr-Latn": "Badnjevac", "longitude": 44.1300281, "latitude": 20.9801588}, {"name": "\u0411\u0430\u0442\u043e\u0447\u0438\u043d\u0430", "name:sr": "\u0411\u0430\u0442\u043e\u0447\u0438\u043d\u0430", "name:sr-Latn": "Bato\u010dina", "longitude": 44.155588, "latitude": 21.0752592}, {"name": "\u0413\u0440\u0430\u0434\u0430\u0446", "name:sr": "\u0413\u0440\u0430\u0434\u0430\u0446", "name:sr-Latn": "Gradac", "longitude": 44.1464152, "latitude": 21.0216575}, {"name": "\u0408\u043e\u0432\u0430\u043d\u043e\u0432\u0430\u0446", "name:sr": "\u0408\u043e\u0432\u0430\u043d\u043e\u0432\u0430\u0446", "name:sr-Latn": "Jovanovac", "longitude": 44.0556424, "latitude": 20.9766929}, {"name": "\u0417\u0430\u0432\u043e\u0434", "name:sr": "\u0417\u0430\u0432\u043e\u0434", "name:sr-Latn": "Zavod", "longitude": 44.0084844, "latitude": 20.9139879}, {"name": "\u0413\u0440\u043e\u0448\u043d\u0438\u0446\u0430", "name:en": "Grosnica", "name:sr": "\u0413\u0440\u043e\u0448\u043d\u0438\u0446\u0430", "name:sr-Latn": "Gro\u0161nica", "longitude": 43.9949038, "latitude": 20.8765475}, {"name": "\u0414\u0440\u0430\u0433\u043e\u0431\u0440\u0430\u045b\u0430", "name:en": "Dragobraca", "name:sr": "\u0414\u0440\u0430\u0433\u043e\u0431\u0440\u0430\u045b\u0430", "name:sr-Latn": "Dragobra\u0107a", "longitude": 43.9732298, "latitude": 20.8206323}, {"name": "\u041a\u043d\u0438\u045b", "name:sr": "\u041a\u043d\u0438\u045b", "name:sr-Latn": "Kni\u0107", "longitude": 43.9329084, "latitude": 20.7485551}, {"name": "\u0413\u0440\u0443\u0436\u0430", "name:en": "Gruza", "name:sr": "\u0413\u0440\u0443\u0436\u0430", "name:sr-Latn": "Gru\u017ea", "longitude": 43.8923477, "latitude": 20.7678428}, {"name": "\u0413\u0443\u0431\u0435\u0440\u0435\u0432\u0430\u0446", "name:sr": "\u0413\u0443\u0431\u0435\u0440\u0435\u0432\u0430\u0446", "name:sr-Latn": "Guberevac", "longitude": 43.8387412, "latitude": 20.7738496}, {"name": "\u0412\u0438\u0442\u043a\u043e\u0432\u0430\u0446", "name:sr": "\u0412\u0438\u0442\u043a\u043e\u0432\u0430\u0446", "name:sr-Latn": "Vitkovac", "longitude": 43.7914417, "latitude": 20.7904669}, {"name": "\u041c\u0438\u043b\u0430\u0432\u0447\u0438\u045b\u0438", "name:sr": "\u041c\u0438\u043b\u0430\u0432\u0447\u0438\u045b\u0438", "name:sr-Latn": "Milav\u010di\u0107i", "longitude": 43.760698, "latitude": 20.8055834}, {"name": "\u0412\u0438\u0442\u0430\u043d\u043e\u0432\u0430\u0446", "name:sr": "\u0412\u0438\u0442\u0430\u043d\u043e\u0432\u0430\u0446", "name:sr-Latn": "Vitanovac", "longitude": 43.7270385, "latitude": 20.8016324}, {"name": "\u0428\u0443\u043c\u0430\u0440\u0438\u0446\u0435", "name:sr": "\u0428\u0443\u043c\u0430\u0440\u0438\u0446\u0435", "name:sr-Latn": "\u0160umarice", "longitude": 43.7264159, "latitude": 20.7603541}, {"name": "\u0421\u0438\u0440\u0447\u0430", "name:sr": "\u0421\u0438\u0440\u0447\u0430", "name:sr-Latn": "Sir\u010da", "longitude": 43.7273789, "latitude": 20.7259507}, {"name": "\u041a\u0440\u0430\u0459\u0435\u0432\u043e", "name:de": "Kraljevo", "name:en": "Kraljevo", "name:hr": "Kraljevo", "name:ru": "\u041a\u0440\u0430\u043b\u0435\u0432\u043e", "name:sl": "Kraljevo", "name:sr": "\u041a\u0440\u0430\u0459\u0435\u0432\u043e", "name:sr-Latn": "Kraljevo", "longitude": 43.72856, "latitude": 20.6934509}, {"name": "\u041c\u0430\u0442\u0430\u0440\u0443\u0448\u043a\u0430 \u0411\u0430\u045a\u0430", "name:sr": "\u041c\u0430\u0442\u0430\u0440\u0443\u0448\u043a\u0430 \u0411\u0430\u045a\u0430", "name:sr-Latn": "Mataru\u0161ka Banja", "longitude": 43.6969848, "latitude": 20.6016322}, {"name": "\u041f\u0440\u043e\u0433\u043e\u0440\u0435\u043b\u0438\u0446\u0430", "name:sr": "\u041f\u0440\u043e\u0433\u043e\u0440\u0435\u043b\u0438\u0446\u0430", "name:sr-Latn": "Progorelica", "longitude": 43.6813495, "latitude": 20.5721815}, {"name": "\u0411\u043e\u0433\u0443\u0442\u043e\u0432\u0430\u0447\u043a\u0430 \u0411\u0430\u045a\u0430", "name:sr": "\u0411\u043e\u0433\u0443\u0442\u043e\u0432\u0430\u0447\u043a\u0430 \u0411\u0430\u045a\u0430", "name:sr-Latn": "Bogutova\u010dka Banja", "longitude": 43.6527791, "latitude": 20.5575185}, {"name": "\u041f\u043e\u043b\u0443\u043c\u0438\u0440", "name:sr": "\u041f\u043e\u043b\u0443\u043c\u0438\u0440", "name:sr-Latn": "Polumir", "longitude": 43.5329006, "latitude": 20.6099163}, {"name": "\u041f\u0443\u0441\u0442\u043e \u041f\u043e\u0459\u0435", "name:sr": "\u041f\u0443\u0441\u0442\u043e \u041f\u043e\u0459\u0435", "name:sr-Latn": "Pusto Polje", "longitude": 43.4931935, "latitude": 20.6106583}, {"name": "\u0423\u0448\u045b\u0435", "name:sr": "\u0423\u0448\u045b\u0435", "name:sr-Latn": "U\u0161\u0107e", "longitude": 43.4654872, "latitude": 20.6243013}, {"name": "\u041b\u043e\u0437\u043d\u043e", "name:sr": "\u041b\u043e\u0437\u043d\u043e", "name:sr-Latn": "Lozno", "longitude": 43.4357983, "latitude": 20.6627275}, {"name": "\u0408\u043e\u0448\u0430\u043d\u0438\u0447\u043a\u0430 \u0411\u0430\u045a\u0430", "name:sr": "\u0408\u043e\u0448\u0430\u043d\u0438\u0447\u043a\u0430 \u0411\u0430\u045a\u0430", "name:sr-Latn": "Jo\u0161ani\u010dka Banja", "longitude": 43.410719, "latitude": 20.6589489}, {"name": "\u041f\u0438\u0441\u043a\u0430\u045a\u0430", "name:sr": "\u041f\u0438\u0441\u043a\u0430\u045a\u0430", "name:sr-Latn": "Piskanja", "longitude": 43.3888535, "latitude": 20.6464813}, {"name": "\u0411\u0440\u0435\u0432\u043d\u0438\u043a", "name:sr": "\u0411\u0440\u0435\u0432\u043d\u0438\u043a", "name:sr-Latn": "Brevnik", "longitude": 43.3558684, "latitude": 20.6450854}, {"name": "\u0420\u0430\u0448\u043a\u0430", "name:en": "Raska", "name:sr": "\u0420\u0430\u0448\u043a\u0430", "name:sr-Latn": "Ra\u0161ka", "longitude": 43.2907918, "latitude": 20.616678}, {"name": "\u041a\u0430\u0437\u043d\u043e\u0432\u0438\u045b\u0438", "name:sr": "\u041a\u0430\u0437\u043d\u043e\u0432\u0438\u045b\u0438", "name:sr-Latn": "Kaznovi\u0107i", "longitude": 43.2603878, "latitude": 20.662196}, {"name": "\u0420\u0443\u0434\u043d\u0438\u0446\u0430", "name:sr": "\u0420\u0443\u0434\u043d\u0438\u0446\u0430", "name:sr-Latn": "Rudnica", "longitude": 43.2374142, "latitude": 20.6808002}, {"name": "Leshak", "name:sq": "Stacioni i Trenit i Leshakut", "name:sr": "\u041b\u0435\u0448\u0430\u043a", "name:sr-Latn": "Le\u0161ak", "longitude": 43.168815, "latitude": 20.7390162}, {"name": "Plehnist\u00eb", "name:sr": "\u041f\u043b\u0430\u043d\u0434\u0438\u0448\u0442\u0435", "name:sr-Latn": "Plandi\u0161te", "longitude": 43.0148166, "latitude": 20.8166181}, {"name": "Han i Elezit", "name:sq": "Han i Elezit", "name:sr": "\u0402\u0435\u043d\u0435\u0440\u0430\u043b \u0408\u0430\u043d\u043a\u043e\u0432\u0438\u045b", "name:sr-Latn": "\u0110eneral Jankovi\u0107", "longitude": 42.1494263, "latitude": 21.2941161}, {"name": "Lugdren", "longitude": 42.6308589, "latitude": 20.8258102}, {"name": "\u041d\u043e\u0432\u0430 \u041f\u0430\u0437\u043e\u0432\u0430", "name:en": "Nova Pazova", "name:sr": "\u041d\u043e\u0432\u0430 \u041f\u0430\u0437\u043e\u0432\u0430", "name:sr-Latn": "Nova Pazova", "longitude": 44.9376742, "latitude": 20.2100069}, {"name": "\u0421\u043c\u0435\u0434\u0435\u0440\u0435\u0432\u0441\u043a\u0430 \u041f\u0430\u043b\u0430\u043d\u043a\u0430", "longitude": 44.3628409, "latitude": 20.959777}, {"name": "\u0417\u0435\u043c\u0443\u043d", "name:de": "Semlin", "name:en": "Zemun", "name:hu": "Zimony", "name:sr": "\u0417\u0435\u043c\u0443\u043d", "name:sr-Latn": "Zemun", "longitude": 44.8367127, "latitude": 20.3717998}, {"name": "\u0417\u0430\u0458\u0435\u0447\u0430\u0440", "name:bg": "\u0417\u0430\u0439\u0447\u0430\u0440", "name:de": "Zaje\u010dar", "name:en": "Zajecar", "name:ro": "Z\u0103iceari", "name:ru": "\u0417\u0430\u0435\u0447\u0430\u0440", "name:sr": "\u0417\u0430\u0458\u0435\u0447\u0430\u0440", "name:sr-Latn": "Zaje\u010dar", "longitude": 43.9048878, "latitude": 22.2729177}, {"name": "\u041d\u0435\u0433\u043e\u0442\u0438\u043d", "name:sr": "\u041d\u0435\u0433\u043e\u0442\u0438\u043d", "name:sr-Latn": "Negotin", "longitude": 44.2289345, "latitude": 22.5401173}, {"name": "\u0421\u0443\u0431\u043e\u0442\u0438\u0446\u0430", "name:hu": "Szabadka", "name:pl": "Subotica", "name:sr": "\u0421\u0443\u0431\u043e\u0442\u0438\u0446\u0430", "name:sr-Latn": "Subotica", "longitude": 46.1019634, "latitude": 19.6712504}, {"name": "\u0421\u0443\u0431\u043e\u0442\u0438\u0446\u0430 \u043f\u0440\u0435\u0434\u0433\u0440\u0430\u0452\u0435", "name:hu": "Szabadka", "name:sr": "\u0421\u0443\u0431\u043e\u0442\u0438\u0446\u0430 \u043f\u0440\u0435\u0434\u0433\u0440\u0430\u0452\u0435", "name:sr-Latn": "Subotica predgra\u0111e", "longitude": 46.1091658, "latitude": 19.6388919}, {"name": "\u041f\u0430\u043b\u0438\u045b", "name:hu": "Palics", "name:sr": "\u041f\u0430\u043b\u0438\u045b", "name:sr-Latn": "Pali\u0107", "longitude": 46.1034122, "latitude": 19.7605979}, {"name": "\u0421\u0435\u043d\u0442\u0430", "name:hu": "Zenta", "name:sr": "\u0421\u0435\u043d\u0442\u0430", "name:sr-Latn": "Senta", "longitude": 45.9296815, "latitude": 20.071685}, {"name": "\u0428\u0430\u0431\u0430\u0446", "name:de": "\u0160abac", "name:en": "Sabac", "name:hr": "\u0160abac", "name:hu": "Szab\u00e1cs", "name:ru": "\u0428\u0430\u0431\u0430\u0446", "name:sl": "\u0160abac", "name:sr": "\u0428\u0430\u0431\u0430\u0446", "name:sr-Latn": "\u0160abac", "longitude": 44.7589136, "latitude": 19.7014928}, {"name": "\u041a\u0440\u0443\u0448\u0435\u0432\u0430\u0446", "name:de": "Kruschewatz", "name:en": "Kru\u0161evac", "name:sr": "\u041a\u0440\u0443\u0448\u0435\u0432\u0430\u0446", "name:sr-Latn": "Kru\u0161evac", "longitude": 43.5875493, "latitude": 21.3274127}, {"name": "\u041f\u0440\u0435\u0448\u0435\u0432\u043e", "name:en": "Presevo", "name:sq": "Presheva", "name:sr": "\u041f\u0440\u0435\u0448\u0435\u0432\u043e", "name:sr-Latn": "Pre\u0161evo", "longitude": 42.3005437, "latitude": 21.6846454}, {"name": "\u041d\u0438\u0448\u043a\u0430 \u0411\u0430\u045a\u0430", "name:en": "Niska Banja", "name:sr": "\u041d\u0438\u0448\u043a\u0430 \u0411\u0430\u045a\u0430", "name:sr-Latn": "Ni\u0161ka Banja", "longitude": 43.3005042, "latitude": 22.0040157}, {"name": "\u0411\u0440\u0435\u0437\u043e\u043d\u0438\u043a", "name:sr": "\u0411\u0440\u0435\u0437\u043e\u043d\u0438\u043a", "name:sr-Latn": "Brezonik", "longitude": 44.1011608, "latitude": 22.0793408}, {"name": "\u0411\u0430\u0447\u043a\u0430 \u0422\u043e\u043f\u043e\u043b\u0430", "name:en": "Backa Topola", "name:hu": "Topolya", "name:sr": "\u0411\u0430\u0447\u043a\u0430 \u0422\u043e\u043f\u043e\u043b\u0430", "name:sr-Latn": "Ba\u010dka Topola", "longitude": 45.8179729, "latitude": 19.6496424}, {"name": "\u041b\u0435\u0441\u043a\u043e\u0432\u0430\u0446", "name:en": "Leskovac", "name:sr": "\u041b\u0435\u0441\u043a\u043e\u0432\u0430\u0446", "name:sr-Latn": "Leskovac", "longitude": 42.9964485, "latitude": 21.9574836}, {"name": "\u0416\u0435\u0434\u043d\u0438\u043a", "name:sr": "\u0416\u0435\u0434\u043d\u0438\u043a", "name:sr-Latn": "\u017dednik", "longitude": 45.9398703, "latitude": 19.6683235}, {"name": "\u0421\u0435\u043b\u0435\u0443\u0448", "longitude": 45.1300119, "latitude": 20.9193579}, {"name": "\u0414\u0440\u0435\u043d\u043e\u0432\u0430\u0447\u043a\u0438 \u041a\u0438\u043a", "name:sr": "\u0414\u0440\u0435\u043d\u043e\u0432\u0430\u0447\u043a\u0438 \u041a\u0438\u043a", "name:sr-Latn": "Drenova\u010dki Kik", "longitude": 44.088042, "latitude": 19.8860018}, {"name": "\u0426\u0440\u0432\u0435\u043d\u043a\u0430", "name:hu": "Cservenka", "name:sr": "\u0426\u0440\u0432\u0435\u043d\u043a\u0430", "name:sr-Latn": "Crvenka", "longitude": 45.650935, "latitude": 19.4517124}, {"name": "Lje\u0161nica", "longitude": 43.0374418, "latitude": 19.7460738}, {"name": "\u0411\u0438\u0441\u0442\u0440\u0438\u0446\u0430 \u043d\u0430 \u041b\u0438\u043c\u0443", "name:sr": "\u0411\u0438\u0441\u0442\u0440\u0438\u0446\u0430 \u043d\u0430 \u041b\u0438\u043c\u0443", "name:sr-Latn": "Bistrica na Limu", "longitude": 43.4832109, "latitude": 19.646331}, {"name": "\u041f\u0440\u0435\u0434\u0435\u0458\u0430\u043d\u0435", "name:en": "Predejane", "name:sr": "\u041f\u0440\u0435\u0434\u0435\u0458\u0430\u043d\u0435", "name:sr-Latn": "Predejane", "longitude": 42.8295859, "latitude": 22.129289}, {"name": "\u0413\u043e\u043b\u0443\u0431\u0438\u045b\u0438", "name:sr": "\u0413\u043e\u043b\u0443\u0431\u0438\u045b\u0438", "name:sr-Latn": "Golubi\u0107i", "longitude": 43.7972375, "latitude": 19.5211245}, {"name": "\u0408\u0430\u0442\u0430\u0440\u0435", "name:sr": "\u0408\u0430\u0442\u0430\u0440\u0435", "name:sr-Latn": "Jatare", "longitude": 43.8027519, "latitude": 19.5181219}, {"name": "\u0428\u0430\u0440\u0433\u0430\u043d \u0412\u0438\u0442\u0430\u0441\u0438", "name:sr": "\u0428\u0430\u0440\u0433\u0430\u043d \u0412\u0438\u0442\u0430\u0441\u0438", "name:sr-Latn": "\u0160argan Vitasi", "longitude": 43.8298885, "latitude": 19.5421702}, {"name": "\u0412\u0435\u0459\u043a\u043e\u0432\u043e", "name:sr": "\u0412\u0435\u0459\u043a\u043e\u0432\u043e", "name:sr-Latn": "Veljkovo", "longitude": 44.1284246, "latitude": 22.6041187}, {"name": "\u0414\u043e\u0431\u0440\u0435 \u0441\u0442\u0440\u0430\u043d\u0435", "name:sr": "\u0414\u043e\u0431\u0440\u0435 \u0441\u0442\u0440\u0430\u043d\u0435", "name:sr-Latn": "Dobre strane", "longitude": 43.5948737, "latitude": 20.5711666}, {"name": "\u0420\u0432\u0430\u0442\u0438", "name:sr": "\u0420\u0432\u0430\u0442\u0438", "name:sr-Latn": "Rvati", "longitude": 43.3266924, "latitude": 20.63706}, {"name": "\u041a\u0459\u0430\u0458\u0438\u045b\u0435\u0432\u043e", "name:hu": "Ker\u00e9ny", "name:sr": "\u041a\u0459\u0430\u0458\u0438\u045b\u0435\u0432\u043e", "name:sr-Latn": "Kljaji\u0107evo", "longitude": 45.765441, "latitude": 19.2731237}, {"alt_name:de": "Syrmisch-Karlowitz", "name": "\u0421\u0440\u0435\u043c\u0441\u043a\u0438 \u041a\u0430\u0440\u043b\u043e\u0432\u0446\u0438", "name:de": "Karlowitz", "name:en": "Sremski Karlovci", "name:hu": "Karl\u00f3ca", "name:sr": "\u0421\u0440\u0435\u043c\u0441\u043a\u0438 \u041a\u0430\u0440\u043b\u043e\u0432\u0446\u0438", "name:sr-Latn": "Sremski Karlovci", "longitude": 45.2077859, "latitude": 19.9298943}, {"name": "\u0423\u0459\u043c\u0430", "name:sr": "\u0423\u0459\u043c\u0430", "name:sr-Latn": "Uljma", "longitude": 45.0511059, "latitude": 21.1555459}, {"name": "\u041f\u0443\u0442\u0438\u043d\u0446\u0438", "name:sr": "\u041f\u0443\u0442\u0438\u043d\u0446\u0438", "name:sr-Latn": "Putinci", "longitude": 44.980638, "latitude": 19.9663189}, {"name": "\u0412\u043e\u0433\u0430\u045a", "name:sr": "\u0412\u043e\u0433\u0430\u045a", "name:sr-Latn": "Voganj", "longitude": 44.9884584, "latitude": 19.7183936}, {"name": "\u0428\u0438\u0434", "name:bs": "\u0160id", "name:de": "Schid", "name:en": "\u0160id", "name:hu": "Sid", "name:ru": "\u0428\u0438\u0434", "name:sr": "\u0428\u0438\u0434", "name:sr-Latn": "\u0160id", "longitude": 45.1175081, "latitude": 19.2216703}, {"name": "\u0421\u0442\u0435\u043f\u0430\u043d\u043e\u0432\u0438\u045b\u0435\u0432\u043e", "name:sr": "\u0421\u0442\u0435\u043f\u0430\u043d\u043e\u0432\u0438\u045b\u0435\u0432\u043e", "name:sr-Latn": "Stepanovi\u0107evo", "longitude": 45.414773, "latitude": 19.7012868}, {"name": "\u0417\u043c\u0430\u0458\u0435\u0432\u043e", "name:en": "Zmajevo", "name:sr": "\u0417\u043c\u0430\u0458\u0435\u0432\u043e", "name:sr-Latn": "Zmajevo", "longitude": 45.4599482, "latitude": 19.673566}, {"name": "\u041f\u0430\u043d\u0447\u0435\u0432\u043e \u0412\u043e\u0458\u043b\u043e\u0432\u0438\u0446\u0430", "name:sr": "\u041f\u0430\u043d\u0447\u0435\u0432\u043e \u0412\u043e\u0458\u043b\u043e\u0432\u0438\u0446\u0430", "name:sr-Latn": "Pan\u010devo Vojlovica", "longitude": 44.8592465, "latitude": 20.6555222}, {"name": "\u041a\u0438\u043a\u0438\u043d\u0434\u0430", "name:de": "Gro\u00dfkikinda", "name:en": "Kikinda", "name:hu": "Nagykikinda", "name:ro": "Chichinda Mare", "name:ru": "\u041a\u0438\u043a\u0438\u043d\u0434\u0430", "name:sk": "Kikinda", "name:sr": "\u041a\u0438\u043a\u0438\u043d\u0434\u0430", "name:sr-Latn": "Kikinda", "longitude": 45.8379255, "latitude": 20.4887835}, {"name": "\u0420\u0438\u0431\u0430\u0440\u0438", "name:sr": "\u0420\u0438\u0431\u0430\u0440\u0438", "name:sr-Latn": "Ribari", "longitude": 44.7165271, "latitude": 19.4207474}, {"name": "\u0412\u0440\u0431\u043d\u0438\u0446\u0430", "name:de": "Vrbnica", "name:fr": "Vrbnica", "name:sr": "\u0412\u0440\u0431\u043d\u0438\u0446\u0430", "name:sr-Latn": "Vrbnica", "longitude": 43.1550654, "latitude": 19.7812415}, {"name": "\u041f\u0430\u043d\u0442\u0435\u043b\u0435\u0458", "name:sr-Latn": "Pantelej", "longitude": 43.340042, "latitude": 21.9158347}, {"name": "\u041c\u0430\u0442\u0435\u0458\u0435\u0432\u0430\u0446", "name:sr": "\u041c\u0430\u0442\u0435\u0458\u0435\u0432\u0430\u0446", "name:sr-Latn": "Matejevac", "longitude": 43.3492214, "latitude": 21.9560094}, {"name": "\u0413\u0440\u0430\u043c\u0430\u0434\u0430", "name:sr": "\u0413\u0440\u0430\u043c\u0430\u0434\u0430", "name:sr-Latn": "Gramada", "longitude": 43.3777182, "latitude": 22.0479152}, {"name": "\u0413\u043e\u0440\u045a\u0435 \u0417\u0443\u043d\u0438\u0447\u0435", "name:sr": "\u0413\u043e\u0440\u045a\u0435 \u0417\u0443\u043d\u0438\u0447\u0435", "name:sr-Latn": "Gornje Zuni\u010de", "longitude": 43.6004411, "latitude": 22.2715736}, {"name": "\u0414\u043e\u045a\u0435 \u0417\u0443\u043d\u0438\u0447\u0435", "name:sr": "\u0414\u043e\u045a\u0435 \u0417\u0443\u043d\u0438\u0447\u0435", "name:sr-Latn": "Donje Zuni\u010de", "longitude": 43.6241516, "latitude": 22.2738397}, {"name": "\u0412\u043e\u0434\u0430\u045a", "name:sr": "\u0412\u043e\u0434\u0430\u045a", "name:sr-Latn": "Vodanj", "longitude": 44.5906544, "latitude": 20.835393}, {"name": "\u041c\u0430\u043b\u0430 \u041f\u043b\u0430\u043d\u0430", "name:en": "Mala Plana", "name:sr": "\u041c\u0430\u043b\u0430 \u041f\u043b\u0430\u043d\u0430", "name:sr-Latn": "Mala Plana", "longitude": 44.3368602, "latitude": 21.0349553}, {"name": "\u041f\u0440\u0438\u0458\u0435\u043f\u043e\u0459\u0435 \u0442\u0435\u0440\u0435\u0442\u043d\u0430", "name:sr": "\u041f\u0440\u0438\u0458\u0435\u043f\u043e\u0459\u0435 \u0442\u0435\u0440\u0435\u0442\u043d\u0430", "name:sr-Latn": "Prijepolje teretna", "longitude": 43.3664514, "latitude": 19.6335099}, {"name": "Pej\u00eb", "name:en": "Pej\u00eb", "name:sr": "\u041f\u0435\u045b", "longitude": 42.6604877, "latitude": 20.3049484}, {"alt_name": "Drenica,Stanica Drenica", "name": "Drenas", "name:alt": "\u017delezni\u010dka Stanica Drenica", "longitude": 42.6244027, "latitude": 20.8978942}, {"name": "\u0411\u0430\u0447\u043a\u0438 \u0412\u0438\u043d\u043e\u0433\u0440\u0430\u0434\u0438", "name:hu": "Kir\u00e1lyhalom", "name:sr": "\u0411\u0430\u0447\u043a\u0438 \u0412\u0438\u043d\u043e\u0433\u0440\u0430\u0434\u0438", "name:sr-Latn": "Ba\u010dki Vinogradi", "longitude": 46.1276843, "latitude": 19.8579773}, {"name": "\u0417\u043b\u0430\u0442\u0438\u0431\u043e\u0440", "name:sr": "\u0417\u043b\u0430\u0442\u0438\u0431\u043e\u0440", "name:sr-Latn": "Zlatibor", "longitude": 43.7350387, "latitude": 19.6144021}, {"name": "\u0410\u043b\u0435\u043a\u0441\u0438\u043d\u0430\u0446", "name:en": "Aleksinac", "name:ru": "\u0410\u043b\u0435\u043a\u0441\u0438\u043d\u0430\u0446", "name:sr": "\u0410\u043b\u0435\u043a\u0441\u0438\u043d\u0430\u0446", "name:sr-Latn": "Aleksinac", "longitude": 43.5081673, "latitude": 21.6934397}, {"name": "\u0411\u0443\u0458\u0430\u043d\u043e\u0432\u0430\u0446", "name:de": "Bujanovac", "name:en": "Bujanovac", "name:sq": "Bujanoci", "name:sr": "\u0411\u0443\u0458\u0430\u043d\u043e\u0432\u0430\u0446", "name:sr-Latn": "Bujanovac", "longitude": 42.4396374, "latitude": 21.7583925}, {"name": "\u0420\u0438\u0441\u0442\u043e\u0432\u0430\u0446", "name:sr": "\u0420\u0438\u0441\u0442\u043e\u0432\u0430\u0446", "name:sr-Latn": "Ristovac", "longitude": 42.4663338, "latitude": 21.8427883}, {"name": "\u0412\u0440\u0430\u045a\u0435", "name:bg": "\u0412\u0440\u0430\u043d\u044f", "name:de": "Vranje", "name:el": "\u0392\u03c1\u03ac\u03bd\u03b9\u03b5", "name:en": "Vranje", "name:gr": "\u0392\u03b1\u03c1\u03b1\u03bd\u03b5\u03b9\u03b1", "name:hr": "Vranje", "name:ru": "\u0412\u0440\u0430\u043d\u0435", "name:sr": "\u0412\u0440\u0430\u045a\u0435", "name:sr-Latn": "Vranje", "name:tr": "Vranya", "longitude": 42.5372678, "latitude": 21.9228433}, {"name": "\u0421\u0442\u0430\u043b\u0430\u045b", "name:sr": "\u0421\u0442\u0430\u043b\u0430\u045b", "name:sr-Latn": "Stala\u0107", "longitude": 43.6822332, "latitude": 21.4149603}, {"name": "\u0422\u0440\u0443\u043f\u0430\u043b\u0435", "name:en": "Trupale", "name:sr": "\u0422\u0440\u0443\u043f\u0430\u043b\u0435", "name:sr-Latn": "Trupale", "longitude": 43.3575802, "latitude": 21.8190728}, {"name": "\u041d\u0438\u0448", "name:sr": "\u041d\u0438\u0448", "name:sr-Latn": "Ni\u0161", "longitude": 43.3166079, "latitude": 21.877303}, {"name": "\u0420\u0435\u0447\u0438\u0446\u0430", "name:en": "Recica", "name:sr": "\u0420\u0435\u0447\u0438\u0446\u0430", "name:sr-Latn": "Re\u010dica", "longitude": 43.1938665, "latitude": 21.6941994}, {"name": "\u0416\u0438\u0442\u043e\u0440\u0430\u0452\u0430 \u0426\u0435\u043d\u0442\u0430\u0440", "name:sr": "\u0416\u0438\u0442\u043e\u0440\u0430\u0452\u0430 \u0426\u0435\u043d\u0442\u0430\u0440", "name:sr-Latn": "\u017ditora\u0111a Centar", "longitude": 43.1893092, "latitude": 21.7130794}, {"name": "Prishtin\u00eb", "longitude": 42.658934, "latitude": 21.151067}, {"name": "\u0412\u043b\u0430\u043e\u043b\u0435 \u0421\u0435\u043b\u043e", "name:sr": "\u0412\u043b\u0430\u043e\u043b\u0435 \u0421\u0435\u043b\u043e", "name:sr-Latn": "Vlaole Selo", "longitude": 44.2705775, "latitude": 21.9807865}, {"name": "\u0414\u0435\u0431\u0435\u043b\u0438 \u041b\u0443\u0433", "name:en": "Debeli Lug", "name:sr": "\u0414\u0435\u0431\u0435\u043b\u0438 \u041b\u0443\u0433", "name:sr-Latn": "Debeli Lug", "longitude": 44.3656569, "latitude": 21.9089851}, {"name": "\u041c\u0430\u0458\u0434\u0430\u043d\u043f\u0435\u043a", "longitude": 44.3819166, "latitude": 21.8892784}, {"name": "\u0428\u0443\u0448\u0443\u043b\u0430\u0458\u043a\u0430", "name:sr": "\u0428\u0443\u0448\u0443\u043b\u0430\u0458\u043a\u0430", "name:sr-Latn": "\u0160u\u0161ulajka", "longitude": 44.2153554, "latitude": 22.0202821}, {"name": "\u0412\u043e\u043b\u0443\u0458\u0430", "name:en": "Voluja", "name:sr": "\u0412\u043e\u043b\u0443\u0458\u0430", "name:sr-Latn": "Voluja", "longitude": 44.4836999, "latitude": 21.7787428}, {"name": "\u041f\u0435\u0447\u0435\u045a\u0435\u0432\u0446\u0435", "name:en": "Pecenjevce", "name:sr": "\u041f\u0435\u0447\u0435\u045a\u0435\u0432\u0446\u0435", "name:sr-Latn": "Pe\u010denjevce", "longitude": 43.1001618, "latitude": 21.9324976}, {"name": "\u041a\u043e\u0432\u0438\u0459\u0430\u0447\u0430", "name:en": "Koviljaca", "name:sr": "\u041a\u043e\u0432\u0438\u0459\u0430\u0447\u0430", "name:sr-Latn": "Kovilja\u010da", "longitude": 44.5171004, "latitude": 19.1619706}, {"name": "\u041b\u043e\u0437\u043d\u0438\u0446\u0430 \u0444\u0430\u0431\u0440\u0438\u043a\u0430", "name:sr": "\u041b\u043e\u0437\u043d\u0438\u0446\u0430 \u0444\u0430\u0431\u0440\u0438\u043a\u0430", "name:sr-Latn": "Loznica fabrika", "longitude": 44.5300878, "latitude": 19.201691}, {"name": "\u041b\u0438\u043f\u043d\u0438\u0446\u0430", "name:sr": "\u041b\u0438\u043f\u043d\u0438\u0446\u0430", "name:sr-Latn": "Lipnica", "longitude": 44.57242, "latitude": 19.2704512}, {"name": "\u041f\u0440\u043e\u043a\u0443\u043f\u0459\u0435", "name:de": "Prokuplje", "name:en": "Prokuplje", "name:sr": "\u041f\u0440\u043e\u043a\u0443\u043f\u0459\u0435", "name:sr-Latn": "Prokuplje", "longitude": 43.2281443, "latitude": 21.592906}, {"name": "\u0421\u0435\u0432\u043e\u0458\u043d\u043e", "name:en": "Sevojno", "name:sr": "\u0421\u0435\u0432\u043e\u0458\u043d\u043e", "name:sr-Latn": "Sevojno", "longitude": 43.8377952, "latitude": 19.9044591}, {"name": "\u0420\u0430\u0436\u0430\u043d\u0430", "name:sr": "\u0420\u0430\u0436\u0430\u043d\u0430", "name:sr-Latn": "Ra\u017eana", "longitude": 44.0606429, "latitude": 19.9086884}, {"name": "\u041b\u0435\u0441\u043a\u043e\u0432\u0438\u0446\u0435", "name:sr": "\u041b\u0435\u0441\u043a\u043e\u0432\u0438\u0446\u0435", "name:sr-Latn": "Leskovice", "longitude": 44.1727768, "latitude": 19.867844}, {"name": "\u0411\u0430\u0440\u043b\u043e\u0432\u043e", "name:de": "Barlovo", "name:en": "Barlovo", "name:sr": "\u0411\u0430\u0440\u043b\u043e\u0432\u043e", "name:sr-Latn": "Barlovo", "longitude": 43.1743778, "latitude": 21.3500384}, {"name": "\u041f\u043b\u043e\u0447\u043d\u0438\u043a", "name:en": "Plocnik", "name:sr": "\u041f\u043b\u043e\u0447\u043d\u0438\u043a", "name:sr-Latn": "Plo\u010dnik", "longitude": 43.2071995, "latitude": 21.3628086}, {"name": "\u0411\u0440\u0435\u0441\u043d\u0438\u0447\u0438\u045b\u0438", "name:en": "Bresnicici", "name:sr": "\u0411\u0440\u0435\u0441\u043d\u0438\u0447\u0438\u045b\u0438", "name:sr-Latn": "Bresni\u010di\u0107i", "longitude": 43.2421066, "latitude": 21.4480535}, {"name": "\u041f\u0435\u043f\u0435\u0459\u0435\u0432\u0430\u0446", "name:en": "Pepeljevac", "name:sr": "\u041f\u0435\u043f\u0435\u0459\u0435\u0432\u0430\u0446", "name:sr-Latn": "Pepeljevac", "longitude": 43.1480689, "latitude": 21.3059821}, {"name": "\u041a\u043e\u0441\u0430\u043d\u0438\u0446\u0430", "name:sr": "\u041a\u043e\u0441\u0430\u043d\u0438\u0446\u0430", "name:sr-Latn": "Kosanica", "longitude": 42.9770587, "latitude": 21.2989466}, {"name": "\u0412\u0430\u0441\u0438\u0459\u0435\u0432\u0430\u0446 \u0441\u0442\u0430\u0458\u0430\u043b\u0438\u0448\u0442\u0435", "name:sr": "\u0412\u0430\u0441\u0438\u0459\u0435\u0432\u0430\u0446 \u0441\u0442\u0430\u0458\u0430\u043b\u0438\u0448\u0442\u0435", "name:sr-Latn": "Vasiljevac stajali\u0161te", "longitude": 42.9348843, "latitude": 21.2850907}, {"name": "\u0420\u0430\u0434\u0430\u0459", "name:sr": "\u0420\u0430\u0434\u0430\u0459", "name:sr-Latn": "Radalj", "longitude": 44.4132284, "latitude": 19.1490523}, {"name": "\u0417\u0432\u043e\u0440\u043d\u0438\u043a", "name:de": "Zvornik", "name:en": "Zvornik", "name:sr": "\u0417\u0432\u043e\u0440\u043d\u0438\u043a", "name:sr-Latn": "Zvornik", "longitude": 44.4003018, "latitude": 19.1215998}, {"name": "\u0414\u043e\u045a\u0430 \u0411\u043e\u0440\u0438\u043d\u0430", "name:sr": "\u0414\u043e\u045a\u0430 \u0411\u043e\u0440\u0438\u043d\u0430", "name:sr-Latn": "Donja Borina", "longitude": 44.4396261, "latitude": 19.1533612}, {"name": "\u0411\u0440\u0430\u0441\u0438\u043d\u0430", "name:en": "Brasina", "name:sr": "\u0411\u0440\u0430\u0441\u0438\u043d\u0430", "name:sr-Latn": "Brasina", "longitude": 44.4598899, "latitude": 19.14724}, {"name": "\u0422\u0443\u0431\u0438\u045b\u0438", "name:sr": "\u0422\u0443\u0431\u0438\u045b\u0438", "name:sr-Latn": "Tubi\u0107i", "longitude": 43.9730022, "latitude": 19.9538892}, {"name": "\u0413\u0440\u0435\u0458\u0430\u0447", "name:en": "Greyach", "name:ru": "\u0413\u0440\u0435\u0439\u0430\u0447", "name:sr": "\u0413\u0440\u0435\u0458\u0430\u0447", "name:sr-Latn": "Greja\u010d", "longitude": 43.4224386, "latitude": 21.7477976}, {"name": "\u0421\u0443\u0448\u0438\u0446\u0430", "name:en": "Susica", "name:sr": "\u0421\u0443\u0448\u0438\u0446\u0430", "name:sr-Latn": "Su\u0161ica", "longitude": 43.7886892, "latitude": 19.7529074}, {"name": "\u041f\u043e\u0436\u0430\u0440\u0435\u0432\u0430\u0446", "name:en": "Pozarevac", "name:sr": "\u041f\u043e\u0436\u0430\u0440\u0435\u0432\u0430\u0446", "name:sr-Latn": "Po\u017earevac", "longitude": 44.6140312, "latitude": 21.1870761}, {"name": "\u041c\u0430\u043b\u0430 \u041a\u0440\u0441\u043d\u0430", "name:en": "Mala Krsna", "name:sr": "\u041c\u0430\u043b\u0430 \u041a\u0440\u0441\u043d\u0430", "name:sr-Latn": "Mala Krsna", "longitude": 44.5846832, "latitude": 21.0024483}, {"name": "\u041e\u0432\u0447\u0430\u0440 \u0411\u0430\u045a\u0430", "name:sr": "\u041e\u0432\u0447\u0430\u0440 \u0411\u0430\u045a\u0430", "name:sr-Latn": "Ov\u010dar Banja", "longitude": 43.9034825, "latitude": 20.1927366}, {"name": "Kru\u0161evo", "longitude": 43.0023523, "latitude": 19.735084}, {"name": "\u041a\u043e\u0441\u0430\u043d\u0447\u0438\u045b \u0418\u0432\u0430\u043d", "name:sr": "\u041a\u043e\u0441\u0430\u043d\u0447\u0438\u045b \u0418\u0432\u0430\u043d", "name:sr-Latn": "Kosan\u010di\u0107 Ivan", "longitude": 42.9584006, "latitude": 21.2873039}, {"name": "\u041f\u0430\u043d\u0447\u0435\u0432\u0430\u0447\u043a\u0438 \u043c\u043e\u0441\u0442", "name:sr": "\u041f\u0430\u043d\u0447\u0435\u0432\u0430\u0447\u043a\u0438 \u043c\u043e\u0441\u0442", "name:sr-Latn": "Pan\u010deva\u010dki most", "longitude": 44.8200339, "latitude": 20.4903693}, {"name": "\u041a\u0430\u0440\u0430\u0452\u043e\u0440\u0452\u0435\u0432 \u043f\u0430\u0440\u043a", "name:en": "Karadjordje's Park", "name:ru": "\u041a\u0430\u0440\u0430\u0434\u0436\u043e\u0440\u0434\u0436\u0435\u0432 \u043f\u0430\u0440\u043a", "name:sr": "\u041a\u0430\u0440\u0430\u0452\u043e\u0440\u0452\u0435\u0432 \u043f\u0430\u0440\u043a", "name:sr-Latn": "Kara\u0111or\u0111ev park", "longitude": 44.7938465, "latitude": 20.4660021}, {"name": "\u041d\u043e\u0432\u0438 \u0411\u0435\u0447\u0435\u0458", "name:de": "Neu-Betsche", "name:en": "Novi Becej", "name:hu": "T\u00f6r\u00f6kbecse", "name:ru": "\u041d\u043e\u0432\u0438 \u0411\u0435\u0447\u0435\u0439", "name:sr": "\u041d\u043e\u0432\u0438 \u0411\u0435\u0447\u0435\u0458", "name:sr-Latn": "Novi Be\u010dej", "longitude": 45.6038174, "latitude": 20.1524238}, {"name": "\u0421\u0430\u0440\u0430\u043e\u0440\u0446\u0438", "name:sr": "\u0421\u0430\u0440\u0430\u043e\u0440\u0446\u0438", "name:sr-Latn": "Saraorci", "longitude": 44.4896291, "latitude": 21.0689258}, {"name": "Vranjina", "name:sr": "\u0412\u0440\u0430\u045a\u0438\u043d\u0430", "longitude": 42.2784658, "latitude": 19.1292583}, {"name": "\u041a\u0443\u043a\u0443\u0458\u0435\u0432\u0446\u0438 - \u0415\u0440\u0434\u0435\u0432\u0438\u043a", "name:en": "Kukujevci - Erdevik", "name:sr": "\u041a\u0443\u043a\u0443\u0458\u0435\u0432\u0446\u0438 - \u0415\u0440\u0434\u0435\u0432\u0438\u043a", "name:sr-Latn": "Kukujevci - Erdevik", "longitude": 45.0623394, "latitude": 19.3426453}, {"name": "\u041c\u0430\u0440\u0442\u0438\u043d\u0446\u0438", "name:hu": "Sz\u00e1vaszentm\u00e1rton", "name:sr": "\u041c\u0430\u0440\u0442\u0438\u043d\u0446\u0438", "name:sr-Latn": "Martinci", "longitude": 45.0209702, "latitude": 19.4683088}, {"name": "\u0410\u0434\u0440\u0430\u043d\u0438", "name:sr": "\u0410\u0434\u0440\u0430\u043d\u0438", "name:sr-Latn": "Adrani", "longitude": 43.7653286, "latitude": 20.6286243}, {"name": "\u0410\u0434\u0440\u043e\u0432\u0430\u0446", "name:en": "Adrovac", "name:ru": "\u0410\u0434\u0440\u043e\u0432\u0430\u0446", "name:sr": "\u0410\u0434\u0440\u043e\u0432\u0430\u0446", "name:sr-Latn": "Adrovac", "longitude": 43.5215104, "latitude": 21.6535043}, {"name": "\u0410\u043b\u0435\u043a\u0441\u0430 \u0428\u0430\u043d\u0442\u0438\u045b", "name:en": "Aleksa Santic", "name:hu": "Babapuszta", "name:sr": "\u0410\u043b\u0435\u043a\u0441\u0430 \u0428\u0430\u043d\u0442\u0438\u045b", "name:sr-Latn": "Aleksa \u0160anti\u0107", "longitude": 45.9247571, "latitude": 19.3488783}, {"name": "\u0410\u043b\u0435\u043a\u0441\u0430\u043d\u0434\u0440\u043e\u0432\u043e \u043f\u0440\u0435\u0434\u0433\u0440\u0430\u0452\u0435", "name:sr": "\u0410\u043b\u0435\u043a\u0441\u0430\u043d\u0434\u0440\u043e\u0432\u043e \u043f\u0440\u0435\u0434\u0433\u0440\u0430\u0452\u0435", "name:sr-Latn": "Aleksandrovo predgra\u0111e", "longitude": 46.0663635, "latitude": 19.6878986}, {"name": "\u0411\u0430\u0433\u0440\u0434\u0430\u043d", "name:en": "Bagrdan", "name:sr": "\u0411\u0430\u0433\u0440\u0434\u0430\u043d", "name:sr-Latn": "Bagrdan", "longitude": 44.0831647, "latitude": 21.1801143}, {"name": "\u0411\u0430\u043b\u0443\u0433\u0430", "name:sr": "\u0411\u0430\u043b\u0443\u0433\u0430", "name:sr-Latn": "Baluga", "longitude": 43.8573914, "latitude": 20.4198139}, {"name": "\u041a\u0440\u0438\u0432\u0435\u0459\u0441\u043a\u0438 \u043c\u043e\u0441\u0442", "name:sr": "\u041a\u0440\u0438\u0432\u0435\u0459\u0441\u043a\u0438 \u043c\u043e\u0441\u0442", "name:sr-Latn": "Kriveljski most", "longitude": 44.167585, "latitude": 22.0182152}, {"name": "\u0428\u0435\u0431\u0435\u0448\u0438\u045b", "name:hu": "Sebesicspuszta", "name:sr": "\u0428\u0435\u0431\u0435\u0448\u0438\u045b", "name:sr-Latn": "\u0160ebe\u0161i\u0107", "longitude": 46.0846577, "latitude": 19.5889142}, {"name": "\u0409\u0443\u0442\u043e\u0432\u043e", "name:hu": "M\u00e9rges", "name:sr": "\u0409\u0443\u0442\u043e\u0432\u043e", "name:sr-Latn": "Ljutovo", "longitude": 46.0590196, "latitude": 19.5365467}, {"name": "\u0422\u0430\u0432\u0430\u043d\u043a\u0443\u0442", "name:en": "Tavankut", "name:hu": "Tavank\u00fat", "name:sr": "\u0422\u0430\u0432\u0430\u043d\u043a\u0443\u0442", "name:sr-Latn": "Tavankut", "longitude": 46.042579, "latitude": 19.5029825}, {"name": "\u0421\u043a\u0435\u043d\u0434\u0435\u0440\u0435\u0432\u043e", "name:hu": "Kunbaja;Tavank\u00fati meg\u00e1ll\u00f3", "name:sr": "\u0421\u043a\u0435\u043d\u0434\u0435\u0440\u0435\u0432\u043e", "name:sr-Latn": "Skenderevo", "longitude": 46.0242494, "latitude": 19.4657594}, {"name": "\u0421\u0432\u0435\u0442\u043e\u0437\u0430\u0440 \u041c\u0438\u043b\u0435\u0442\u0438\u045b", "name:sr": "\u0421\u0432\u0435\u0442\u043e\u0437\u0430\u0440 \u041c\u0438\u043b\u0435\u0442\u0438\u045b", "name:sr-Latn": "Svetozar Mileti\u0107", "longitude": 45.8431437, "latitude": 19.2098295}, {"name": "\u0413\u0430\u0431\u0440\u0438\u045b", "name:en": "Gabric", "name:hu": "V\u00f6r\u00f6segyh\u00e1za", "name:sr": "\u0413\u0430\u0431\u0440\u0438\u045b", "name:sr-Latn": "Gabri\u0107", "longitude": 46.0037348, "latitude": 19.7949695}, {"name": "\u041e\u0440\u043e\u043c", "name:en": "Orom", "name:hu": "Orom", "name:sr": "\u041e\u0440\u043e\u043c", "name:sr-Latn": "Orom", "longitude": 45.9780737, "latitude": 19.8317736}, {"name": "\u0414\u043e\u043b\u0438\u043d\u0435", "name:hu": "V\u00f6lgyes", "name:sr": "\u0414\u043e\u043b\u0438\u043d\u0435", "name:sr-Latn": "Doline", "longitude": 45.9580986, "latitude": 19.8719864}, {"name": "\u0413\u043e\u0440\u045a\u0438 \u0411\u0440\u0435\u0433", "name:en": "Gornji Breg", "name:hu": "Fels\u0151hegy", "name:sr": "\u0413\u043e\u0440\u045a\u0438 \u0411\u0440\u0435\u0433", "name:sr-Latn": "Gornji Breg", "longitude": 45.9321941, "latitude": 20.0158973}, {"name": "\u0427\u043e\u043a\u0430", "name:en": "Coka", "name:sr": "\u0427\u043e\u043a\u0430", "name:sr-Latn": "\u010coka", "longitude": 45.9429697, "latitude": 20.1355286}, {"name": "\u041e\u0441\u0442\u043e\u0458\u0438\u045b\u0435\u0432\u043e", "name:en": "Ostojicevo", "name:sr": "\u041e\u0441\u0442\u043e\u0458\u0438\u045b\u0435\u0432\u043e", "name:sr-Latn": "Ostoji\u0107evo", "longitude": 45.8911338, "latitude": 20.15274}, {"name": "\u041f\u0430\u0434\u0435\u0458", "name:sr": "\u041f\u0430\u0434\u0435\u0458", "name:sr-Latn": "Padej", "longitude": 45.8295499, "latitude": 20.1716416}, {"name": "\u0411\u043e\u0447\u0430\u0440", "name:en": "Bocar", "name:hu": "Bocs\u00e1r", "name:sr": "\u0411\u043e\u0447\u0430\u0440", "name:sr-Latn": "Bo\u010dar", "longitude": 45.7612169, "latitude": 20.2854955}, {"name": "\u0411\u0430\u043d\u0430\u0442\u0441\u043a\u043e \u041c\u0438\u043b\u043e\u0448\u0435\u0432\u043e", "name:en": "Banatsko Milosevo", "name:hu": "Karlova", "name:sr": "\u0411\u0430\u043d\u0430\u0442\u0441\u043a\u043e \u041c\u0438\u043b\u043e\u0448\u0435\u0432\u043e", "name:sr-Latn": "Banatsko Milo\u0161evo", "longitude": 45.7263452, "latitude": 20.3200029}, {"name": "\u041b\u043e\u0432\u045b\u0435\u043d\u0430\u0446", "name:en": "Lovcenac", "name:hu": "Szeghegy", "name:sr": "\u041b\u043e\u0432\u045b\u0435\u043d\u0430\u0446", "name:sr-Latn": "Lov\u0107enac", "longitude": 45.6736016, "latitude": 19.6492488}, {"name": "\u041c\u0430\u043b\u0438 \u0418\u0452\u043e\u0448 \u041f\u043e\u0459\u0435", "name:sr": "\u041c\u0430\u043b\u0438 \u0418\u0452\u043e\u0448 \u041f\u043e\u0459\u0435", "name:sr-Latn": "Mali I\u0111o\u0161 Polje", "longitude": 45.7457749, "latitude": 19.6489599}, {"name": "\u041d\u0430\u0443\u043c\u043e\u0432\u0438\u045b\u0435\u0432\u043e", "name:en": "Naumovicevo", "name:hu": "Somsichtanya", "name:sr": "\u041d\u0430\u0443\u043c\u043e\u0432\u0438\u045b\u0435\u0432\u043e", "name:sr-Latn": "Naumovi\u0107evo", "longitude": 46.0235676, "latitude": 19.6811931}, {"name": "\u0412\u0435\u0440\u0443\u0448\u0438\u045b", "name:sr": "\u0412\u0435\u0440\u0443\u0448\u0438\u045b", "name:sr-Latn": "Veru\u0161i\u0107", "longitude": 45.9859631, "latitude": 19.6755394}, {"name": "\u0421\u0442\u0430\u0440\u043e \u0422\u0440\u0443\u0431\u0430\u0440\u0435\u0432\u043e", "name:sr": "\u0421\u0442\u0430\u0440\u043e \u0422\u0440\u0443\u0431\u0430\u0440\u0435\u0432\u043e", "name:sr-Latn": "Staro Trubarevo", "longitude": 43.6099731, "latitude": 21.4859458}, {"name": "\u041d\u0438\u043a\u0438\u043d\u0446\u0438", "name:sr": "\u041d\u0438\u043a\u0438\u043d\u0446\u0438", "name:sr-Latn": "Nikinci", "longitude": 44.8575835, "latitude": 19.8211957}, {"name": "\u0411\u0443\u0452\u0430\u043d\u043e\u0432\u0446\u0438", "name:sr": "\u0411\u0443\u0452\u0430\u043d\u043e\u0432\u0446\u0438", "name:sr-Latn": "Bu\u0111anovci", "longitude": 44.8973228, "latitude": 19.8562341}, {"name": "\u041f\u043b\u0430\u0442\u0438\u0447\u0435\u0432\u043e", "name:sr": "\u041f\u043b\u0430\u0442\u0438\u0447\u0435\u0432\u043e", "name:sr-Latn": "Plati\u010devo", "longitude": 44.8294941, "latitude": 19.7788528}, {"name": "\u0411\u0430\u043d\u0430\u0442\u0441\u043a\u043e \u041d\u043e\u0432\u043e \u0421\u0435\u043b\u043e", "name:en": "Banatsko Novo Selo", "name:sr": "\u0411\u0430\u043d\u0430\u0442\u0441\u043a\u043e \u041d\u043e\u0432\u043e \u0421\u0435\u043b\u043e", "name:sr-Latn": "Banatsko Novo Selo", "longitude": 44.9763701, "latitude": 20.7856585}, {"name": "\u0411\u0430\u043d\u0430\u0442\u0441\u043a\u0438 \u041a\u0430\u0440\u043b\u043e\u0432\u0430\u0446", "name:en": "Banatski Karlovac", "name:hu": "Nagyk\u00e1rolyfalva", "name:sr": "\u0411\u0430\u043d\u0430\u0442\u0441\u043a\u0438 \u041a\u0430\u0440\u043b\u043e\u0432\u0430\u0446", "name:sr-Latn": "Banatski Karlovac", "longitude": 45.0557832, "latitude": 21.0162563}, {"name": "\u041d\u0438\u043a\u043e\u043b\u0438\u043d\u0446\u0438", "name:sr": "\u041d\u0438\u043a\u043e\u043b\u0438\u043d\u0446\u0438", "name:sr-Latn": "Nikolinci", "longitude": 45.0604904, "latitude": 21.0662095}, {"name": "\u0412\u043b\u0430\u0458\u043a\u043e\u0432\u0430\u0446", "name:sr": "\u0412\u043b\u0430\u0458\u043a\u043e\u0432\u0430\u0446", "name:sr-Latn": "Vlajkovac", "longitude": 45.0664852, "latitude": 21.2114653}, {"name": "\u0421\u0435\u0431\u0435\u0448", "name:sr": "\u0421\u0435\u0431\u0435\u0448", "name:sr-Latn": "Sebe\u0161", "longitude": 44.8612511, "latitude": 20.5195171}, {"name": "\u0420\u0438\u043f\u0430\u045a \u0442\u0443\u043d\u0435\u043b", "name:sr": "\u0420\u0438\u043f\u0430\u045a \u0442\u0443\u043d\u0435\u043b", "name:sr-Latn": "Ripanj tunel", "longitude": 44.6003147, "latitude": 20.5321424}, {"name": "\u0420\u0430\u0459\u0430", "name:sr": "\u0420\u0430\u0459\u0430", "name:sr-Latn": "Ralja", "longitude": 44.5680929, "latitude": 20.5613006}, {"name": "\u0420\u0430\u0442\u0430\u0440\u0435", "name:sr": "\u0420\u0430\u0442\u0430\u0440\u0435", "name:sr-Latn": "Ratare", "longitude": 44.3680557, "latitude": 20.8665908}, {"name": "\u0412\u0435\u043b\u0438\u043a\u043e \u041e\u0440\u0430\u0448\u0458\u0435", "name:sr": "\u0412\u0435\u043b\u0438\u043a\u043e \u041e\u0440\u0430\u0448\u0458\u0435", "name:sr-Latn": "Veliko Ora\u0161je", "longitude": 44.3725632, "latitude": 21.078363}, {"name": "\u041a\u0440\u045a\u0435\u0432\u043e-\u0422\u0440\u043d\u043e\u0432\u0447\u0435", "name:sr": "\u041a\u0440\u045a\u0435\u0432\u043e-\u0422\u0440\u043d\u043e\u0432\u0447\u0435", "name:sr-Latn": "Krnjevo-Trnov\u010de", "longitude": 44.410286, "latitude": 21.0727624}, {"name": "\u041c\u0438\u043b\u043e\u0448\u0435\u0432\u0430\u0446", "name:sr": "\u041c\u0438\u043b\u043e\u0448\u0435\u0432\u0430\u0446", "name:sr-Latn": "Milo\u0161evac", "longitude": 44.4384165, "latitude": 21.0762674}, {"name": "\u041b\u043e\u0437\u043e\u0432\u0438\u043a-\u0421\u0430\u0440\u0430\u043e\u0440\u0446\u0438", "name:sr": "\u041b\u043e\u0437\u043e\u0432\u0438\u043a-\u0421\u0430\u0440\u0430\u043e\u0440\u0446\u0438", "name:sr-Latn": "Lozovik-Saraorci", "longitude": 44.4770299, "latitude": 21.0702398}, {"name": "\u041b\u0443\u0433\u0430\u0432\u0447\u0438\u043d\u0430", "name:en": "Lugavcina", "name:sr": "\u041b\u0443\u0433\u0430\u0432\u0447\u0438\u043d\u0430", "name:sr-Latn": "Lugav\u010dina", "longitude": 44.5205012, "latitude": 21.0633588}, {"name": "\u041e\u0441\u0438\u043f\u0430\u043e\u043d\u0438\u0446\u0430", "name:en": "Osipaonica", "name:sr": "\u041e\u0441\u0438\u043f\u0430\u043e\u043d\u0438\u0446\u0430", "name:sr-Latn": "Osipaonica", "longitude": 44.5347305, "latitude": 21.0561886}, {"name": "\u0421\u043a\u043e\u0431\u0430\u0459", "name:sr": "\u0421\u043a\u043e\u0431\u0430\u0459", "name:sr-Latn": "Skobalj", "longitude": 44.5624701, "latitude": 21.0214687}, {"name": "\u0412\u0440\u0430\u043d\u043e\u0432\u043e", "name:sr": "\u0412\u0440\u0430\u043d\u043e\u0432\u043e", "name:sr-Latn": "Vranovo", "longitude": 44.5975088, "latitude": 20.9885633}, {"name": "\u0420\u0430\u0434\u0438\u043d\u0430\u0446", "name:en": "Radinac", "name:sr": "\u0420\u0430\u0434\u0438\u043d\u0430\u0446", "name:sr-Latn": "Radinac", "longitude": 44.6166776, "latitude": 20.9683807}, {"name": "\u0413\u043e\u0434\u043e\u043c\u0438\u043d", "name:sr": "\u0413\u043e\u0434\u043e\u043c\u0438\u043d", "name:sr-Latn": "Godomin", "longitude": 44.6449389, "latitude": 20.952628}, {"name": "\u0420\u0430\u0459\u0430 \u0421\u043c\u0435\u0434\u0435\u0440\u0435\u0432\u0441\u043a\u0430", "name:sr": "\u0420\u0430\u0459\u0430 \u0421\u043c\u0435\u0434\u0435\u0440\u0435\u0432\u0441\u043a\u0430", "name:sr-Latn": "Ralja Smederevska", "longitude": 44.5872589, "latitude": 20.9739531}, {"name": "\u041a\u043e\u043b\u0430\u0440\u0438", "name:sr": "\u041a\u043e\u043b\u0430\u0440\u0438", "name:sr-Latn": "Kolari", "longitude": 44.5817088, "latitude": 20.9002178}, {"name": "\u0423\u043c\u0447\u0430\u0440\u0438", "name:sr": "\u0423\u043c\u0447\u0430\u0440\u0438", "name:sr-Latn": "Um\u010dari", "longitude": 44.5789882, "latitude": 20.74493}, {"name": "\u041c\u0430\u043b\u0438 \u041f\u043e\u0436\u0430\u0440\u0435\u0432\u0430\u0446", "name:sr": "\u041c\u0430\u043b\u0438 \u041f\u043e\u0436\u0430\u0440\u0435\u0432\u0430\u0446", "name:sr-Latn": "Mali Po\u017earevac", "longitude": 44.569259, "latitude": 20.6656349}, {"name": "\u041c\u0430\u043b\u0430 \u0418\u0432\u0430\u043d\u0447\u0430", "name:sr": "\u041c\u0430\u043b\u0430 \u0418\u0432\u0430\u043d\u0447\u0430", "name:sr-Latn": "Mala Ivan\u010da", "longitude": 44.5772494, "latitude": 20.6148951}, {"name": "\u041b\u0438\u043f\u0435", "name:sr": "\u041b\u0438\u043f\u0435", "name:sr-Latn": "Lipe", "longitude": 44.6197358, "latitude": 20.5808268}, {"name": "\u0412\u0440\u0447\u0438\u043d", "name:sr": "\u0412\u0440\u0447\u0438\u043d", "name:sr-Latn": "Vr\u010din", "longitude": 44.671416, "latitude": 20.5822872}, {"name": "\u0411\u0435\u043b\u0438 \u041f\u043e\u0442\u043e\u043a", "name:sr": "\u0411\u0435\u043b\u0438 \u041f\u043e\u0442\u043e\u043a", "name:sr-Latn": "Beli Potok", "longitude": 44.7147297, "latitude": 20.5194912}, {"name": "\u0411\u0435\u043b\u0430 \u0420\u0435\u043a\u0430", "name:sr": "\u0411\u0435\u043b\u0430 \u0420\u0435\u043a\u0430", "name:sr-Latn": "Bela Reka", "longitude": 44.6560956, "latitude": 20.4728048}, {"name": "\u0412\u0435\u043b\u0438\u043a\u0438 \u0411\u043e\u0440\u0430\u043a", "name:sr": "\u0412\u0435\u043b\u0438\u043a\u0438 \u0411\u043e\u0440\u0430\u043a", "name:sr-Latn": "Veliki Borak", "longitude": 44.5403537, "latitude": 20.3779351}, {"name": "\u0421\u0442\u0435\u043f\u043e\u0458\u0435\u0432\u0430\u0446", "name:sr": "\u0421\u0442\u0435\u043f\u043e\u0458\u0435\u0432\u0430\u0446", "name:sr-Latn": "Stepojevac", "longitude": 44.4967343, "latitude": 20.3103624}, {"name": "\u041b\u0430\u0458\u043a\u043e\u0432\u0430\u0446", "name:en": "Lajkovac", "name:sr": "\u041b\u0430\u0458\u043a\u043e\u0432\u0430\u0446", "name:sr-Latn": "Lajkovac", "longitude": 44.367859, "latitude": 20.1642257}, {"name": "\u0421\u043b\u043e\u0432\u0430\u0446", "name:sr": "\u0421\u043b\u043e\u0432\u0430\u0446", "name:sr-Latn": "Slovac", "longitude": 44.3471782, "latitude": 20.0931827}, {"name": "\u0414\u0438\u0432\u0446\u0438", "name:sr": "\u0414\u0438\u0432\u0446\u0438", "name:sr-Latn": "Divci", "longitude": 44.3003146, "latitude": 20.0279721}, {"name": "\u041c\u043b\u0430\u0452\u0435\u0432\u043e", "name:sr": "\u041c\u043b\u0430\u0452\u0435\u0432\u043e", "name:sr-Latn": "Mla\u0111evo", "longitude": 44.3124952, "latitude": 20.0631005}, {"name": "\u0418\u0432\u0435\u0440\u0430\u043a", "name:sr": "\u0418\u0432\u0435\u0440\u0430\u043a", "name:sr-Latn": "Iverak", "longitude": 44.2917421, "latitude": 19.9589299}, {"name": "\u0413\u043b\u0443\u043c\u0430\u0447", "name:sr": "\u0413\u043b\u0443\u043c\u0430\u0447", "name:sr-Latn": "Gluma\u010d", "longitude": 43.8778099, "latitude": 19.9995115}, {"name": "\u041e\u0442\u0430\u045a", "name:sr": "\u041e\u0442\u0430\u045a", "name:sr-Latn": "Otanj", "longitude": 43.8968754, "latitude": 19.9972439}, {"name": "\u041a\u0430\u043b\u0435\u043d\u0438\u045b", "name:sr": "\u041a\u0430\u043b\u0435\u043d\u0438\u045b", "name:sr-Latn": "Kaleni\u0107", "longitude": 43.9274747, "latitude": 19.9895379}, {"name": "\u041d\u043e\u0432\u043e \u0421\u0435\u043b\u043e", "name:en": "Novo Selo", "name:sr": "\u041d\u043e\u0432\u043e \u0421\u0435\u043b\u043e", "name:sr-Latn": "Novo Selo", "longitude": 44.2621002, "latitude": 21.0919118}, {"name": "\u0421\u0442\u0430\u0440\u043e \u0421\u0435\u043b\u043e", "name:sr": "\u0421\u0442\u0430\u0440\u043e \u0421\u0435\u043b\u043e", "name:sr-Latn": "Staro Selo", "longitude": 44.2944003, "latitude": 21.0897855}, {"name": "\u041b\u0430\u043f\u043e\u0432\u043e \u0440\u0430\u043d\u0436\u0438\u0440\u043d\u0430", "name:sr": "\u041b\u0430\u043f\u043e\u0432\u043e \u0440\u0430\u043d\u0436\u0438\u0440\u043d\u0430", "name:sr-Latn": "Lapovo ran\u017eirna", "longitude": 44.1681545, "latitude": 21.0989908}, {"name": "\u0417\u0430\u0431\u043b\u0430\u045b\u0435", "name:en": "Zablace", "name:sr": "\u0417\u0430\u0431\u043b\u0430\u045b\u0435", "name:sr-Latn": "Zabla\u0107e", "longitude": 43.844001, "latitude": 20.4476684}, {"name": "\u041c\u0440\u0441\u0430\u045b", "name:sr": "\u041c\u0440\u0441\u0430\u045b", "name:sr-Latn": "Mrsa\u0107", "longitude": 43.7691678, "latitude": 20.593532}, {"name": "\u0421\u0430\u043c\u0430\u0438\u043b\u0430", "name:sr": "\u0421\u0430\u043c\u0430\u0438\u043b\u0430", "name:sr-Latn": "Samaila", "longitude": 43.7776853, "latitude": 20.5594714}, {"name": "\u0413\u043e\u0440\u0438\u0447\u0430\u043d\u0438", "name:sr": "\u0413\u043e\u0440\u0438\u0447\u0430\u043d\u0438", "name:sr-Latn": "Gori\u010dani", "longitude": 43.7957298, "latitude": 20.51457}, {"name": "\u041c\u0440\u0448\u0438\u043d\u0446\u0438", "name:sr": "\u041c\u0440\u0448\u0438\u043d\u0446\u0438", "name:sr-Latn": "Mr\u0161inci", "longitude": 43.8182869, "latitude": 20.4829474}, {"name": "\u041a\u0443\u043a\u0438\u045b\u0438", "name:sr": "\u041a\u0443\u043a\u0438\u045b\u0438", "name:sr-Latn": "Kuki\u0107i", "longitude": 43.8338425, "latitude": 20.4654709}, {"name": "\u041f\u0440\u0438\u0458\u0435\u0432\u043e\u0440", "name:sr": "\u041f\u0440\u0438\u0458\u0435\u0432\u043e\u0440", "name:sr-Latn": "Prijevor", "longitude": 43.9086238, "latitude": 20.2822463}, {"name": "\u0408\u0435\u043b\u0435\u043d \u0414\u043e", "name:sr": "\u0408\u0435\u043b\u0435\u043d \u0414\u043e", "name:sr-Latn": "Jelen Do", "longitude": 43.8904124, "latitude": 20.1196034}, {"name": "\u0414\u0440\u0430\u0433\u0430\u0447\u0435\u0432\u043e", "name:sr": "\u0414\u0440\u0430\u0433\u0430\u0447\u0435\u0432\u043e", "name:sr-Latn": "Draga\u010devo", "longitude": 43.880676, "latitude": 20.1144802}, {"name": "\u0411\u043e\u0440\u0430\u0447\u043a\u043e", "name:sr": "\u0411\u043e\u0440\u0430\u0447\u043a\u043e", "name:sr-Latn": "Bora\u010dko", "longitude": 43.8483069, "latitude": 20.0693229}, {"name": "\u0420\u0430\u0441\u043d\u0430", "name:sr": "\u0420\u0430\u0441\u043d\u0430", "name:sr-Latn": "Rasna", "longitude": 43.8079745, "latitude": 20.0239474}, {"name": "\u0423\u0437\u0438\u045b\u0438", "name:sr": "\u0423\u0437\u0438\u045b\u0438", "name:sr-Latn": "Uzi\u0107i", "longitude": 43.8121056, "latitude": 19.9806285}, {"name": "\u0417\u043b\u0430\u043a\u0443\u0441\u0430", "name:sr": "\u0417\u043b\u0430\u043a\u0443\u0441\u0430", "name:sr-Latn": "Zlakusa", "longitude": 43.8062362, "latitude": 19.9537944}, {"name": "\u0420\u0438\u0441\u0442\u0430\u043d\u043e\u0432\u0438\u045b\u0430 \u041f\u043e\u0459\u0435", "name:sr": "\u0420\u0438\u0441\u0442\u0430\u043d\u043e\u0432\u0438\u045b\u0430 \u041f\u043e\u0459\u0435", "name:sr-Latn": "Ristanovi\u0107a Polje", "longitude": 43.8291245, "latitude": 19.744671}, {"name": "\u0422\u0440\u0438\u043f\u043a\u043e\u0432\u0430", "name:sr": "\u0422\u0440\u0438\u043f\u043a\u043e\u0432\u0430", "name:sr-Latn": "Tripkova", "longitude": 43.8072765, "latitude": 19.7420245}, {"name": "\u0420\u0430\u0447\u0430", "name:sr": "\u0420\u0430\u0447\u0430", "name:sr-Latn": "Ra\u010da", "longitude": 43.6202494, "latitude": 19.5009269}, {"name": "\u041f\u043e\u0459\u0438\u0446\u0435", "name:sr": "\u041f\u043e\u0459\u0438\u0446\u0435", "name:sr-Latn": "Poljice", "longitude": 43.5638743, "latitude": 19.5418847}, {"name": "\u040f\u0443\u0440\u043e\u0432\u043e", "name:sr": "\u040f\u0443\u0440\u043e\u0432\u043e", "name:sr-Latn": "D\u017eurovo", "longitude": 43.4433486, "latitude": 19.6331742}, {"name": "\u0411\u0440\u043e\u0434\u0430\u0440\u0435\u0432\u043e", "name:sr": "\u0411\u0440\u043e\u0434\u0430\u0440\u0435\u0432\u043e", "name:sr-Latn": "Brodarevo", "longitude": 43.2438055, "latitude": 19.7236496}, {"name": "\u0411\u0440\u0437\u0430\u043d", "name:sr": "\u0411\u0440\u0437\u0430\u043d", "name:sr-Latn": "Brzan", "longitude": 44.1241651, "latitude": 21.1347936}, {"name": "\u041c\u0438\u043b\u043e\u0448\u0435\u0432\u043e", "name:sr": "\u041c\u0438\u043b\u043e\u0448\u0435\u0432\u043e", "name:sr-Latn": "Milo\u0161evo", "longitude": 44.1071188, "latitude": 21.1605078}, {"name": "\u041b\u0430\u043d\u0438\u0448\u0442\u0435", "name:sr": "\u041b\u0430\u043d\u0438\u0448\u0442\u0435", "name:sr-Latn": "Lani\u0161te", "longitude": 44.0429986, "latitude": 21.236287}, {"name": "\u0411\u0443\u043a\u043e\u0432\u0447\u0435", "name:sr": "\u0411\u0443\u043a\u043e\u0432\u0447\u0435", "name:sr-Latn": "Bukov\u010de", "longitude": 44.0081759, "latitude": 21.2320783}, {"name": "\u0408\u0430\u0433\u043e\u0434\u0438\u043d\u0430", "name:de": "Jagodina", "name:en": "Jagodina", "name:hr": "Jagodina", "name:sl": "Jagodina", "name:sr": "\u0408\u0430\u0433\u043e\u0434\u0438\u043d\u0430", "name:sr-Latn": "Jagodina", "longitude": 43.9822908, "latitude": 21.2634033}, {"name": "\u041f\u0430\u0440\u0430\u045b\u0438\u043d", "name:sr": "\u041f\u0430\u0440\u0430\u045b\u0438\u043d", "name:sr-Latn": "Para\u0107in", "longitude": 43.8648285, "latitude": 21.3988206}, {"name": "\u0421\u0438\u043a\u0438\u0440\u0438\u0446\u0430-\u0420\u0430\u0442\u0430\u0440\u0438", "name:sr": "\u0421\u0438\u043a\u0438\u0440\u0438\u0446\u0430-\u0420\u0430\u0442\u0430\u0440\u0438", "name:sr-Latn": "Sikirica-Ratari", "longitude": 43.7917703, "latitude": 21.4220136}, {"name": "\u0414\u0440\u0435\u043d\u043e\u0432\u0430\u0446", "name:en": "Drenovac", "name:sr": "\u0414\u0440\u0435\u043d\u043e\u0432\u0430\u0446", "name:sr-Latn": "Drenovac", "longitude": 43.7642134, "latitude": 21.4279078}, {"name": "\u0411\u0440\u0430\u0459\u0438\u043d\u0430", "name:sr": "\u0411\u0440\u0430\u0459\u0438\u043d\u0430", "name:sr-Latn": "Braljina", "longitude": 43.6573632, "latitude": 21.4832712}, {"name": "\u0426\u0435\u0440\u043e\u0432\u043e-\u0420\u0430\u0436\u0430\u045a", "name:sr": "\u0426\u0435\u0440\u043e\u0432\u043e-\u0420\u0430\u0436\u0430\u045a", "name:sr-Latn": "Cerovo-Ra\u017eanj", "longitude": 43.6259142, "latitude": 21.4860676}, {"name": "\u0402\u0443\u043d\u0438\u0441", "name:sr": "\u0402\u0443\u043d\u0438\u0441", "name:sr-Latn": "\u0110unis", "longitude": 43.6049095, "latitude": 21.5132537}, {"name": "\u0412\u0438\u0442\u043a\u043e\u0432\u0430\u0446", "name:sr": "\u0412\u0438\u0442\u043a\u043e\u0432\u0430\u0446", "name:sr-Latn": "Vitkovac", "longitude": 43.5908386, "latitude": 21.5523708}, {"name": "\u0414\u043e\u045a\u0438 \u0409\u0443\u0431\u0435\u0448", "name:sr": "\u0414\u043e\u045a\u0438 \u0409\u0443\u0431\u0435\u0448", "name:sr-Latn": "Donji Ljube\u0161", "longitude": 43.5784656, "latitude": 21.5709456}, {"name": "\u0413\u043e\u0440\u045a\u0438 \u0409\u0443\u0431\u0435\u0448", "name:sr": "\u0413\u043e\u0440\u045a\u0438 \u0409\u0443\u0431\u0435\u0448", "name:sr-Latn": "Gornji Ljube\u0161", "longitude": 43.5657535, "latitude": 21.5936851}, {"name": "\u041a\u043e\u0440\u043c\u0430\u043d", "name:sr": "\u041a\u043e\u0440\u043c\u0430\u043d", "name:sr-Latn": "Korman", "longitude": 43.5526839, "latitude": 21.6124369}, {"name": "\u0422\u0440\u045a\u0430\u043d\u0438", "name:sr": "\u0422\u0440\u045a\u0430\u043d\u0438", "name:sr-Latn": "Trnjani", "longitude": 43.5357173, "latitude": 21.6337947}, {"name": "\u041d\u043e\u0437\u0440\u0438\u043d\u0430", "name:en": "Nozrina", "name:ru": "\u041d\u043e\u0437\u0440\u0438\u043d\u0430", "name:sr": "\u041d\u043e\u0437\u0440\u0438\u043d\u0430", "name:sr-Latn": "Nozrina", "longitude": 43.4822881, "latitude": 21.7133088}, {"name": "\u041b\u0443\u0436\u0430\u043d\u0435", "name:en": "Luzhane", "name:ru": "\u041b\u0443\u0436\u0430\u043d\u0435", "name:sr": "\u041b\u0443\u0436\u0430\u043d\u0435", "name:sr-Latn": "Lu\u017eane", "longitude": 43.4716181, "latitude": 21.7203321}, {"name": "\u0422\u0435\u0448\u0438\u0446\u0430", "name:en": "Tesica", "name:ru": "\u0422\u0435\u0448\u0438\u0446\u0430", "name:sr": "\u0422\u0435\u0448\u0438\u0446\u0430", "name:sr-Latn": "Te\u0161ica", "longitude": 43.4443363, "latitude": 21.7367229}, {"name": "\u0421\u0443\u043f\u043e\u0432\u0430\u0447\u043a\u0438 \u043c\u043e\u0441\u0442", "name:ru": "\u0421\u0443\u043f\u043e\u0432\u0430\u0447\u043a\u0438 \u043c\u043e\u0441\u0442", "name:sr": "\u0421\u0443\u043f\u043e\u0432\u0430\u0447\u043a\u0438 \u043c\u043e\u0441\u0442", "name:sr-Latn": "Supova\u010dki most", "longitude": 43.396319, "latitude": 21.7661235}, {"name": "\u041c\u0435\u0437\u0433\u0440\u0430\u0458\u0430", "name:en": "Mezgraya", "name:ru": "\u041c\u0435\u0437\u0433\u0440\u0430\u0439\u044f", "name:sr": "\u041c\u0435\u0437\u0433\u0440\u0430\u0458\u0430", "name:sr-Latn": "Mezgraja", "longitude": 43.3926102, "latitude": 21.7796868}, {"name": "\u0412\u0440\u0442\u0438\u0448\u0442\u0435", "name:en": "Vrtishte", "name:ru": "\u0412\u0440\u0442\u0438\u0448\u0442\u0435", "name:sr": "\u0412\u0440\u0442\u0438\u0448\u0442\u0435", "name:sr-Latn": "Vrti\u0161te", "longitude": 43.3751386, "latitude": 21.808518}, {"name": "Leposavi\u0107", "name:sr": "\u041b\u0435\u043f\u043e\u0441\u0430\u0432\u0438\u045b", "name:sr-Latn": "Leposavi\u0107", "longitude": 43.1055757, "latitude": 20.7986051}, {"name": "Sllatin\u00eb", "name:sq": "Sllatina e Ibrit", "name:sr": "\u0418\u0431\u0430\u0440\u0441\u043a\u0430 \u0421\u043b\u0430\u0442\u0438\u043d\u0430", "longitude": 43.0339726, "latitude": 20.8174395}, {"name": "Valaq", "name:sq": "Vallaq", "name:sr": "\u0412\u0430\u043b\u0430\u0447", "longitude": 42.9285833, "latitude": 20.827458}, {"name": "Zve\u010dan", "name:sq": "Zve\u00e7an", "name:sr": "\u0417\u0432\u0435\u0447\u0430\u043d", "name:sr-Latn": "Zve\u010dan", "longitude": 42.9098995, "latitude": 20.845161}, {"name": "\u0425\u0430\u045f\u0438\u045b\u0435\u0432\u043e", "name:sr": "\u0425\u0430\u045f\u0438\u045b\u0435\u0432\u043e", "name:sr-Latn": "Had\u017ei\u0107evo", "longitude": 43.398072, "latitude": 22.0504174}, {"name": "\u041f\u043e\u0434\u0432\u0438\u0441", "name:sr": "\u041f\u043e\u0434\u0432\u0438\u0441", "name:sr-Latn": "Podvis", "longitude": 43.5454818, "latitude": 22.1884094}, {"name": "\u0420\u0433\u043e\u0448\u0442\u0435", "name:en": "Rgoste", "name:sr": "\u0420\u0433\u043e\u0448\u0442\u0435", "name:sr-Latn": "Rgo\u0161te", "longitude": 43.5511315, "latitude": 22.2082742}, {"name": "\u041c\u0438\u043d\u0438\u045b\u0435\u0432\u043e", "name:sr": "\u041c\u0438\u043d\u0438\u045b\u0435\u0432\u043e", "name:sr-Latn": "Mini\u0107evo", "longitude": 43.684035, "latitude": 22.2896741}, {"name": "\u0421\u0435\u043b\u0430\u0447\u043a\u0430 \u0420\u0435\u043a\u0430", "name:sr": "\u0421\u0435\u043b\u0430\u0447\u043a\u0430 \u0420\u0435\u043a\u0430", "name:sr-Latn": "Sela\u010dka Reka", "longitude": 43.7079811, "latitude": 22.3006673}, {"name": "\u041c\u0430\u043b\u0438 \u0418\u0437\u0432\u043e\u0440", "name:sr": "\u041c\u0430\u043b\u0438 \u0418\u0437\u0432\u043e\u0440", "name:sr-Latn": "Mali Izvor", "longitude": 43.7290685, "latitude": 22.3052835}, {"name": "\u0412\u0440\u0430\u0442\u0430\u0440\u043d\u0438\u0446\u0430", "name:sr": "\u0412\u0440\u0430\u0442\u0430\u0440\u043d\u0438\u0446\u0430", "name:sr-Latn": "Vratarnica", "longitude": 43.7989026, "latitude": 22.3029899}, {"name": "\u0413\u0440\u0459\u0430\u043d", "name:en": "Grljan", "name:sr": "\u0413\u0440\u0459\u0430\u043d", "name:sr-Latn": "Grljan", "longitude": 43.8558898, "latitude": 22.2901492}, {"name": "\u0422\u0438\u043c\u043e\u043a", "name:sr": "\u0422\u0438\u043c\u043e\u043a", "name:sr-Latn": "Timok", "longitude": 43.8942498, "latitude": 22.2906088}, {"name": "\u0412\u0440\u0430\u0436\u043e\u0433\u0440\u043d\u0430\u0446", "name:sr": "\u0412\u0440\u0430\u0436\u043e\u0433\u0440\u043d\u0430\u0446", "name:sr-Latn": "Vra\u017eogrnac", "longitude": 43.9536647, "latitude": 22.324409}, {"name": "\u0420\u0433\u043e\u0442\u0438\u043d\u0430", "name:en": "Rgotina", "name:sr": "\u0420\u0433\u043e\u0442\u0438\u043d\u0430", "name:sr-Latn": "Rgotina", "longitude": 44.0071878, "latitude": 22.2796042}, {"name": "\u041a\u0440\u0438\u0432\u0435\u0459\u0441\u043a\u0438 \u043f\u043e\u0442\u043e\u043a", "name:sr": "\u041a\u0440\u0438\u0432\u0435\u0459\u0441\u043a\u0438 \u043f\u043e\u0442\u043e\u043a", "name:sr-Latn": "Kriveljski potok", "longitude": 44.1416044, "latitude": 22.042182}, {"name": "\u041c\u0430\u043b\u0438 \u041a\u0440\u0438\u0432\u0435\u0459", "name:sr": "\u041c\u0430\u043b\u0438 \u041a\u0440\u0438\u0432\u0435\u0459", "name:sr-Latn": "Mali Krivelj", "longitude": 44.1185951, "latitude": 22.0641925}, {"name": "\u0412\u043b\u0430\u043e\u043b\u0435", "name:sr": "\u0412\u043b\u0430\u043e\u043b\u0435", "name:sr-Latn": "Vlaole", "longitude": 44.2573026, "latitude": 22.0023087}, {"name": "\u0426\u0435\u0440\u043e\u0432\u043e", "name:sr": "\u0426\u0435\u0440\u043e\u0432\u043e", "name:sr-Latn": "Cerovo", "longitude": 44.1874244, "latitude": 22.0156168}, {"name": "\u0422\u0440\u043d\u0430\u0432\u0430\u0446", "name:en": "Trnovac", "name:sr": "\u0422\u0440\u043d\u0430\u0432\u0430\u0446", "name:sr-Latn": "Trnavac", "longitude": 43.997416, "latitude": 22.3275267}, {"name": "\u0427\u043e\u043a\u043e\u045a\u0430\u0440", "name:en": "Cokonjar", "name:sr": "\u0427\u043e\u043a\u043e\u045a\u0430\u0440", "name:sr-Latn": "\u010cokonjar", "longitude": 44.0160363, "latitude": 22.3522799}, {"name": "\u0421\u043e\u043a\u043e\u043b\u043e\u0432\u0438\u0446\u0430", "name:sr": "\u0421\u043e\u043a\u043e\u043b\u043e\u0432\u0438\u0446\u0430", "name:sr-Latn": "Sokolovica", "longitude": 44.0324559, "latitude": 22.3706035}, {"name": "\u0422\u0430\u0431\u0430\u043a\u043e\u0432\u0430\u0447\u043a\u0430 \u0420\u0435\u043a\u0430", "name:sr": "\u0422\u0430\u0431\u0430\u043a\u043e\u0432\u0430\u0447\u043a\u0430 \u0420\u0435\u043a\u0430", "name:sr-Latn": "Tabakova\u010dka Reka", "longitude": 44.0676059, "latitude": 22.432077}, {"name": "\u0411\u0440\u0443\u0441\u043d\u0438\u043a", "name:sr": "\u0411\u0440\u0443\u0441\u043d\u0438\u043a", "name:sr-Latn": "Brusnik", "longitude": 44.0978924, "latitude": 22.4828655}, {"name": "\u0422\u0430\u043c\u043d\u0438\u0447", "name:en": "Tamnic", "name:sr": "\u0422\u0430\u043c\u043d\u0438\u0447", "name:sr-Latn": "Tamni\u010d", "longitude": 44.0866995, "latitude": 22.5112848}, {"name": "\u0420\u0430\u0458\u0430\u0446", "name:en": "Rajac", "name:sr": "\u0420\u0430\u0458\u0430\u0446", "name:sr-Latn": "Rajac", "longitude": 44.0895866, "latitude": 22.5611381}, {"name": "\u0420\u043e\u0433\u0459\u0435\u0432\u043e", "name:en": "Rogljevo", "name:sr": "\u0420\u043e\u0433\u0459\u0435\u0432\u043e", "name:sr-Latn": "Rogljevo", "longitude": 44.1164213, "latitude": 22.5735546}, {"name": "\u041f\u0440\u0430\u0445\u043e\u0432\u043e", "name:en": "Prahovo", "name:sr": "\u041f\u0440\u0430\u0445\u043e\u0432\u043e", "name:sr-Latn": "Prahovo", "longitude": 44.2874608, "latitude": 22.5880135}, {"name": "\u041f\u0440\u0430\u0445\u043e\u0432\u043e \u043f\u0440\u0438\u0441\u0442\u0430\u043d\u0438\u0448\u0442\u0435", "name:sr": "\u041f\u0440\u0430\u0445\u043e\u0432\u043e \u043f\u0440\u0438\u0441\u0442\u0430\u043d\u0438\u0448\u0442\u0435", "name:sr-Latn": "Prahovo pristani\u0161te", "longitude": 44.2911137, "latitude": 22.6081176}, {"name": "\u041f\u0438\u0440\u043e\u0442", "name:de": "Pirot", "name:en": "Pirot", "name:ru": "\u041f\u0438\u0440\u043e\u0442", "name:sr": "\u041f\u0438\u0440\u043e\u0442", "name:sr-Latn": "Pirot", "longitude": 43.1699646, "latitude": 22.5864658}, {"name": "\u041c\u0435\u0452\u0443\u0440\u043e\u0432\u043e", "name:sr": "\u041c\u0435\u0452\u0443\u0440\u043e\u0432\u043e", "name:sr-Latn": "Me\u0111urovo", "longitude": 43.3039475, "latitude": 21.8301081}, {"name": "\u0427\u0430\u043f\u0459\u0438\u043d\u0430\u0446", "name:sr": "\u0427\u0430\u043f\u0459\u0438\u043d\u0430\u0446", "name:sr-Latn": "\u010capljinac", "longitude": 43.2512618, "latitude": 21.8458262}, {"name": "\u041c\u0430\u043b\u043e\u0448\u0438\u0448\u0442\u0435", "name:sr": "\u041c\u0430\u043b\u043e\u0448\u0438\u0448\u0442\u0435", "name:sr-Latn": "Malo\u0161i\u0161te", "longitude": 43.2375759, "latitude": 21.849091}, {"name": "\u0428\u0430\u0458\u0438\u043d\u043e\u0432\u0430\u0446", "name:sr": "\u0428\u0430\u0458\u0438\u043d\u043e\u0432\u0430\u0446", "name:sr-Latn": "\u0160ajinovac", "longitude": 43.187806, "latitude": 21.8028825}, {"name": "\u0422\u043e\u043f\u043b\u0438\u0447\u043a\u0438 \u0411\u0430\u0434\u045a\u0435\u0432\u0430\u0446", "name:sr": "\u0422\u043e\u043f\u043b\u0438\u0447\u043a\u0438 \u0411\u0430\u0434\u045a\u0435\u0432\u0430\u0446", "name:sr-Latn": "Topli\u010dki Badnjevac", "longitude": 43.1836607, "latitude": 21.786639}, {"name": "\u0408\u0430\u0441\u0435\u043d\u0438\u0446\u0430", "name:sr": "\u0408\u0430\u0441\u0435\u043d\u0438\u0446\u0430", "name:sr-Latn": "Jasenica", "longitude": 43.1811037, "latitude": 21.7651974}, {"name": "\u041b\u0443\u043a\u043e\u043c\u0438\u0440", "name:en": "Lukomir", "name:sr": "\u041b\u0443\u043a\u043e\u043c\u0438\u0440", "name:sr-Latn": "Lukomir", "longitude": 43.2034128, "latitude": 21.672086}, {"name": "\u041f\u043e\u0434\u0438\u043d\u0430", "name:en": "Podina", "name:sr": "\u041f\u043e\u0434\u0438\u043d\u0430", "name:sr-Latn": "Podina", "longitude": 43.212476, "latitude": 21.6602493}, {"name": "\u0422\u043e\u043f\u043b\u0438\u0447\u043a\u0430 \u041c\u0430\u043b\u0430 \u041f\u043b\u0430\u043d\u0430", "name:sr": "\u0422\u043e\u043f\u043b\u0438\u0447\u043a\u0430 \u041c\u0430\u043b\u0430 \u041f\u043b\u0430\u043d\u0430", "name:sr-Latn": "Topli\u010dka Mala Plana", "longitude": 43.2399501, "latitude": 21.4809761}, {"name": "\u0411\u0435\u043b\u043e\u0459\u0438\u043d", "name:en": "Beloljin", "name:sr": "\u0411\u0435\u043b\u043e\u0459\u0438\u043d", "name:sr-Latn": "Beloljin", "longitude": 43.2296384, "latitude": 21.4112227}, {"name": "\u041a\u043e\u0447\u0430\u043d\u0435", "name:sr": "\u041a\u043e\u0447\u0430\u043d\u0435", "name:sr-Latn": "Ko\u010dane", "longitude": 43.1862031, "latitude": 21.8404379}, {"name": "\u041f\u0443\u043a\u043e\u0432\u0430\u0446", "name:en": "Pukovac", "name:sr": "\u041f\u0443\u043a\u043e\u0432\u0430\u0446", "name:sr-Latn": "Pukovac", "longitude": 43.1660143, "latitude": 21.8558592}, {"name": "\u041b\u0438\u043f\u043e\u0432\u0438\u0446\u0430", "name:sr": "\u041b\u0438\u043f\u043e\u0432\u0438\u0446\u0430", "name:sr-Latn": "Lipovica", "longitude": 43.1310378, "latitude": 21.8940461}, {"name": "\u0411\u0440\u0435\u0441\u0442\u043e\u0432\u0430\u0446", "name:sr": "\u0411\u0440\u0435\u0441\u0442\u043e\u0432\u0430\u0446", "name:sr-Latn": "Brestovac", "longitude": 43.1513245, "latitude": 21.871906}, {"name": "\u041f\u0440\u0438\u0431\u043e\u0458 \u041b\u0435\u0441\u043a\u043e\u0432\u0430\u0447\u043a\u0438", "name:sr": "\u041f\u0440\u0438\u0431\u043e\u0458 \u041b\u0435\u0441\u043a\u043e\u0432\u0430\u0447\u043a\u0438", "name:sr-Latn": "Priboj Leskova\u010dki", "longitude": 43.057347, "latitude": 21.93924}, {"name": "\u0416\u0438\u0432\u043a\u043e\u0432\u043e", "name:en": "Zivkovo", "name:sr": "\u0416\u0438\u0432\u043a\u043e\u0432\u043e", "name:sr-Latn": "\u017divkovo", "longitude": 43.0717962, "latitude": 21.940753}, {"name": "\u0412\u0438\u043d\u0430\u0440\u0446\u0438", "name:sr": "\u0412\u0438\u043d\u0430\u0440\u0446\u0438", "name:sr-Latn": "Vinarci", "longitude": 43.0436025, "latitude": 21.9377879}, {"name": "\u040f\u0435\u043f", "name:en": "Dzep", "name:sr": "\u040f\u0435\u043f", "name:sr-Latn": "D\u017eep", "longitude": 42.77982, "latitude": 22.0935531}, {"name": "\u041c\u043e\u043c\u0438\u043d \u043a\u0430\u043c\u0435\u043d", "name:sr": "\u041c\u043e\u043c\u0438\u043d \u043a\u0430\u043c\u0435\u043d", "name:sr-Latn": "Momin kamen", "longitude": 42.7528768, "latitude": 22.0827735}, {"name": "\u041b\u0435\u043f\u0435\u043d\u0438\u0447\u043a\u0438 \u043c\u043e\u0441\u0442", "name:sr": "\u041b\u0435\u043f\u0435\u043d\u0438\u0447\u043a\u0438 \u043c\u043e\u0441\u0442", "name:sr-Latn": "Lepeni\u010dki most", "longitude": 42.6565254, "latitude": 22.0460093}, {"name": "\u041f\u0440\u0438\u0431\u043e\u0458 \u0412\u0440\u0430\u045a\u0441\u043a\u0438", "name:sr": "\u041f\u0440\u0438\u0431\u043e\u0458 \u0412\u0440\u0430\u045a\u0441\u043a\u0438", "name:sr-Latn": "Priboj Vranjski", "longitude": 42.6145693, "latitude": 22.022632}, {"name": "\u0160u\u0161anj", "name:sr": "\u0428\u0443\u0448\u0430\u045a", "longitude": 42.1104273, "latitude": 19.1000162}, {"name": "Crmnica", "longitude": 42.2108109, "latitude": 19.0750204}, {"name": "Zeta", "longitude": 42.2956575, "latitude": 19.1586691}, {"name": "Golubovci", "name:sr": "\u0413\u043e\u043b\u0443\u0431\u043e\u0432\u0446\u0438", "longitude": 42.3436453, "latitude": 19.2182648}, {"name": "Mora\u010da", "longitude": 42.3155645, "latitude": 19.2067082}, {"alt_name": "Trebje\u0161ica", "name": "Trebe\u0161ica", "longitude": 42.6859459, "latitude": 19.4755144}, {"name": "Kru\u0161eva\u010dki Potok", "longitude": 42.6637172, "latitude": 19.4141793}, {"name": "Kos", "longitude": 42.7422532, "latitude": 19.4962108}, {"name": "Seli\u0161te", "longitude": 42.7261478, "latitude": 19.484473}, {"name": "Mijatovo Kolo", "longitude": 42.9844308, "latitude": 19.6524737}, {"name": "Ravna Rijeka", "longitude": 42.9870117, "latitude": 19.7101545}, {"name": "Ostrog", "longitude": 42.6539263, "latitude": 19.0306505}, {"name": "Bardh", "longitude": 42.629992, "latitude": 21.0232709}, {"name": "Mjekaj", "longitude": 42.6747291, "latitude": 20.9697497}, {"name": "Damanek", "name:sr": "\u0414\u043e\u043c\u0430\u043d\u0435\u043a", "longitude": 42.6175666, "latitude": 20.85534}, {"name": "Aqarev\u00eb", "name:sr": "\u0410\u043b\u0443\u0440\u0430\u0458", "longitude": 42.6292169, "latitude": 20.7167103}, {"name": "Klin\u00eb", "longitude": 42.6236507, "latitude": 20.5838141}, {"name": "Budisalc", "longitude": 42.6679614, "latitude": 20.493858}, {"name": "Sh\u00ebngjergj", "longitude": 42.6379273, "latitude": 20.5338714}, {"name": "Arban\u00eb", "longitude": 42.6602604, "latitude": 20.4200727}, {"name": "\u0402\u043e\u0440\u0452\u0435\u0432\u043e", "name:en": "Djordjevo", "name:sr": "\u0402\u043e\u0440\u0452\u0435\u0432\u043e", "name:sr-Latn": "\u0110or\u0111evo", "longitude": 42.9347612, "latitude": 22.0127932}, {"name": "\u041a\u0438\u0441\u0430\u0447", "name:sr": "\u041a\u0438\u0441\u0430\u0447", "name:sr-Latn": "Kisa\u010d", "longitude": 45.3591919, "latitude": 19.7338946}, {"name": "\u0417\u0443\u0446\u0435", "name:sr": "\u0417\u0443\u0446\u0435", "name:sr-Latn": "Zuce", "longitude": 44.7052835, "latitude": 20.5644298}, {"name": "\u0408\u0430\u0431\u043b\u0430\u043d\u0438\u0446\u0430", "name:sr": "\u0408\u0430\u0431\u043b\u0430\u043d\u0438\u0446\u0430", "name:sr-Latn": "Jablanica", "longitude": 43.7009213, "latitude": 19.5204246}, {"name": "\u0422\u043e\u043c\u0438\u043d\u0430\u0446 \u0441\u0442\u0430\u0458\u0430\u043b\u0438\u0448\u0442\u0435", "name:en": "Tominac halt", "name:sr": "\u0422\u043e\u043c\u0438\u043d\u0430\u0446 \u0441\u0442\u0430\u0458\u0430\u043b\u0438\u0448\u0442\u0435", "name:sr-Latn": "Tominac stajali\u0161te", "longitude": 43.6517442, "latitude": 20.8812882}, {"name": "\u0420\u0438\u0431\u043d\u0438\u0446\u0430 \u0417\u043b\u0430\u0442\u0438\u0431\u043e\u0440\u0441\u043a\u0430", "name:sr": "\u0420\u0438\u0431\u043d\u0438\u0446\u0430 \u0417\u043b\u0430\u0442\u0438\u0431\u043e\u0440\u0441\u043a\u0430", "name:sr-Latn": "Ribnica Zlatiborska", "longitude": 43.7079921, "latitude": 19.5733908}, {"name": "\u0421\u0442\u0430\u043f\u0430\u0440\u0438", "name:sr": "\u0421\u0442\u0430\u043f\u0430\u0440\u0438", "name:sr-Latn": "Stapari", "longitude": 43.8456908, "latitude": 19.76231}, {"name": "Ljubi\u010devski most", "longitude": 44.5871017, "latitude": 21.1322064}, {"name": "Spu\u017e", "longitude": 42.5133054, "latitude": 19.2011835}, {"name": "Danilovgrad", "name:lt": "Danilovgradas", "name:sr": "\u0414\u0430\u043d\u0438\u043b\u043e\u0432\u0433\u0440\u0430\u0434", "longitude": 42.5591576, "latitude": 19.1136307}, {"name": "\u040b\u0435\u043b\u0435 \u043a\u0443\u043b\u0430", "name:sr": "\u040b\u0435\u043b\u0435 \u043a\u0443\u043b\u0430", "name:sr-Latn": "\u0106ele kula", "longitude": 43.3082766, "latitude": 21.9430349}, {"name": "\u041f\u0440\u043e\u0441\u0435\u043a", "name:en": "Prosek", "name:sr": "\u041f\u0440\u043e\u0441\u0435\u043a", "name:sr-Latn": "Prosek", "longitude": 43.3125286, "latitude": 22.0516007}, {"name": "\u0421\u0438\u045b\u0435\u0432\u043e", "name:en": "Sicevo", "name:sr": "\u0421\u0438\u045b\u0435\u0432\u043e", "name:sr-Latn": "Si\u0107evo", "longitude": 43.3288986, "latitude": 22.0624088}, {"name": "\u041e\u0441\u0442\u0440\u043e\u0432\u0438\u0446\u0430", "name:en": "Ostrovica", "name:sr": "\u041e\u0441\u0442\u0440\u043e\u0432\u0438\u0446\u0430", "name:sr-Latn": "Ostrovica", "longitude": 43.3331536, "latitude": 22.1183385}, {"name": "\u041c\u0430\u0458\u0434\u0430\u043d \u041e\u0441\u0442\u0440\u043e\u0432\u0438\u0446\u0430", "name:sr": "\u041c\u0430\u0458\u0434\u0430\u043d \u041e\u0441\u0442\u0440\u043e\u0432\u0438\u0446\u0430", "name:sr-Latn": "Majdan Ostrovica", "longitude": 43.3347464, "latitude": 22.1326517}, {"name": "\u0421\u0440\u0435\u045b\u043a\u043e\u0432\u0430\u0446", "name:en": "Sreckovac", "name:sr": "\u0421\u0440\u0435\u045b\u043a\u043e\u0432\u0430\u0446", "name:sr-Latn": "Sre\u0107kovac", "longitude": 43.0311403, "latitude": 22.721114}, {"name": "\u0427\u0438\u043d\u0438\u0433\u043b\u0430\u0432\u0446\u0438", "name:en": "Ciniglavci", "name:nl": "Ciniglavci", "name:sr": "\u0427\u0438\u043d\u0438\u0433\u043b\u0430\u0432\u0446\u0438", "name:sr-Latn": "\u010ciniglavci", "name:tr": "\u00c7iniglavci", "longitude": 43.0455288, "latitude": 22.7045485}, {"name": "\u0412\u0435\u043b\u0438\u043a\u0438 \u0408\u043e\u0432\u0430\u043d\u043e\u0432\u0430\u0446", "name:sr": "\u0412\u0435\u043b\u0438\u043a\u0438 \u0408\u043e\u0432\u0430\u043d\u043e\u0432\u0430\u0446", "name:sr-Latn": "Veliki Jovanovac", "longitude": 43.1042548, "latitude": 22.6346487}, {"name": "\u0421\u0438\u045a\u0430\u0446", "name:en": "Sinjac", "name:sr": "\u0421\u0438\u045a\u0430\u0446", "name:sr-Latn": "Sinjac", "longitude": 43.2285973, "latitude": 22.4361413}, {"name": "\u0427\u0438\u0444\u043b\u0438\u043a", "name:en": "Ciflik", "name:sr": "\u0427\u0438\u0444\u043b\u0438\u043a", "name:sr-Latn": "\u010ciflik", "longitude": 43.2257916, "latitude": 22.4093683}, {"name": "\u0411\u0435\u043b\u0430\u043d\u043e\u0432\u0430\u0446", "name:sr": "\u0411\u0435\u043b\u0430\u043d\u043e\u0432\u0430\u0446", "name:sr-Latn": "Belanovac", "longitude": 43.2437232, "latitude": 22.2657706}, {"name": "\u0426\u0440\u0432\u0435\u043d\u0430 \u0420\u0435\u043a\u0430", "name:sr": "\u0426\u0440\u0432\u0435\u043d\u0430 \u0420\u0435\u043a\u0430", "name:sr-Latn": "Crvena Reka", "longitude": 43.267642, "latitude": 22.2467822}, {"name": "\u0426\u0440\u0432\u0435\u043d\u0438 \u0411\u0440\u0435\u0433", "name:sr": "\u0426\u0440\u0432\u0435\u043d\u0438 \u0411\u0440\u0435\u0433", "name:sr-Latn": "Crveni Breg", "longitude": 43.2784829, "latitude": 22.2264499}, {"name": "\u0414\u043e\u043b\u0430\u0446", "name:en": "Dolac", "name:sr": "\u0414\u043e\u043b\u0430\u0446", "name:sr-Latn": "Dolac", "longitude": 43.2958605, "latitude": 22.2072103}, {"name": "\u0412\u0440\u045a\u0430\u0447\u043a\u0430 \u0411\u0430\u045a\u0430", "name:en": "Vrnja\u010dka Banja", "name:sr": "\u0412\u0440\u045a\u0430\u0447\u043a\u0430 \u0411\u0430\u045a\u0430", "name:sr-Latn": "Vrnja\u010dka Banja", "longitude": 43.6390228, "latitude": 20.9259921}, {"name": "\u041a\u043e\u0448\u0435\u0432\u0438", "name:en": "Kosevi", "name:sr": "\u041a\u043e\u0448\u0435\u0432\u0438", "name:sr-Latn": "Ko\u0161evi", "longitude": 43.585452, "latitude": 21.2473634}, {"name": "Pridvoric\u00eb", "name:sr": "\u041f\u0440\u0438\u0434\u0432\u043e\u0440\u0438\u0446\u0430", "name:sr-Latn": "Pridvorica", "longitude": 43.0629036, "latitude": 20.8039408}, {"name": "Pri\u010delje", "longitude": 42.5039966, "latitude": 19.2232553}, {"name": "Ljutotuk", "longitude": 42.550492, "latitude": 19.1582872}, {"name": "Slap", "longitude": 42.6043835, "latitude": 19.0888658}, {"alt_name": "Bare \u0160umanovi\u0107a", "name": "\u0160umanovi\u0107a Bare", "longitude": 42.6193055, "latitude": 19.0780664}, {"name": "\u0160obaji\u0107i", "longitude": 42.6326134, "latitude": 19.0615491}, {"name": "Dabovi\u0107i", "name:en": "Dabovichi", "name:ru": "\u0414\u0430\u0431\u043e\u0432\u0438\u0447\u0438", "longitude": 42.6758982, "latitude": 19.0169594}, {"name": "Stubica", "longitude": 42.7042569, "latitude": 18.971023}, {"name": "\u041a\u043e\u0441\u0430\u043d\u0438\u0447\u043a\u0430 \u0420\u0430\u0447\u0430", "name:sr": "\u041a\u043e\u0441\u0430\u043d\u0438\u0447\u043a\u0430 \u0420\u0430\u0447\u0430", "name:sr-Latn": "Kosani\u010dka Ra\u010da", "longitude": 43.0048317, "latitude": 21.3194402}, {"name": "\u0414\u0435\u0448\u0438\u0448\u043a\u0430", "name:sr": "\u0414\u0435\u0448\u0438\u0448\u043a\u0430", "name:sr-Latn": "De\u0161i\u0161ka", "longitude": 43.0260916, "latitude": 21.3150824}, {"name": "\u0409\u0443\u0448\u0430", "name:en": "Ljusa", "name:sr": "\u0409\u0443\u0448\u0430", "name:sr-Latn": "Lju\u0161a", "longitude": 43.0808313, "latitude": 21.3093469}, {"name": "\u0412\u0438\u0441\u043e\u043a\u0430", "name:sr": "\u0412\u0438\u0441\u043e\u043a\u0430", "name:sr-Latn": "Visoka", "longitude": 43.093623, "latitude": 21.3092913}, {"name": "\u041b\u0430\u0437\u0430\u0440\u0435\u0432\u043e", "name:en": "Lazarevo", "name:sr": "\u041b\u0430\u0437\u0430\u0440\u0435\u0432\u043e", "name:sr-Latn": "Lazarevo", "longitude": 45.3800997, "latitude": 20.5405501}, {"name": "Dritan", "longitude": 42.6678072, "latitude": 20.9431544}, {"name": "Ferizaj", "name:de": "Ferizaj", "name:en": "Ferizaj", "name:sq": "Ferizaj", "name:sr": "\u0423\u0440\u043e\u0448\u0435\u0432\u0430\u0446", "longitude": 42.3687437, "latitude": 21.1536304}, {"name": "Gur\u00ebz", "longitude": 42.3114977, "latitude": 21.2119027}, {"name": "\u041a\u043e\u0432\u0438\u043d", "longitude": 44.7518269, "latitude": 20.9660503}, {"name": "\u0411\u0430\u0432\u0430\u043d\u0438\u0448\u0442\u0435", "longitude": 44.8101539, "latitude": 20.8916612}, {"name": "Banjsk\u00eb", "name:sq": "Banjsk\u00eb", "name:sr": "\u0411\u0430\u045a\u0441\u043a\u0430", "name:sr-Latn": "Banjska", "longitude": 42.9781066, "latitude": 20.8225315}, {"name": "\u0408\u0430\u0441\u0435\u043d\u043e\u0432\u0438\u043a", "name:sr": "\u0408\u0430\u0441\u0435\u043d\u043e\u0432\u0438\u043a", "name:sr-Latn": "Jasenovik", "longitude": 43.3639327, "latitude": 22.0291205}, {"name": "\u0421\u0432\u0440\u0459\u0438\u0448\u043a\u0438 \u041c\u0438\u0459\u043a\u043e\u0432\u0430\u0446", "name:sr": "\u0421\u0432\u0440\u0459\u0438\u0448\u043a\u0438 \u041c\u0438\u0459\u043a\u043e\u0432\u0430\u0446", "name:sr-Latn": "Svrlji\u0161ki Miljkovac", "longitude": 43.4893019, "latitude": 22.1348821}, {"name": "\u0413\u043e\u0440\u045a\u0430\u043d\u0435", "name:sr": "\u0413\u043e\u0440\u045a\u0430\u043d\u0435", "name:sr-Latn": "Gornjane", "longitude": 44.2324484, "latitude": 22.0160643}, {"name": "\u0408\u0430\u0441\u0438\u043a\u043e\u0432\u043e", "name:sr": "\u0408\u0430\u0441\u0438\u043a\u043e\u0432\u043e", "name:sr-Latn": "Jasikovo", "longitude": 44.2847929, "latitude": 21.9561933}, {"name": "\u041b\u0435\u0441\u043a\u043e\u0432\u043e", "name:en": "Leskovo", "name:sr": "\u041b\u0435\u0441\u043a\u043e\u0432\u043e", "name:sr-Latn": "Leskovo", "longitude": 44.3168155, "latitude": 21.9419113}, {"name": "\u041c\u0430\u043b\u0430 \u0418\u0432\u0430\u043d\u0447\u0430", "name:sr": "\u041c\u0430\u043b\u0430 \u0418\u0432\u0430\u043d\u0447\u0430", "name:sr-Latn": "Mala Ivan\u010da", "longitude": 44.577289, "latitude": 20.6148814}, {"name": "\u041a\u0430\u0441\u0430\u043f\u043e\u0432\u0430\u0446", "name:sr": "\u041a\u0430\u0441\u0430\u043f\u043e\u0432\u0430\u0446", "name:sr-Latn": "Kasapovac", "longitude": 44.6465501, "latitude": 20.5760161}, {"name": "\u0422\u043e\u043c\u0438\u045b\u0430 \u0431\u0440\u0434\u043e", "name:sr": "\u0422\u043e\u043c\u0438\u045b\u0430 \u0431\u0440\u0434\u043e", "name:sr-Latn": "Tomi\u0107a brdo", "longitude": 43.8050586, "latitude": 20.7878281}, {"name": "\u0414\u0438\u043c\u0438\u0442\u0440\u043e\u0432\u0433\u0440\u0430\u0434", "name:en": "Dimitrovgrad", "name:sr": "\u0414\u0438\u043c\u0438\u0442\u0440\u043e\u0432\u0433\u0440\u0430\u0434", "name:sr-Latn": "Dimitrovgrad", "longitude": 43.0111291, "latitude": 22.7648827}, {"name": "\u0421\u0442\u0438\u0433", "name:en": "Stig", "name:sr": "\u0421\u0442\u0438\u0433", "name:sr-Latn": "Stig", "longitude": 44.6725755, "latitude": 21.3149202}, {"name": "\u0427\u0435\u0448\u0459\u0435\u0432\u0430 \u0411\u0430\u0440\u0430", "name:en": "Cesljeva Bara", "name:sr": "\u0427\u0435\u0448\u0459\u0435\u0432\u0430 \u0411\u0430\u0440\u0430", "name:sr-Latn": "\u010ce\u0161ljeva Bara", "longitude": 44.6241346, "latitude": 21.4899203}, {"name": "\u0420\u0430\u0431\u0440\u043e\u0432\u043e-\u041a\u043b\u0435\u045a\u0435", "name:sr": "\u0420\u0430\u0431\u0440\u043e\u0432\u043e-\u041a\u043b\u0435\u045a\u0435", "name:sr-Latn": "Rabrovo-Klenje", "longitude": 44.5960231, "latitude": 21.5135511}, {"name": "\u041c\u0443\u0441\u0442\u0430\u043f\u0438\u045b", "name:en": "Mustapic", "name:sr": "\u041c\u0443\u0441\u0442\u0430\u043f\u0438\u045b", "name:sr-Latn": "Mustapi\u0107", "longitude": 44.5530197, "latitude": 21.551607}, {"name": "\u0417\u0432\u0438\u0436\u0434", "name:en": "Zvizd", "name:sr": "\u0417\u0432\u0438\u0436\u0434", "name:sr-Latn": "Zvi\u017ed", "longitude": 44.5315581, "latitude": 21.5945748}, {"name": "\u041a\u0443\u0447\u0435\u0432\u0441\u043a\u0430 \u0422\u0443\u0440\u0438\u0458\u0430", "name:en": "Kucevska Turija", "name:sr": "\u041a\u0443\u0447\u0435\u0432\u0441\u043a\u0430 \u0422\u0443\u0440\u0438\u0458\u0430", "name:sr-Latn": "Ku\u010devska Turija", "longitude": 44.5211385, "latitude": 21.6390491}, {"name": "\u041a\u0430\u043e\u043d\u0430", "name:en": "Kaona", "name:sr": "\u041a\u0430\u043e\u043d\u0430", "name:sr-Latn": "Kaona", "longitude": 44.4891322, "latitude": 21.6351939}, {"name": "\u041a\u0443\u0447\u0435\u0432\u043e", "name:en": "Kucevo", "name:sr": "\u041a\u0443\u0447\u0435\u0432\u043e", "name:sr-Latn": "Ku\u010devo", "longitude": 44.4722513, "latitude": 21.6752875}, {"name": "\u0411\u0440\u043e\u0434\u0438\u0446\u0430", "name:en": "Brodica", "name:sr": "\u0411\u0440\u043e\u0434\u0438\u0446\u0430", "name:sr-Latn": "Brodica", "longitude": 44.4840807, "latitude": 21.821628}, {"name": "Slijepa\u010d Most", "longitude": 42.989664, "latitude": 19.686007}, {"name": "Kosovska Mitrovica Sever", "name:sq": "Mitrovic\u00eb Veriore", "name:sr": "\u041a\u043e\u0441\u043e\u0432\u0441\u043a\u0430 \u041c\u0438\u0442\u0440\u043e\u0432\u0438\u0446\u0430 \u0421\u0435\u0432\u0435\u0440", "name:sr-Latn": "Kosovska Mitrovica Sever", "longitude": 42.8997943, "latitude": 20.8706124}, {"name": "\u0420\u0430\u0442\u0438\u043d\u0430", "name:en": "Ratina", "name:sr": "\u0420\u0430\u0442\u0438\u043d\u0430", "name:sr-Latn": "Ratina", "longitude": 43.7131688, "latitude": 20.7524483}, {"name": "\u0412\u0440\u0431\u0430 \u0441\u0442\u0430\u0458\u0430\u043b\u0438\u0448\u0442\u0435", "name:en": "Vrba halt", "name:sr": "\u0412\u0440\u0431\u0430 \u0441\u0442\u0430\u0458\u0430\u043b\u0438\u0448\u0442\u0435", "name:sr-Latn": "Vrba stajali\u0161te", "longitude": 43.6904561, "latitude": 20.7844262}, {"name": "\u041f\u043e\u0434\u0443\u043d\u0430\u0432\u0446\u0438", "name:en": "Podunavci", "name:sr": "\u041f\u043e\u0434\u0443\u043d\u0430\u0432\u0446\u0438", "name:sr-Latn": "Podunavci", "longitude": 43.6725562, "latitude": 20.8337837}, {"name": "\u041b\u0438\u043f\u043e\u0432\u0430 \u0441\u0442\u0430\u0458\u0430\u043b\u0438\u0448\u0442\u0435", "name:en": "Lipova halt", "name:sr": "\u041b\u0438\u043f\u043e\u0432\u0430 \u0441\u0442\u0430\u0458\u0430\u043b\u0438\u0448\u0442\u0435", "name:sr-Latn": "Lipova stajali\u0161te", "longitude": 43.6608467, "latitude": 20.8523183}, {"name": "\u041f\u043e\u0447\u0435\u043a\u043e\u0432\u0438\u043d\u0430", "name:sr": "\u041f\u043e\u0447\u0435\u043a\u043e\u0432\u0438\u043d\u0430", "name:sr-Latn": "Po\u010dekovina", "longitude": 43.5919323, "latitude": 21.0759143}, {"name": "\u041f\u0440\u0438\u0431\u043e\u0458", "name:sr": "\u041f\u0440\u0438\u0431\u043e\u0458", "name:sr-Latn": "Priboj", "longitude": 43.5818895, "latitude": 19.5249285}, {"name": "\u041d\u043e\u0432\u0438 \u0421\u0430\u0434", "name:sr": "\u041d\u043e\u0432\u0438 \u0421\u0430\u0434", "name:sr-Latn": "Novi Sad", "longitude": 45.2658353, "latitude": 19.8291172}, {"name": "\u0421\u0443\u0432\u0430 \u041c\u043e\u0440\u0430\u0432\u0430", "name:en": "Suva Morava", "name:sr": "\u0421\u0443\u0432\u0430 \u041c\u043e\u0440\u0430\u0432\u0430", "name:sr-Latn": "Suva Morava", "longitude": 42.6746146, "latitude": 22.0505126}, {"name": "Sh. Ekonomike", "longitude": 42.65123, "latitude": 21.1413227}, {"name": "\u041f\u0430\u043d\u0447\u0435\u0432\u043e \u0432\u0430\u0440\u043e\u0448", "name:hu": "Pancsova-J\u00f3zsefv\u00e1ros", "name:sr": "\u041f\u0430\u043d\u0447\u0435\u0432\u043e \u0432\u0430\u0440\u043e\u0448", "name:sr-Latn": "Pan\u010devo varo\u0161", "longitude": 44.8790337, "latitude": 20.6605465}, {"name": "\u041f\u0430\u043d\u0447\u0435\u0432\u043e \u0433\u043b\u0430\u0432\u043d\u0430", "name:hu": "Pancsova f\u0151p\u00e1lyaudvar", "name:sr-Latn": "Pan\u010devo glavna", "longitude": 44.8874942, "latitude": 20.6374145}, {"name": "\u041f\u0430\u043d\u0447\u0435\u0432\u043e \u0421\u0442\u0440\u0435\u043b\u0438\u0448\u0442\u0435", "name:sr": "\u041f\u0430\u043d\u0447\u0435\u0432\u043e \u0421\u0442\u0440\u0435\u043b\u0438\u0448\u0442\u0435", "name:sr-Latn": "Pan\u010devo Streli\u0161te", "longitude": 44.8698514, "latitude": 20.6661033}, {"name": "\u041a\u043b\u0435\u043d\u0430\u043a", "name:en": "Klenak", "name:sr": "\u041a\u043b\u0435\u043d\u0430\u043a", "name:sr-Latn": "Klenak", "longitude": 44.7817905, "latitude": 19.714467}, {"name": "\u041e\u045f\u0430\u0446\u0438", "name:en": "Odzaci", "name:hu": "H\u00f3ds\u00e1g", "name:sr": "\u041e\u045f\u0430\u0446\u0438", "name:sr-Latn": "Od\u017eaci", "longitude": 45.5144084, "latitude": 19.2737473}, {"name": "\u041e\u0432\u0447\u0430", "name:en": "Ov\u010da", "name:hu": "B\u00e1r\u00e1nyos", "name:sr": "\u041e\u0432\u0447\u0430", "name:sr-Latn": "Ov\u010da", "longitude": 44.8755249, "latitude": 20.5445353}, {"name": "\u0426\u0440\u0432\u0435\u043d\u0438 \u041a\u0440\u0441\u0442", "name:sr": "\u0426\u0440\u0432\u0435\u043d\u0438 \u041a\u0440\u0441\u0442", "name:sr-Latn": "Crveni Krst", "longitude": 43.3324047, "latitude": 21.8814703}, {"name": "Trebaljevo", "longitude": 42.8883217, "latitude": 19.5421275}, {"name": "Kola\u0161in", "longitude": 42.819552, "latitude": 19.5373501}, {"name": "Pade\u017e", "longitude": 42.7935175, "latitude": 19.5484301}, {"name": "Mate\u0161evo", "longitude": 42.7688691, "latitude": 19.5338654}, {"name": "\u0420\u0430\u0434\u043e\u0432 \u0414\u043e\u043b", "longitude": 43.3051369, "latitude": 22.1843826}, {"name": "\u0421\u0442\u043e\u043f\u0430\u045a\u0430", "name:en": "Stopanja", "name:sr": "\u0421\u0442\u043e\u043f\u0430\u045a\u0430", "name:sr-Latn": "Stopanja", "longitude": 43.5771498, "latitude": 21.153334}, {"name": "\u0411\u043e\u0440 \u0442\u0435\u0440\u0435\u0442\u043d\u0430", "name:en": "Bor teretna", "name:sr": "\u0411\u043e\u0440 \u0442\u0435\u0440\u0435\u0442\u043d\u0430", "name:sr-Latn": "Bor teretna", "longitude": 44.0599177, "latitude": 22.1251978}, {"name": "\u0402\u0443\u0440\u0452\u0435\u0432\u043e \u041f\u043e\u0459\u0435", "name:en": "Djurdjevo Polje", "name:sr": "\u0402\u0443\u0440\u0452\u0435\u0432\u043e \u041f\u043e\u0459\u0435", "name:sr-Latn": "\u0110ur\u0111evo Polje", "longitude": 43.2311162, "latitude": 22.4584832}, {"name": "\u0413\u0438\u0459\u0435", "name:sr-Latn": "Gilje", "longitude": 43.9541925, "latitude": 21.3177274}, {"name": "Prelluzh\u00eb", "longitude": 42.7326263, "latitude": 21.0264449}, {"name": "Lipjan", "name:de": "Lipjan", "name:en": "Lipjan", "name:sr": "\u041b\u0438\u043f\u0459\u0430\u043d", "name:sr-Latn": "Lipljan", "longitude": 42.5221171, "latitude": 21.1241508}, {"name": "Bablak", "longitude": 42.4465163, "latitude": 21.1546725}, {"name": "Kodrion", "name:sort:sr": "ZELEZNICKASTANICAKOSIN", "longitude": 42.4171877, "latitude": 21.1348527}, {"name": "Fush\u00eb Kosov\u00eb", "name:sr": "\u041a\u043e\u0441\u043e\u0432\u043e \u041f\u043e\u0459\u0435", "name:sr-Latn": "Kosovo Polje", "longitude": 42.6348137, "latitude": 21.0809567}, {"name": "\u0411\u0430\u0431\u0438\u043d \u041f\u043e\u0442\u043e\u043a", "name:sr": "\u0411\u0430\u0431\u0438\u043d \u041f\u043e\u0442\u043e\u043a", "name:sr-Latn": "Babin Potok", "longitude": 43.2225403, "latitude": 21.6318895}, {"name": "\u041c\u0435\u0440\u0434\u0430\u0440\u0435", "name:sr": "\u041c\u0435\u0440\u0434\u0430\u0440\u0435", "name:sr-Latn": "Merdare", "longitude": 42.9475303, "latitude": 21.2628941}, {"name": "\u0414\u0435\u0434\u0438\u043d\u0430", "longitude": 43.5925772, "latitude": 21.3534533}, {"name": "Seperant", "name:en": "Seperant", "name:sq": "Seperant", "longitude": 42.6582763, "latitude": 20.3873241}, {"name": "\u041a\u0440\u045a\u0430\u0447\u0430 \u043c\u043e\u0441\u0442", "name:en": "Krnjaca Bridge", "name:sr": "\u041a\u0440\u045a\u0430\u0447\u0430 \u043c\u043e\u0441\u0442", "name:sr-Latn": "Krnja\u010da most", "longitude": 44.8407965, "latitude": 20.4979348}, {"name": "\u0413\u043e\u043b\u0443\u0431\u0438\u043d\u0446\u0438", "name:en": "Golubinci", "name:sr": "\u0413\u043e\u043b\u0443\u0431\u0438\u043d\u0446\u0438", "name:sr-Latn": "Golubinci", "longitude": 45.0162234, "latitude": 20.051528}, {"name": "\u041b\u043e\u0437\u043d\u0438\u0446\u0430", "name:sr": "\u041b\u043e\u0437\u043d\u0438\u0446\u0430", "name:sr-Latn": "Loznica", "longitude": 44.5354651, "latitude": 19.215995}, {"name": "\u0408\u0430\u0434\u0430\u0440\u0441\u043a\u0430 \u0421\u0442\u0440\u0430\u0436\u0430", "name:sr": "\u0408\u0430\u0434\u0430\u0440\u0441\u043a\u0430 \u0421\u0442\u0440\u0430\u0436\u0430", "name:sr-Latn": "Jadarska Stra\u017ea", "longitude": 44.624331, "latitude": 19.3039286}, {"name": "\u041b\u0435\u0448\u043d\u0438\u0446\u0430", "name:sr": "\u041b\u0435\u0448\u043d\u0438\u0446\u0430", "name:sr-Latn": "Le\u0161nica", "longitude": 44.656531, "latitude": 19.3212032}, {"name": "\u041f\u043e\u0434\u0440\u0438\u045a\u0441\u043a\u043e \u041d\u043e\u0432\u043e \u0421\u0435\u043b\u043e", "name:sr": "\u041f\u043e\u0434\u0440\u0438\u045a\u0441\u043a\u043e \u041d\u043e\u0432\u043e \u0421\u0435\u043b\u043e", "name:sr-Latn": "Podrinjsko Novo Selo", "longitude": 44.6733199, "latitude": 19.3421735}, {"name": "\u041f\u0440\u045a\u0430\u0432\u043e\u0440 \u041c\u0430\u0447\u0432\u0430\u043d\u0441\u043a\u0438", "name:sr": "\u041f\u0440\u045a\u0430\u0432\u043e\u0440 \u041c\u0430\u0447\u0432\u0430\u043d\u0441\u043a\u0438", "name:sr-Latn": "Prnjavor Ma\u010dvanski", "longitude": 44.6965335, "latitude": 19.3770188}, {"name": "\u041f\u0435\u0442\u043b\u043e\u0432\u0430\u0447\u0430", "name:sr": "\u041f\u0435\u0442\u043b\u043e\u0432\u0430\u0447\u0430", "name:sr-Latn": "Petlova\u010da", "longitude": 44.7285369, "latitude": 19.4481723}, {"name": "\u0414\u0443\u0431\u0459\u0435 \u041c\u0430\u0447\u0432\u0430\u043d\u0441\u043a\u043e", "name:sr": "\u0414\u0443\u0431\u0459\u0435 \u041c\u0430\u0447\u0432\u0430\u043d\u0441\u043a\u043e", "name:sr-Latn": "Dublje Ma\u010dvansko", "longitude": 44.7565523, "latitude": 19.5355028}, {"name": "\u0428\u0442\u0438\u0442\u0430\u0440", "name:sr": "\u0428\u0442\u0438\u0442\u0430\u0440", "name:sr-Latn": "\u0160titar", "longitude": 44.7802584, "latitude": 19.6102468}, {"name": "\u041a\u043d\u0435\u0436\u0435\u0432\u0430\u0446", "name:en": "Knezevac", "name:sr": "\u041a\u043d\u0435\u0436\u0435\u0432\u0430\u0446", "name:sr-Latn": "Kne\u017eevac", "longitude": 44.7316219, "latitude": 20.4312026}, {"name": "\u041a\u0438\u0458\u0435\u0432\u043e", "name:en": "Kijevo", "name:sr": "\u041a\u0438\u0458\u0435\u0432\u043e", "name:sr-Latn": "Kijevo", "longitude": 44.7233675, "latitude": 20.4369419}, {"alt_name:en": "Belgrade Centre", "name": "\u0411\u0435\u043e\u0433\u0440\u0430\u0434 \u0446\u0435\u043d\u0442\u0430\u0440", "name:de": "Belgrad Zentrum", "name:en": "Belgrade Center", "name:hu": "Belgr\u00e1d K\u00f6zponti", "name:sr": "\u0411\u0435\u043e\u0433\u0440\u0430\u0434 \u0446\u0435\u043d\u0442\u0430\u0440", "name:sr-Latn": "Beograd centar", "longitude": 44.7936304, "latitude": 20.4531284}, {"name": "\u0411\u0435\u0448\u043a\u0430", "name:en": "Beska", "name:sr": "\u0411\u0435\u0448\u043a\u0430", "name:sr-Latn": "Be\u0161ka", "longitude": 45.1409407, "latitude": 20.0416141}, {"name": "\u0421\u0442\u0430\u043b\u0430\u045b \u0413\u0440\u0430\u0434", "name:en": "Stalac Grad", "name:sr": "\u0421\u0442\u0430\u043b\u0430\u045b \u0413\u0440\u0430\u0434", "name:sr-Latn": "Stala\u0107 Grad", "longitude": 43.6743762, "latitude": 21.4045227}, {"name": "\u040b\u0438\u045b\u0435\u0432\u0430\u0446", "longitude": 43.7204266, "latitude": 21.4381152}, {"name": "Neresnica", "longitude": 44.4670292, "latitude": 21.7396917}, {"name": "Borska Slatina", "longitude": 44.0503749, "latitude": 22.1514716}, {"name": "\u041b\u0443\u0447\u0438\u043d\u0430", "name:sr": "\u041b\u0443\u0447\u0438\u043d\u0430", "name:sr-Latn": "Lu\u010dina", "longitude": 43.702774, "latitude": 21.4300015}, {"name": "\u041e\u0441\u0438\u043f\u0430\u043e\u043d\u0438\u0446\u0430 \u0441\u0442\u0430\u0458\u0430\u043b\u0438\u0448\u0442\u0435", "longitude": 44.5446198, "latitude": 21.0453939}, {"name": "\u041a\u0440\u0430\u0459\u0435\u0432\u0446\u0438", "longitude": 44.9843776, "latitude": 19.8874872}, {"name": "\u0422\u043e\u043f\u043b\u0438\u0446\u0430 \u041c\u0438\u043b\u0430\u043d", "name:en": "Toplica Milan", "longitude": 43.2177111, "latitude": 21.3806618}, {"name": "\u0413\u043e\u0440\u045a\u0430 \u0414\u0440\u0430\u0433\u0430\u045a\u0430", "name:en": "Gornja Draganja", "longitude": 43.2286264, "latitude": 21.5616512}, {"name": "\u0413\u0443\u0433\u0430\u0459", "longitude": 43.8663232, "latitude": 20.0979837}, {"name": "Mrzenica", "longitude": 43.6572022, "latitude": 21.3851806}, {"name": "\u0427\u0438\u0442\u043b\u0443\u043a", "longitude": 43.5906874, "latitude": 21.2699381}, {"name": "\u0420\u0438\u043f\u0430\u045a \u043a\u043e\u043b\u043e\u043d\u0438\u0458\u0430", "name:sr-Latn": "Ripanj kolonija", "longitude": 44.6683305, "latitude": 20.4950157}, {"name": "\u0413\u043e\u0440\u045a\u0430 \u041a\u043e\u0432\u0438\u0459\u0430\u0447\u0430", "name:sr": "\u0413\u043e\u0440\u045a\u0430 \u041a\u043e\u0432\u0438\u0459\u0430\u0447\u0430", "name:sr-Latn": "Gornja Kovilja\u010da", "longitude": 44.4897873, "latitude": 19.1366194}, {"name": "Tuzi", "longitude": 42.3613236, "latitude": 19.3379404}, {"name": "Virpazar", "name:sr": "\u0412\u0438\u0440\u043f\u0430\u0437\u0430\u0440", "longitude": 42.2394916, "latitude": 19.0840459}, {"name": "Sutomore", "name:sr": "\u0421\u0443\u0442\u043e\u043c\u043e\u0440\u0435", "longitude": 42.1397242, "latitude": 19.0502516}, {"name": "Bijelo Polje", "longitude": 43.0543475, "latitude": 19.7694321}, {"name": "Bar", "longitude": 42.0872623, "latitude": 19.1054896}, {"name": "Aerodrom", "name:sr": "\u0410\u0435\u0440\u043e\u0434\u0440\u043e\u043c", "longitude": 42.3653064, "latitude": 19.2345325}, {"name": "\u0412\u0440\u0430\u045a\u0441\u043a\u0430 \u0411\u0430\u045a\u0430", "name:en": "Vranjska Banja", "name:sr": "\u0412\u0440\u0430\u045a\u0441\u043a\u0430 \u0411\u0430\u045a\u0430", "name:sr-Latn": "Vranjska Banja", "longitude": 42.5686799, "latitude": 21.9826607}, {"name": "\u0412\u043b\u0430\u0434\u0438\u043c\u0438\u0440\u043e\u0432\u0430\u0446", "name:sr": "\u0412\u043b\u0430\u0434\u0438\u043c\u0438\u0440\u043e\u0432\u0430\u0446", "name:sr-Latn": "Vladimirovac", "longitude": 45.0314395, "latitude": 20.8927449}, {"name": "\u0411\u0430\u0447\u043a\u0438 \u041f\u0435\u0442\u0440\u043e\u0432\u0430\u0446 - \u0413\u043b\u043e\u0436\u0430\u043d", "name:sr": "\u0411\u0430\u0447\u043a\u0438 \u041f\u0435\u0442\u0440\u043e\u0432\u0430\u0446 - \u0413\u043b\u043e\u0436\u0430\u043d", "name:sr-Latn": "Ba\u010dki Petrovac - Glo\u017ean", "longitude": 45.3289906, "latitude": 19.5820533}, {"name": "\u0423\u0436\u0438\u0446\u0435 \u0442\u0435\u0440\u0435\u0442\u043d\u0430", "name:sr": "\u0423\u0436\u0438\u0446\u0435 \u0442\u0435\u0440\u0435\u0442\u043d\u0430", "name:sr-Latn": "U\u017eice teretna", "longitude": 43.8466886, "latitude": 19.8584157}, {"name": "\u041a\u043e\u0441\u0458\u0435\u0440\u0438\u045b", "longitude": 44.0004133, "latitude": 19.9189732}, {"name": "\u041f\u0440\u0438\u0431\u043e\u0458\u0441\u043a\u0430 \u0411\u0430\u045a\u0430", "name:sr": "\u041f\u0440\u0438\u0431\u043e\u0458\u0441\u043a\u0430 \u0411\u0430\u045a\u0430", "name:sr-Latn": "Pribojska Banja", "longitude": 43.5293142, "latitude": 19.5711478}, {"name": "\u0420\u0438\u0431\u043d\u0438\u0446\u0430 \u0417\u043b\u0430\u0442\u0438\u0431\u043e\u0440\u0441\u043a\u0430", "name:sr": "\u0420\u0438\u0431\u043d\u0438\u0446\u0430 \u0417\u043b\u0430\u0442\u0438\u0431\u043e\u0440\u0441\u043a\u0430", "name:sr-Latn": "Ribnica Zlatiborska", "longitude": 43.7080883, "latitude": 19.5731644}, {"name": "\u0411\u0430\u0442\u0430\u0458\u043d\u0438\u0446\u0430", "name:sr": "\u0411\u0430\u0442\u0430\u0458\u043d\u0438\u0446\u0430", "name:sr-Latn": "Batajnica", "longitude": 44.8990744, "latitude": 20.2718514}, {"name": "\u041d\u043e\u0432\u0438 \u0411\u0435\u043e\u0433\u0440\u0430\u0434", "name:de": "Neu-Belgrad", "name:en": "New Belgrade", "name:pl": "Nowy Belgrad", "name:ru": "\u041d\u043e\u0432\u044b\u0439 \u0411\u0435\u043b\u0433\u0440\u0430\u0434", "name:sr": "\u041d\u043e\u0432\u0438 \u0411\u0435\u043e\u0433\u0440\u0430\u0434", "name:sr-Latn": "Novi Beograd", "longitude": 44.8069189, "latitude": 20.4178455}, {"name": "\u0412\u0443\u043a\u043e\u0432 \u0441\u043f\u043e\u043c\u0435\u043d\u0438\u043a", "name:ru": "\u041f\u0430\u043c\u044f\u0442\u043d\u0438\u043a \u0412\u0443\u043a\u0443", "name:sr": "\u0412\u0443\u043a\u043e\u0432 \u0441\u043f\u043e\u043c\u0435\u043d\u0438\u043a", "name:sr-Latn": "Vukov spomenik", "longitude": 44.8051519, "latitude": 20.4776373}, {"name": "\u0422\u043e\u0448\u0438\u043d \u0431\u0443\u043d\u0430\u0440", "name:en": "Tosin Bunar", "name:sr": "\u0422\u043e\u0448\u0438\u043d \u0431\u0443\u043d\u0430\u0440", "name:sr-Latn": "To\u0161in bunar", "longitude": 44.8163487, "latitude": 20.3972576}, {"name": "\u0421\u043c\u0435\u0434\u0435\u0440\u0435\u0432\u043e", "name:en": "Smederevo", "name:sr": "\u0421\u043c\u0435\u0434\u0435\u0440\u0435\u0432\u043e", "name:sr-Latn": "Smederevo", "longitude": 44.6678003, "latitude": 20.926878}, {"name": "Tabakovac", "name:sr": "\u0422\u0430\u0431\u0430\u043a\u043e\u0432\u0430\u0446", "name:sr-Latn": "Tabakovac", "longitude": 44.0576393, "latitude": 22.4140242}, {"name": "\u0412\u043b\u0430\u0448\u043a\u043e \u041f\u043e\u0459\u0435", "name:sr": "\u0412\u043b\u0430\u0448\u043a\u043e \u041f\u043e\u0459\u0435", "name:sr-Latn": "Vla\u0161ko Polje", "longitude": 44.4805787, "latitude": 20.660348}, {"name": "\u0412\u0440\u0448\u0430\u0446", "name:en": "Vr\u0161ac", "name:sr": "\u0412\u0440\u0448\u0430\u0446", "name:sr-Latn": "Vr\u0161ac", "longitude": 45.1057392, "latitude": 21.2831718}, {"name": "\u041c\u0440\u0430\u043c\u043e\u0440\u0430\u043a", "longitude": 44.8573741, "latitude": 20.9963082}, {"name": "\u041b\u043e\u043a\u0432\u0435", "longitude": 45.1618155, "latitude": 21.0189344}, {"name": "\u0421\u0432\u0440\u0459\u0438\u0433", "name:sr": "\u0421\u0432\u0440\u0459\u0438\u0433", "name:sr-Latn": "Svrljig", "longitude": 43.4142983, "latitude": 22.1181103}, {"name": "\u041f\u0430\u043b\u0438\u043b\u0443\u043b\u0430", "name:sr-Latn": "Palilula", "longitude": 43.4892077, "latitude": 22.1111404}, {"name": "\u0413\u043e\u0440\u045a\u0430 \u0412\u0440\u0435\u0436\u0438\u043d\u0430", "name:sr-Latn": "Gornja Vre\u017eina", "longitude": 43.3320808, "latitude": 21.9968469}, {"name": "\u041d\u0438\u0448\u0435\u0432\u0430\u0446", "name:sr-Latn": "Ni\u0161evac", "longitude": 43.4585801, "latitude": 22.1025392}, {"name": "\u0423\u0436\u0438\u0446\u0435", "name:sr": "\u0423\u0436\u0438\u0446\u0435", "name:sr-Latn": "U\u017eice", "longitude": 43.8534335, "latitude": 19.8397078}, {"name": "\u0417\u0440\u0435\u045a\u0430\u043d\u0438\u043d \u0442\u0435\u0440\u0435\u0442\u043d\u0430", "name:sr": "\u0417\u0440\u0435\u045a\u0430\u043d\u0438\u043d \u0442\u0435\u0440\u0435\u0442\u043d\u0430", "name:sr-Latn": "Zrenjanin teretna", "longitude": 45.3859365, "latitude": 20.3733517}, {"name": "\u041a\u043b\u0435\u045a\u0435", "name:sr": "\u041a\u043b\u0435\u045a\u0435", "name:sr-Latn": "Klenje", "longitude": 44.6417284, "latitude": 20.5328266}, {"name": "\u041b\u0435\u0441\u043a\u043e\u0432\u0430\u0446 \u041a\u043e\u043b\u0443\u0431\u0430\u0440\u0441\u043a\u0438", "name:sr": "\u041b\u0435\u0441\u043a\u043e\u0432\u0430\u0446 \u041a\u043e\u043b\u0443\u0431\u0430\u0440\u0441\u043a\u0438", "name:sr-Latn": "Leskovac Kolubarski", "longitude": 44.5084434, "latitude": 20.3422352}, {"name": "\u041a\u0430\u043c\u0435\u043d\u0434\u0438\u043d", "longitude": 44.8671907, "latitude": 20.3205853}, {"name": "\u041c\u043b\u0430\u0434\u0435\u043d\u043e\u0432\u0430\u0446", "name:en": "Mladenovac", "name:sr": "\u041c\u043b\u0430\u0434\u0435\u043d\u043e\u0432\u0430\u0446", "name:sr-Latn": "Mladenovac", "longitude": 44.4401959, "latitude": 20.6912696}, {"name": "\u0410\u043b\u0442\u0438\u043d\u0430", "name:en": "Altina", "longitude": 44.8501954, "latitude": 20.3455439}, {"name": "\u0417\u0435\u043c\u0443\u043d\u0441\u043a\u043e \u043f\u043e\u0459\u0435", "name:en": "Zemunsko polje", "name:sr": "\u0417\u0435\u043c\u0443\u043d\u0441\u043a\u043e \u043f\u043e\u0459\u0435", "name:sr-Latn": "Zemunsko polje", "longitude": 44.8577732, "latitude": 20.3346914}, {"name": "\u0411\u0430\u043d\u0430\u0442\u0441\u043a\u043e \u0412\u0435\u043b\u0438\u043a\u043e \u0421\u0435\u043b\u043e", "name:sr": "\u0411\u0430\u043d\u0430\u0442\u0441\u043a\u043e \u0412\u0435\u043b\u0438\u043a\u043e \u0421\u0435\u043b\u043e", "name:sr-Latn": "Banatsko Veliko Selo", "longitude": 45.8093469, "latitude": 20.615616}, {"name": "\u0420\u0430\u043a\u043e\u0432\u0438\u0446\u0430", "name:sr": "\u0420\u0430\u043a\u043e\u0432\u0438\u0446\u0430", "name:sr-Latn": "Rakovica", "longitude": 44.7466503, "latitude": 20.4429542}, {"name": "\u0420\u0435\u0441\u043d\u0438\u043a", "name:sr": "\u0420\u0435\u0441\u043d\u0438\u043a", "name:sr-Latn": "Resnik", "longitude": 44.7044453, "latitude": 20.4484192}, {"name": "\u0418\u043d\u0452\u0438\u0458\u0430", "name:en": "In\u0111ija", "name:sr-Latn": "In\u0111ija", "longitude": 45.0484566, "latitude": 20.0923406}, {"name": "Dren", "name:sr": "\u0414\u0440\u0435\u043d", "name:sr-Latn": "Dren", "longitude": 43.1293205, "latitude": 20.7684383}, {"name": "\u0425\u043e\u0440\u0433\u043e\u0448", "name:hu": "Horgos", "name:sr": "\u0425\u043e\u0440\u0433\u043e\u0448", "name:sr-Latn": "Horgo\u0161", "longitude": 46.1558819, "latitude": 19.9577222}, {"name": "\u0417\u0440\u0435\u045a\u0430\u043d\u0438\u043d", "name:sr": "\u0417\u0440\u0435\u045a\u0430\u043d\u0438\u043d", "name:sr-Latn": "Zrenjanin", "longitude": 45.3780363, "latitude": 20.3789828}, {"name": "\u0421\u0442\u0430\u0440\u0430 \u041f\u0430\u0437\u043e\u0432\u0430", "name:sr": "\u0421\u0442\u0430\u0440\u0430 \u041f\u0430\u0437\u043e\u0432\u0430", "name:sr-Latn": "Stara Pazova", "longitude": 44.9866097, "latitude": 20.1374427}, {"name": "\u0408\u0430\u0458\u0438\u043d\u0446\u0438", "name:sr": "\u0408\u0430\u0458\u0438\u043d\u0446\u0438", "name:sr-Latn": "Jajinci", "longitude": 44.7217287, "latitude": 20.4571091}, {"name": "\u040b\u0443\u043f\u0440\u0438\u0458\u0430", "name:de": "\u0106uprija", "name:en": "Cuprija", "name:sr": "\u040b\u0443\u043f\u0440\u0438\u0458\u0430", "name:sr-Latn": "\u0106uprija", "longitude": 43.9162921, "latitude": 21.3653629}, {"name": "\u041f\u0430\u043b\u0438\u043b\u0443\u043b\u0441\u043a\u0430 \u0440\u0430\u043c\u043f\u0430", "name:sr-Latn": "Palilulska rampa", "longitude": 43.3130581, "latitude": 21.8976455}, {"name": "\u0411\u0443\u043a\u0430\u0440\u0435\u0432\u0430\u0446", "name:sr": "\u0411\u0443\u043a\u0430\u0440\u0435\u0432\u0430\u0446", "name:sr-Latn": "Bukarevac", "longitude": 42.3447333, "latitude": 21.7063534}, {"name": "\u0411\u0435\u043b\u0430 \u041f\u0430\u043b\u0430\u043d\u043a\u0430", "longitude": 43.2216649, "latitude": 22.3176187}, {"alt_name": "\u041a\u0440\u045a\u0430\u0447\u0430 \u0443\u043a\u0440\u0441\u043d\u0438\u0446\u0430", "alt_name:sr": "\u041a\u0440\u045a\u0430\u0447\u0430 \u0443\u043a\u0440\u0441\u043d\u0438\u0446\u0430", "alt_name:sr-Latn": "Krnja\u010da ukrsnica", "name": "\u041a\u0440\u045a\u0430\u0447\u0430", "name:en": "Krnjaca", "name:sr": "\u041a\u0440\u045a\u0430\u0447\u0430", "name:sr-Latn": "Krnja\u010da", "longitude": 44.8479666, "latitude": 20.5054794}, {"name": "\u041c\u0430\u0458\u0443\u0440", "name:en": "Majur", "name:sr": "\u041c\u0430\u0458\u0443\u0440", "name:sr-Latn": "Majur", "longitude": 44.7718315, "latitude": 19.6556995}, {"name": "\u0411\u0430\u0440\u0430\u0458\u0435\u0432\u043e", "name:sr": "\u0411\u0430\u0440\u0430\u0458\u0435\u0432\u043e", "name:sr-Latn": "Barajevo", "longitude": 44.5939358, "latitude": 20.4252123}, {"name": "\u0412\u0430\u0459\u0435\u0432\u043e", "name:en": "Valjevo", "name:sr": "\u0412\u0430\u0459\u0435\u0432\u043e", "name:sr-Latn": "Valjevo", "longitude": 44.2705598, "latitude": 19.9072281}, {"name": "\u0412\u0430\u0459\u0435\u0432\u043e", "name:en": "Valjevo", "name:sr": "\u0412\u0430\u0459\u0435\u0432\u043e", "name:sr-Latn": "Valjevo", "longitude": 44.2706001, "latitude": 19.9072271}, {"name": "\u041b\u0430\u0441\u0442\u0440\u0430", "name:sr": "\u041b\u0430\u0441\u0442\u0440\u0430", "name:sr-Latn": "Lastra", "longitude": 44.1562863, "latitude": 19.8864444}, {"name": "\u0421\u0430\u043c\u0430\u0440\u0438", "name:sr": "\u0421\u0430\u043c\u0430\u0440\u0438", "name:sr-Latn": "Samari", "longitude": 44.1234785, "latitude": 19.8578578}, {"name": "\u041a\u043e\u0441\u0458\u0435\u0440\u0438\u045b", "name:sr": "\u041a\u043e\u0441\u0458\u0435\u0440\u0438\u045b", "name:sr-Latn": "Kosjeri\u0107", "longitude": 44.0004081, "latitude": 19.9189554}, {"name": "\u041f\u043e\u0436\u0435\u0433\u0430", "name:en": "Pozega", "name:sr": "\u041f\u043e\u0436\u0435\u0433\u0430", "name:sr-Latn": "Po\u017eega", "longitude": 43.8405367, "latitude": 20.0288706}, {"name": "\u0423\u0436\u0438\u0446\u0435 \u0442\u0435\u0440\u0435\u0442\u043d\u0430", "name:sr": "\u0423\u0436\u0438\u0446\u0435 \u0442\u0435\u0440\u0435\u0442\u043d\u0430", "name:sr-Latn": "U\u017eice teretna", "longitude": 43.8467322, "latitude": 19.8583838}, {"name": "\u041f\u0440\u0438\u0458\u0435\u043f\u043e\u0459\u0435", "name:de": "Prijepolje", "name:en": "Prijepolje", "name:sr": "\u041f\u0440\u0438\u0458\u0435\u043f\u043e\u0459\u0435", "name:sr-Latn": "Prijepolje", "longitude": 43.3928506, "latitude": 19.6400264}, {"name": "\u041f\u0440\u0438\u0458\u0435\u043f\u043e\u0459\u0435 \u0442\u0435\u0440\u0435\u0442\u043d\u0430", "name:en": "Prijepolje cargo", "name:sr": "\u041f\u0440\u0438\u0458\u0435\u043f\u043e\u0459\u0435 \u0442\u0435\u0440\u0435\u0442\u043d\u0430", "name:sr-Latn": "Prijepolje teretna", "longitude": 43.3664279, "latitude": 19.633481}, {"name": "\u041c\u0435\u043b\u0435\u043d\u0446\u0438", "name:hu": "Melence", "name:sr": "\u041c\u0435\u043b\u0435\u043d\u0446\u0438", "name:sr-Latn": "Melenci", "longitude": 45.5085728, "latitude": 20.2976662}, {"name": "\u041a\u0443\u043c\u0430\u043d\u0435", "name:hu": "Kum\u00e1n", "name:sr": "\u041a\u0443\u043c\u0430\u043d\u0435", "name:sr-Latn": "Kumane", "longitude": 45.5482413, "latitude": 20.2320742}, {"name": "\u0411\u0430\u043d\u0430\u0442. \u041c\u0438\u043b\u043e\u0448\u0435\u0432\u043e \u041f\u043e\u0459\u0435", "name:sr": "\u0411\u0430\u043d\u0430\u0442. \u041c\u0438\u043b\u043e\u0448\u0435\u0432\u043e \u041f\u043e\u0459\u0435", "name:sr-Latn": "Banat. Milo\u0161evo Polje", "longitude": 45.6927896, "latitude": 20.2958293}, {"name": "\u0411\u043e\u0433\u0430\u0440\u0430\u0448", "name:en": "Bogaras", "name:hu": "Bogaras", "name:sr": "\u0411\u043e\u0433\u0430\u0440\u0430\u0448", "name:sr-Latn": "Bogara\u0161", "longitude": 45.9351409, "latitude": 19.9273342}, {"name": "\u0414\u043e\u043b\u0438\u043d\u0435", "name:hu": "V\u00f6lgyes", "name:sr": "\u0414\u043e\u043b\u0438\u043d\u0435", "name:sr-Latn": "Doline", "longitude": 45.9580843, "latitude": 19.8719749}, {"name": "\u0411\u0438\u043a\u043e\u0432\u043e", "name:en": "Bikovo", "name:hu": "B\u00e9kova", "name:sr": "\u0411\u0438\u043a\u043e\u0432\u043e", "name:sr-Latn": "Bikovo", "longitude": 46.0196577, "latitude": 19.7718681}, {"name": "\u0421\u043e\u043f\u043e\u0442 \u041f\u043e\u0436\u0430\u0440\u0435\u0432\u0430\u0447\u043a\u0438", "name:sr": "\u0421\u043e\u043f\u043e\u0442 \u041f\u043e\u0436\u0430\u0440\u0435\u0432\u0430\u0447\u043a\u0438", "name:sr-Latn": "Sopot Po\u017eareva\u010dki", "longitude": 44.6337858, "latitude": 21.1938387}, {"name": "\u0411\u0438\u0441\u0442\u0440\u0438\u0446\u0430 \u043d\u0430 \u041b\u0438\u043c\u0443", "name:sr": "\u0411\u0438\u0441\u0442\u0440\u0438\u0446\u0430 \u043d\u0430 \u041b\u0438\u043c\u0443", "name:sr-Latn": "Bistrica na Limu", "longitude": 43.4832126, "latitude": 19.6463724}, {"name": "\u041f\u0430\u043d\u0447\u0435\u0432\u0430\u0447\u043a\u0438 \u041c\u043e\u0441\u0442 (\u0414\u0443\u043d\u0430\u0432\u0441\u043a\u0438 \u043f\u0435\u0440\u043e\u043d)", "name:sr": "\u041f\u0430\u043d\u0447\u0435\u0432\u0430\u0447\u043a\u0438 \u041c\u043e\u0441\u0442 (\u0414\u0443\u043d\u0430\u0432\u0441\u043a\u0438 \u043f\u0435\u0440\u043e\u043d)", "name:sr-Latn": "Pan\u010deva\u010dki Most (Dunavski peron)", "longitude": 44.8195683, "latitude": 20.4889603}, {"name": "Nik\u0161i\u0107", "longitude": 42.7702531, "latitude": 18.9449419}, {"name": "\u0427\u0430\u0447\u0430\u043a", "name:sr-Latn": "\u010ca\u010dak", "longitude": 43.8899798, "latitude": 20.356164}, {"name": "\u0412\u0440\u0431\u0430", "name:en": "Vrba", "name:sr": "\u0412\u0440\u0431\u0430", "name:sr-Latn": "Vrba", "longitude": 43.6904882, "latitude": 20.7844903}, {"name": "\u041f\u043e\u0434\u0443\u043d\u0430\u0432\u0446\u0438", "name:en": "Podunavci", "name:sr": "\u041f\u043e\u0434\u0443\u043d\u0430\u0432\u0446\u0438", "name:sr-Latn": "Podunavci", "longitude": 43.672089, "latitude": 20.8346595}, {"name": "\u0422\u0440\u0441\u0442\u0435\u043d\u0438\u043a", "name:en": "Trstenik", "name:sh": "\u0422\u0440\u0441\u0442\u0435\u043d\u0438\u043a", "name:sr-Latn": "Trstenik", "longitude": 43.6150143, "latitude": 20.9976271}, {"name": "\u0421\u0435\u0432\u043e\u0458\u043d\u043e", "name:en": "Sevojno", "name:sr": "\u0421\u0435\u0432\u043e\u0458\u043d\u043e", "name:sr-Latn": "Sevojno", "longitude": 43.8379267, "latitude": 19.9044583}, {"name": "\u0421\u0440\u0435\u043c\u0441\u043a\u0430 \u041c\u0438\u0442\u0440\u043e\u0432\u0438\u0446\u0430", "name:sr": "\u0421\u0440\u0435\u043c\u0441\u043a\u0430 \u041c\u0438\u0442\u0440\u043e\u0432\u0438\u0446\u0430", "name:sr-Latn": "Sremska Mitrovica", "longitude": 44.9824191, "latitude": 19.6136426}, {"name": "\u0425\u0430\u0458\u0434\u0443\u043a\u043e\u0432\u043e", "name:sr": "\u0425\u0430\u0458\u0434\u0443\u043a\u043e\u0432\u043e", "name:sr-Latn": "Hajdukovo", "longitude": 46.115119, "latitude": 19.8103344}, {"name": "\u041a\u043e\u0432\u0430\u0447\u0438\u0446\u0430", "name:sr": "\u041a\u043e\u0432\u0430\u0447\u0438\u0446\u0430", "name:sr-Latn": "Kova\u010dica", "longitude": 45.1118912, "latitude": 20.6107713}, {"name": "\u0418\u043b\u0430\u043d\u045f\u0430", "longitude": 45.1706904, "latitude": 20.9269956}, {"name": "\u0417\u0440\u0435\u045a\u0430\u043d\u0438\u043d \u0444\u0430\u0431\u0440\u0438\u043a\u0430", "name:en": "Zrenjanin factory", "name:sr": "\u0417\u0440\u0435\u045a\u0430\u043d\u0438\u043d \u0444\u0430\u0431\u0440\u0438\u043a\u0430", "name:sr-Latn": "Zrenjanin fabrika", "longitude": 45.3712412, "latitude": 20.4261241}, {"name": "\u0415\u043b\u0435\u043c\u0438\u0440", "name:en": "Elemir", "name:sr": "\u0415\u043b\u0435\u043c\u0438\u0440", "name:sr-Latn": "Elemir", "longitude": 45.4372886, "latitude": 20.311206}, {"name": "\u0412\u0440\u0431\u0430\u0441 \u041d\u043e\u0432\u0430", "longitude": 45.5549662, "latitude": 19.6286387}, {"name": "\u041f\u0435\u0442\u0440\u043e\u0432\u0430\u0440\u0430\u0434\u0438\u043d", "name:en": "Petrovaradin", "name:sr": "\u041f\u0435\u0442\u0440\u043e\u0432\u0430\u0440\u0430\u0434\u0438\u043d", "name:sr-Latn": "Petrovaradin", "longitude": 45.2404343, "latitude": 19.8882012}, {"name": "\u041a\u0440\u0430\u0433\u0443\u0458\u0435\u0432\u0430\u0446", "name:en": "Kragujevac", "name:sr": "\u041a\u0440\u0430\u0433\u0443\u0458\u0435\u0432\u0430\u0446", "name:sr-Latn": "Kragujevac", "longitude": 44.0101302, "latitude": 20.9284269}]